{
"type": "FeatureCollection",
"name": "itineraries",
"crs": { "type": "name", "properties": { "name": "urn:ogc:def:crs:OGC:1.3:CRS84" } },
"features": [
{ "type": "Feature", "properties": { "itinerary_id": 1 }, "geometry": { "type": "LineString", "coordinates": [ [ 78.50366705, 17.4774105 ], [ 78.5095608, 17.47723535 ], [ 78.5121187, 17.47852325 ], [ 78.51301545, 17.4798154 ], [ 78.5119153, 17.47954075 ], [ 78.5079951, 17.4785597 ], [ 78.50720525, 17.46975075 ], [ 78.50670235, 17.4676262 ], [ 78.50787585, 17.4677095 ], [ 78.50783445, 17.47317225 ], [ 78.50318935, 17.4738269 ], [ 78.502209, 17.4751224 ], [ 78.49803835, 17.4749355 ], [ 78.49698575, 17.47581035 ], [ 78.4958624, 17.46929515 ], [ 78.4935137, 17.46644835 ], [ 78.4932717, 17.4660871 ], [ 78.4928844, 17.46574025 ], [ 78.49549845, 17.46539805 ], [ 78.49624895, 17.464734 ], [ 78.4916937, 17.45956775 ], [ 78.4942586, 17.45838555 ], [ 78.4971698, 17.45707655 ], [ 78.4915557, 17.4548877 ], [ 78.487770250000011, 17.4556033 ], [ 78.4880981, 17.45080765 ], [ 78.49004685, 17.4527221 ], [ 78.4962883, 17.44888145 ], [ 78.49622125, 17.44595985 ], [ 78.49957055, 17.4515646 ], [ 78.50049165, 17.45261865 ], [ 78.50176555, 17.45123365 ], [ 78.5007851, 17.44938495 ], [ 78.50247295, 17.448879 ], [ 78.501918350000011, 17.4487388 ], [ 78.4996195, 17.44798305 ], [ 78.5063768, 17.44915685 ], [ 78.50672555, 17.44980275 ], [ 78.50416835, 17.45152475 ], [ 78.5078636, 17.4534255 ], [ 78.5107094, 17.4534878 ], [ 78.5141722, 17.4510367 ], [ 78.50745205, 17.4403983 ], [ 78.50528915, 17.44085795 ], [ 78.50377555, 17.43584 ], [ 78.50189135, 17.4374495 ], [ 78.50042375, 17.4373167 ], [ 78.50038375, 17.4357771 ], [ 78.4988849, 17.43881965 ], [ 78.49519425, 17.4382395 ], [ 78.4951451, 17.438084 ], [ 78.495024300000011, 17.4334246 ], [ 78.49520480000001, 17.4331943 ], [ 78.49185935, 17.4310138 ], [ 78.49116235, 17.43053565 ], [ 78.492448, 17.43015545 ], [ 78.4919223, 17.4294187 ], [ 78.4943025, 17.42757 ], [ 78.49389895, 17.42563985 ], [ 78.495565950000014, 17.4260473 ], [ 78.49784385000001, 17.42555425 ], [ 78.5006579, 17.4252053 ], [ 78.4978782, 17.4221566 ], [ 78.4938478, 17.4199787 ], [ 78.4938478, 17.4199787 ], [ 78.494790450000011, 17.41784455 ], [ 78.49645895, 17.4160192 ], [ 78.49598575, 17.41394025 ], [ 78.49124975, 17.41206915 ], [ 78.48998895, 17.4118704 ], [ 78.4887195, 17.40920455 ], [ 78.48274775, 17.4113654 ], [ 78.47886335, 17.4092436 ], [ 78.47869705, 17.40715345 ], [ 78.4765512, 17.4087038 ], [ 78.47442115, 17.40840365 ], [ 78.4750884, 17.4055903 ], [ 78.47517065, 17.4062657 ], [ 78.47254255, 17.40247405 ], [ 78.47603915, 17.40252425 ], [ 78.4799389, 17.3986597 ], [ 78.48043325, 17.3968989 ], [ 78.48132965, 17.3958179 ], [ 78.48231435, 17.395545 ], [ 78.48635515, 17.3973074 ], [ 78.48385365, 17.4008663 ], [ 78.489557, 17.4012583 ], [ 78.49291065, 17.398771 ], [ 78.490666, 17.39469305 ], [ 78.4907851, 17.39610365 ], [ 78.49888765, 17.3944546 ], [ 78.49406015, 17.39337405 ], [ 78.49106845, 17.39278405 ], [ 78.49433815, 17.38916 ], [ 78.48888665, 17.38581515 ], [ 78.49221595, 17.38289055 ], [ 78.49245695, 17.37597105 ], [ 78.49030085, 17.37654105 ], [ 78.48927195, 17.37747025 ], [ 78.488352, 17.37633125 ], [ 78.48700725, 17.37711715 ], [ 78.4846329, 17.3747432 ], [ 78.484481100000011, 17.3737496 ], [ 78.4873672, 17.3714344 ], [ 78.488642, 17.37291425 ], [ 78.4835994, 17.36942715 ], [ 78.48415315, 17.36732555 ], [ 78.48542155, 17.36426295 ], [ 78.48843155, 17.36578075 ], [ 78.4888584, 17.3657955 ], [ 78.4912151, 17.3669713 ], [ 78.492430899999988, 17.36874885 ], [ 78.49296815, 17.3696553 ], [ 78.49384225, 17.3691181 ], [ 78.4965636, 17.370966 ], [ 78.49721805, 17.3713118 ], [ 78.496203, 17.37307955 ], [ 78.495688699999988, 17.3748005 ], [ 78.498969, 17.37104905 ], [ 78.4984156, 17.37336265 ], [ 78.5024559, 17.37364755 ], [ 78.5016221, 17.37694535 ], [ 78.49866195, 17.37895135 ], [ 78.5027911, 17.383908 ], [ 78.50323695, 17.3841324 ], [ 78.504799850000012, 17.38472965 ], [ 78.50789995, 17.383963 ], [ 78.50983845, 17.38365455 ], [ 78.51019115, 17.38271705 ], [ 78.5134297, 17.3807394 ], [ 78.51336385, 17.3793386 ], [ 78.50804045, 17.3730454 ], [ 78.508892, 17.37213505 ], [ 78.5050755, 17.3722182 ], [ 78.50758695, 17.36675515 ], [ 78.5079505, 17.36434355 ], [ 78.5072616, 17.3610173 ], [ 78.5060953, 17.3600528 ], [ 78.50505525, 17.35860255 ], [ 78.5028758, 17.35734805 ], [ 78.5051518, 17.3548417 ], [ 78.50049215, 17.3547188 ], [ 78.49732905, 17.35547205 ], [ 78.49732405, 17.3556011 ], [ 78.49526585000001, 17.3556222 ], [ 78.4939084, 17.3554048 ], [ 78.49518165, 17.35400005 ], [ 78.4932205, 17.35398165 ], [ 78.4937261, 17.3532751 ], [ 78.49367995, 17.35261155 ], [ 78.4926553, 17.3510922 ], [ 78.49032645, 17.3473637 ], [ 78.4951173, 17.34614235 ], [ 78.49465945, 17.34527545 ], [ 78.496650100000011, 17.34391485 ], [ 78.4959193, 17.34135065 ], [ 78.4952557, 17.33959545 ], [ 78.4922946, 17.3390188 ], [ 78.49102745, 17.33858595 ], [ 78.4895454, 17.34005705 ], [ 78.4874919, 17.34240275 ], [ 78.4869453, 17.34318495 ], [ 78.4866766, 17.3442157 ], [ 78.4848695, 17.3422846 ], [ 78.48335265, 17.3402087 ], [ 78.4828255, 17.3362569 ], [ 78.48430615, 17.33599515 ], [ 78.484111, 17.3355266 ], [ 78.48582775, 17.3357395 ], [ 78.4862005, 17.33517875 ], [ 78.4870894, 17.33569575 ], [ 78.48704905, 17.3344405 ], [ 78.48580655, 17.33632195 ], [ 78.4913197, 17.33547845 ], [ 78.48984985, 17.33358695 ], [ 78.48619465, 17.3314489 ], [ 78.48506675, 17.3306848 ], [ 78.4894461, 17.3303187 ], [ 78.4910347, 17.32862065 ], [ 78.4934019, 17.32758185 ], [ 78.4934362, 17.32646605 ], [ 78.4946154, 17.32637685 ], [ 78.4947977, 17.32830735 ], [ 78.49200625, 17.32555195 ], [ 78.4919701, 17.32481415 ], [ 78.4915137, 17.32499355 ], [ 78.491467449999988, 17.32487985 ], [ 78.490494, 17.32423865 ], [ 78.48912625, 17.3254362 ], [ 78.4865254, 17.3233779 ], [ 78.48485905, 17.3216466 ], [ 78.48321705, 17.3218813 ], [ 78.484905, 17.31757415 ], [ 78.48533585, 17.31720725 ], [ 78.48951395, 17.3193768 ], [ 78.49206455, 17.32157765 ], [ 78.49173815, 17.3225368 ], [ 78.49747125, 17.32334935 ], [ 78.49839755, 17.32159695 ], [ 78.4967992, 17.3216251 ], [ 78.48694875, 17.3281989 ] ] } },
{ "type": "Feature", "properties": { "itinerary_id": 2 }, "geometry": { "type": "LineString", "coordinates": [ [ 78.54278585, 17.4368073 ], [ 78.53812665, 17.4380401 ], [ 78.5373448, 17.4376926 ], [ 78.5353049, 17.43100225 ], [ 78.53404845, 17.42616835 ], [ 78.53714135, 17.4233399 ], [ 78.5218959, 17.4253459 ], [ 78.51880595, 17.42702 ], [ 78.51648175, 17.42481525 ], [ 78.5189337, 17.42264555 ], [ 78.51860625, 17.4219533 ], [ 78.51407215, 17.4210038 ], [ 78.51325695, 17.4208815 ], [ 78.510169, 17.41985065 ], [ 78.5108506, 17.4176304 ], [ 78.51394215, 17.416412 ], [ 78.51463565, 17.4150182 ], [ 78.51450745, 17.4145548 ], [ 78.51503515, 17.41260015 ], [ 78.51603785, 17.4122232 ], [ 78.51792685, 17.41317045 ], [ 78.5139291, 17.4107078 ], [ 78.51391555, 17.40950045 ], [ 78.5153782, 17.4087456 ], [ 78.51001525, 17.40772715 ], [ 78.5095485, 17.40892665 ], [ 78.51120435, 17.40981205 ], [ 78.51149555, 17.40973905 ], [ 78.5114826, 17.41119805 ], [ 78.51272415, 17.41254875 ], [ 78.50822485, 17.41453085 ], [ 78.50673535, 17.42057455 ], [ 78.5045417, 17.41922635 ], [ 78.50319015, 17.42013745 ], [ 78.50295435000001, 17.4153233 ], [ 78.50241325, 17.41395715 ], [ 78.5005792, 17.41517805 ], [ 78.50027495, 17.4145444 ], [ 78.5047601, 17.40908285 ], [ 78.504415099999989, 17.40394055 ], [ 78.51028, 17.40362495 ], [ 78.50856515000001, 17.39843205 ], [ 78.510566, 17.4008848 ], [ 78.5126377, 17.3986732 ], [ 78.5159422, 17.39919655 ], [ 78.5185247, 17.39932195 ], [ 78.5209228, 17.4001664 ], [ 78.5209105, 17.40126705 ], [ 78.5203215, 17.4024527 ], [ 78.5162888, 17.3952065 ], [ 78.5122571, 17.3932379 ], [ 78.5135997, 17.3917583 ], [ 78.5153119, 17.3919969 ], [ 78.51560215, 17.39004595 ], [ 78.51485485, 17.39056785 ], [ 78.51318565, 17.38949115 ], [ 78.51362645, 17.38770055 ], [ 78.5125395, 17.3861844 ], [ 78.5122828, 17.38574695 ], [ 78.51679875, 17.3847193 ], [ 78.5226461, 17.38645215 ], [ 78.52612385, 17.3874104 ], [ 78.52620595, 17.38761355 ], [ 78.52580815, 17.3906836 ], [ 78.5268262, 17.39198755 ], [ 78.52479445, 17.39268365 ], [ 78.52554325, 17.39440625 ], [ 78.5274014, 17.3935084 ], [ 78.5278694, 17.39575775 ], [ 78.52170635, 17.3924321 ], [ 78.508261, 17.39447685 ], [ 78.50682825, 17.39097915 ], [ 78.5053233, 17.39484035 ], [ 78.4981843, 17.3989374 ], [ 78.4987985, 17.3993182 ], [ 78.49724415, 17.3999618 ], [ 78.4956686, 17.40355775 ], [ 78.49474605, 17.40773675 ], [ 78.486427850000013, 17.40593665 ], [ 78.4858993, 17.40411415 ], [ 78.48711065, 17.39047305 ], [ 78.48580605, 17.38937415 ], [ 78.4866811, 17.3870497 ], [ 78.4837767, 17.38812115 ], [ 78.48565505, 17.3871055 ], [ 78.4806751, 17.39043725 ], [ 78.47740545, 17.39494985 ], [ 78.4763646, 17.39602235 ], [ 78.47006515, 17.39126215 ], [ 78.4696126, 17.39092575 ], [ 78.46462195, 17.39201395 ], [ 78.46335965, 17.39379835 ], [ 78.46200585, 17.39399785 ], [ 78.4596593, 17.3931039 ], [ 78.459881, 17.39214735 ], [ 78.46155565, 17.39063485 ], [ 78.45993415, 17.3880268 ], [ 78.4591088, 17.38511615 ], [ 78.46134725, 17.383058 ], [ 78.46237295, 17.38379155 ], [ 78.46312825, 17.3848945 ], [ 78.461893, 17.3863266 ], [ 78.46351955, 17.38183025 ], [ 78.46587980000001, 17.383047 ], [ 78.46781145, 17.38157005 ], [ 78.47015095, 17.3814323 ], [ 78.4719401, 17.3825076 ], [ 78.472998, 17.3804004 ], [ 78.4735638, 17.38019295 ], [ 78.4752776, 17.384022 ], [ 78.4761246, 17.38633975 ], [ 78.4723415, 17.38579655 ], [ 78.47003435, 17.3894905 ], [ 78.46638865, 17.38749895 ], [ 78.46729065, 17.38595855 ], [ 78.4615957, 17.37968715 ], [ 78.460509300000012, 17.38054355 ], [ 78.46186635, 17.37635995 ], [ 78.46209095, 17.37515325 ], [ 78.45985975, 17.3766843 ], [ 78.45825115, 17.3773933 ], [ 78.4575963, 17.37910325 ], [ 78.45532625, 17.3747906 ], [ 78.45270715, 17.3749591 ], [ 78.45038925, 17.3749676 ], [ 78.4525323, 17.37695515 ], [ 78.44987455, 17.37858135 ], [ 78.44940405, 17.38264845 ], [ 78.44919095, 17.38834925 ], [ 78.44822745, 17.38912675 ], [ 78.44517095, 17.39008175 ], [ 78.44526385, 17.3888302 ], [ 78.44340995, 17.3907049 ], [ 78.44337245, 17.39174485 ], [ 78.44529865, 17.3914675 ], [ 78.44616385, 17.3927241 ], [ 78.4449649, 17.39457905 ], [ 78.4444209, 17.39550515 ], [ 78.44429235, 17.39556755 ], [ 78.44444455, 17.39655945 ], [ 78.4470707, 17.3957835 ], [ 78.44680075, 17.39541575 ], [ 78.4466749, 17.39512515 ], [ 78.44758035, 17.3973503 ], [ 78.4496743, 17.3935904 ], [ 78.450027, 17.39874255 ], [ 78.4448299, 17.4004381 ], [ 78.4469416, 17.40097885 ], [ 78.44439245, 17.40392155 ], [ 78.4437648, 17.40453315 ], [ 78.44655085, 17.40549065 ], [ 78.4377676, 17.40418905 ], [ 78.43216525, 17.40819875 ], [ 78.4307333, 17.40944765 ], [ 78.4335513, 17.4090678 ], [ 78.4285361, 17.40781945 ], [ 78.4228796, 17.4087387 ], [ 78.419018, 17.40771535 ], [ 78.4184596, 17.4069225 ], [ 78.41954045, 17.4051552 ], [ 78.42229955, 17.4050221 ], [ 78.42380725000001, 17.4046061 ], [ 78.4237394, 17.40412625 ], [ 78.4207953, 17.4032223 ], [ 78.42522665, 17.40657015 ], [ 78.4157157, 17.40726015 ], [ 78.4138877, 17.40862585 ], [ 78.411528, 17.40442785 ], [ 78.41170905, 17.403139 ], [ 78.4081309, 17.40605685 ], [ 78.40561635, 17.40311295 ], [ 78.40472155, 17.40275145 ], [ 78.40396605, 17.40281395 ], [ 78.39988755, 17.4036435 ], [ 78.399768200000011, 17.4041914 ], [ 78.4004354, 17.39979715 ], [ 78.4011188, 17.3995325 ], [ 78.401350650000012, 17.39740115 ], [ 78.3992036, 17.398748 ], [ 78.3959306, 17.39949325 ], [ 78.394638, 17.3984126 ], [ 78.3925078, 17.3976076 ], [ 78.39271295, 17.3995836 ], [ 78.40187455, 17.40881645 ], [ 78.4057345, 17.41473265 ] ] } },
{ "type": "Feature", "properties": { "itinerary_id": 3 }, "geometry": { "type": "LineString", "coordinates": [ [ 78.4688356, 17.47240865 ], [ 78.46891930000001, 17.4722691 ], [ 78.4693162, 17.4701186 ], [ 78.4692627, 17.4695403 ], [ 78.4694019, 17.4677044 ], [ 78.4699883, 17.46787475 ], [ 78.4694234, 17.4660654 ], [ 78.47074795, 17.46610875 ], [ 78.471447, 17.465448 ], [ 78.4705056, 17.4631107 ], [ 78.47589295, 17.4627799 ], [ 78.4747537, 17.46506855 ], [ 78.47366385, 17.4655698 ], [ 78.4752842, 17.46662645 ], [ 78.4766381, 17.4651362 ], [ 78.47411145, 17.46464575 ], [ 78.472903, 17.4637443 ], [ 78.4757524, 17.4585487 ], [ 78.47093585, 17.45425485 ], [ 78.46685930000001, 17.45643425 ], [ 78.48043565, 17.46638685 ], [ 78.48183315, 17.46758395 ], [ 78.480888, 17.4686626 ], [ 78.47863345, 17.4688722 ], [ 78.4773963, 17.46923385 ], [ 78.4847154, 17.45680395 ], [ 78.48247815, 17.45001595 ], [ 78.48284385, 17.4465637 ], [ 78.48198475, 17.44598695 ], [ 78.4794862, 17.44460915 ], [ 78.47930585, 17.4440357 ], [ 78.477762750000011, 17.44660925 ], [ 78.47484, 17.4471773 ], [ 78.47501475, 17.4443333 ], [ 78.48756685, 17.4418957 ], [ 78.4856733, 17.4364807 ], [ 78.48592235, 17.4342561 ], [ 78.4879331, 17.43561755 ], [ 78.4882767, 17.4394955 ], [ 78.48460075, 17.44158575 ], [ 78.4816223, 17.43878385 ], [ 78.48920415, 17.4335226 ], [ 78.4910352, 17.4344083 ], [ 78.4916659, 17.4391166 ], [ 78.5008315, 17.4344075 ], [ 78.50088635, 17.43463075 ], [ 78.498621500000013, 17.4313512 ], [ 78.4986882, 17.4298492 ], [ 78.49818, 17.4307034 ], [ 78.49677905, 17.43055455 ], [ 78.49176505, 17.4267813 ], [ 78.491854100000012, 17.4263897 ], [ 78.48966295, 17.42302325 ], [ 78.4901807, 17.42028975 ], [ 78.48835595, 17.42179455 ], [ 78.48826545, 17.42192855 ], [ 78.487702899999988, 17.42318285 ], [ 78.48499405, 17.42078375 ], [ 78.48607795, 17.43113505 ], [ 78.48636105, 17.4254444 ], [ 78.4840251, 17.42087005 ], [ 78.4648696, 17.41195335 ], [ 78.4656292, 17.4086473 ], [ 78.4662305, 17.40866995 ], [ 78.46053555, 17.4079867 ], [ 78.46401165, 17.40490135 ], [ 78.4581328, 17.4018206 ], [ 78.46007945, 17.3981481 ], [ 78.46038145, 17.39827665 ], [ 78.46011405, 17.39521745 ], [ 78.4580388, 17.3957011 ], [ 78.455498, 17.39517315 ], [ 78.4560497, 17.39135755 ], [ 78.4541754, 17.38827645 ], [ 78.4524951, 17.38793515 ], [ 78.44236825, 17.38706645 ], [ 78.44067735, 17.386931 ], [ 78.4381285, 17.38642575 ], [ 78.4368524, 17.3858441 ], [ 78.4371843, 17.38502225 ], [ 78.4342391, 17.38608915 ], [ 78.43798515, 17.38345655 ], [ 78.4414849, 17.38556505 ], [ 78.44297815, 17.3841641 ], [ 78.442502, 17.3834887 ], [ 78.43813735, 17.3797302 ], [ 78.4356431, 17.38255715 ], [ 78.435383, 17.382904 ], [ 78.42946075, 17.3772792 ], [ 78.432431799999989, 17.3794316 ], [ 78.4280115, 17.38941665 ], [ 78.42834245, 17.389935 ], [ 78.4282872, 17.39199995 ], [ 78.4239949, 17.3900018 ], [ 78.4242628, 17.39149145 ], [ 78.4214998, 17.3942096 ], [ 78.4232181, 17.39461515 ], [ 78.41964575, 17.3940011 ], [ 78.41673155, 17.3982011 ], [ 78.41780495, 17.39796065 ], [ 78.4170523, 17.3999536 ], [ 78.4136303, 17.3993874 ], [ 78.412948050000011, 17.4010907 ], [ 78.41025255, 17.3971972 ], [ 78.4104962, 17.3948806 ], [ 78.4064671, 17.3965067 ], [ 78.40625895, 17.38941055 ], [ 78.40457305, 17.3901434 ], [ 78.4022907, 17.39225265 ], [ 78.399580750000013, 17.38950205 ], [ 78.40272975, 17.3862561 ], [ 78.40535795, 17.38639465 ], [ 78.4049854, 17.38693155 ], [ 78.40774835, 17.38723945 ], [ 78.4078413, 17.38490195 ], [ 78.406326299999989, 17.38399655 ], [ 78.4033331, 17.38413215 ], [ 78.40742435, 17.38057855 ], [ 78.408436099999989, 17.3789009 ], [ 78.4092572, 17.377767 ], [ 78.4105412, 17.37550735 ], [ 78.41176515, 17.37618105 ], [ 78.41255105, 17.37795795 ], [ 78.41259315, 17.37925 ], [ 78.41342425, 17.37917305 ], [ 78.4139433, 17.378858 ], [ 78.4141055, 17.3774588 ], [ 78.4146838, 17.37723585 ], [ 78.4156204, 17.3774922 ], [ 78.41596995, 17.37874165 ], [ 78.41583195, 17.3752771 ], [ 78.416192599999988, 17.3745461 ], [ 78.41875005, 17.37475105 ], [ 78.419995, 17.37361395 ], [ 78.41725745, 17.37339915 ], [ 78.4147424, 17.37192955 ], [ 78.4140133, 17.37573415 ], [ 78.4121317, 17.3799341 ], [ 78.41147975, 17.38295625 ], [ 78.4130412, 17.3823122 ], [ 78.41415695, 17.38195075 ], [ 78.4170963, 17.38154595 ], [ 78.4200587, 17.3797734 ], [ 78.424339300000014, 17.3743319 ], [ 78.42525695, 17.3731406 ], [ 78.4268847, 17.37111385 ], [ 78.4401445, 17.3626822 ], [ 78.4416855, 17.36536625 ], [ 78.4421725, 17.36371745 ], [ 78.44268445, 17.36422865 ], [ 78.44375305, 17.36261115 ], [ 78.4470141, 17.36067435 ], [ 78.4450948, 17.3584164 ], [ 78.44252365, 17.3579055 ], [ 78.43861635, 17.35664995 ], [ 78.43518475, 17.35573055 ], [ 78.43442730000001, 17.35536395 ], [ 78.43070725, 17.351366 ], [ 78.4282261, 17.34737855 ], [ 78.42731645, 17.3464612 ], [ 78.4308354, 17.346583 ], [ 78.43298265, 17.3467705 ], [ 78.4223597, 17.3459404 ], [ 78.4216639, 17.34460325 ], [ 78.4203837, 17.34347545 ], [ 78.4173503, 17.3436313 ], [ 78.42226305, 17.34889335 ] ] } },
{ "type": "Feature", "properties": { "itinerary_id": 4 }, "geometry": { "type": "LineString", "coordinates": [ [ 78.51318455, 17.459636 ], [ 78.5025409, 17.45420895 ], [ 78.5017729, 17.45481405 ], [ 78.5022113, 17.45958545 ], [ 78.50376215, 17.46173645 ], [ 78.50474095, 17.4620771 ], [ 78.50782955, 17.4296161 ], [ 78.5044001, 17.42670575 ], [ 78.5119641, 17.42613005 ], [ 78.51357945, 17.42641955 ], [ 78.5133731, 17.42727295 ], [ 78.5181142, 17.42826475 ], [ 78.5206553, 17.41455435 ], [ 78.52038835, 17.41450025 ], [ 78.52092205, 17.41460835 ], [ 78.5222323, 17.414152 ], [ 78.5013449, 17.386799 ], [ 78.50126435, 17.38968375 ], [ 78.48254085, 17.37816105 ], [ 78.4806811, 17.3761904 ], [ 78.479765, 17.37760585 ], [ 78.47818485, 17.3783128 ], [ 78.47977795, 17.3797731 ], [ 78.48034605, 17.3800424 ], [ 78.4807225, 17.379153 ], [ 78.4806815, 17.38092675 ], [ 78.47715805, 17.3796531 ], [ 78.4778394, 17.3828475 ], [ 78.469761549999987, 17.37703495 ], [ 78.46979645, 17.37762025 ], [ 78.46538275, 17.37723725 ], [ 78.46500755, 17.375287 ], [ 78.46443925, 17.375508 ], [ 78.46636665, 17.3716123 ], [ 78.4678469, 17.3719275 ], [ 78.4725481, 17.3726734 ], [ 78.4757948, 17.3726514 ], [ 78.47779855, 17.36921655 ], [ 78.4759419, 17.3675764 ], [ 78.47594445, 17.36655605 ], [ 78.47455255, 17.3673071 ], [ 78.4721825, 17.3651491 ], [ 78.4716234, 17.3634885 ], [ 78.47053555, 17.36375385 ], [ 78.469326099999989, 17.3645343 ], [ 78.4672376, 17.3658253 ], [ 78.4654466, 17.3622623 ], [ 78.46228025, 17.3636529 ], [ 78.4615666, 17.36351175 ], [ 78.46226445, 17.36532035 ], [ 78.459172700000011, 17.36325435 ], [ 78.45818865, 17.36377175 ], [ 78.4579625, 17.36467605 ], [ 78.4580646, 17.3606384 ], [ 78.45701205, 17.35649935 ], [ 78.45868895, 17.35715 ], [ 78.4598705, 17.3563446 ], [ 78.4629369, 17.3571314 ], [ 78.463578, 17.357901 ], [ 78.4645984, 17.3567714 ], [ 78.46302015, 17.35423435 ], [ 78.4638325, 17.35332365 ], [ 78.46525505, 17.35444865 ], [ 78.4657722, 17.3560806 ], [ 78.46735825, 17.35740975 ], [ 78.46742705, 17.35331095 ], [ 78.4684528, 17.3522911 ], [ 78.4689076, 17.3511301 ], [ 78.47136305, 17.3473943 ], [ 78.47181955, 17.3466253 ], [ 78.46885725, 17.3459064 ], [ 78.46436305, 17.3454051 ], [ 78.46039065, 17.3436712 ], [ 78.45988105, 17.34259905 ], [ 78.4594221, 17.34351805 ], [ 78.460824, 17.3478033 ], [ 78.4588652, 17.3486725 ], [ 78.4563184, 17.35117835 ], [ 78.453694, 17.3484262 ], [ 78.45403985, 17.3455545 ], [ 78.45037915, 17.34531955 ], [ 78.4520007, 17.3436142 ], [ 78.45248145, 17.34108605 ], [ 78.45456265, 17.3397955 ], [ 78.45661665, 17.3381126 ], [ 78.45693715, 17.33734235 ], [ 78.45734135, 17.3361158 ], [ 78.45881025, 17.33543585 ], [ 78.45947375, 17.3365018 ], [ 78.4601393, 17.33868095 ], [ 78.46295165, 17.3373555 ], [ 78.46505315, 17.3372588 ], [ 78.46480595, 17.33735905 ], [ 78.4665464, 17.3402002 ], [ 78.46654955, 17.34038345 ], [ 78.46692815, 17.3412843 ], [ 78.46131785, 17.34107425 ], [ 78.4617628, 17.34024505 ], [ 78.456063449999988, 17.33713795 ], [ 78.45627335, 17.3356073 ], [ 78.4523314, 17.3320415 ], [ 78.45258055, 17.3314419 ], [ 78.45193735, 17.3330004 ], [ 78.45089895000001, 17.3355547 ], [ 78.45094135, 17.33664275 ], [ 78.4483131, 17.334052 ], [ 78.4481702, 17.3330194 ], [ 78.4469632, 17.3344086 ], [ 78.4464119, 17.33452445 ], [ 78.4464119, 17.33452445 ], [ 78.44477595, 17.33103415 ], [ 78.45095845, 17.32971785 ], [ 78.4616416, 17.3344011 ], [ 78.4673603, 17.33493325 ], [ 78.46974235, 17.3364923 ], [ 78.471095600000012, 17.3360032 ], [ 78.47188665, 17.3369885 ], [ 78.47165965, 17.33482935 ], [ 78.4743306, 17.33384245 ], [ 78.4717911, 17.3319628 ], [ 78.47493080000001, 17.327794 ], [ 78.477920149999989, 17.32772175 ], [ 78.4772932, 17.32938325 ], [ 78.4758144, 17.33051115 ], [ 78.4778852, 17.3320292 ], [ 78.47949065, 17.331314 ], [ 78.4794799, 17.3340933 ], [ 78.47930085, 17.33468415 ], [ 78.478435100000013, 17.3354213 ], [ 78.483752, 17.333558 ], [ 78.47959345000001, 17.32761585 ], [ 78.4805668, 17.3271379 ], [ 78.4757372, 17.3243334 ], [ 78.4753485, 17.3237528 ], [ 78.47244865, 17.3226203 ], [ 78.4722494, 17.3227143 ], [ 78.47206785, 17.3228035 ], [ 78.4701032, 17.3207613 ], [ 78.4706128, 17.3190845 ], [ 78.47021405000001, 17.3183722 ], [ 78.46981025, 17.31792685 ], [ 78.46863145, 17.3185684 ], [ 78.4689089, 17.3180726 ], [ 78.4683589, 17.31457385 ], [ 78.4673968, 17.3133467 ], [ 78.468729700000011, 17.3141073 ], [ 78.4699617, 17.31030855 ], [ 78.4735055, 17.3133792 ], [ 78.47574105, 17.31087355 ], [ 78.47788255, 17.3131567 ], [ 78.47599975, 17.3150129 ], [ 78.4718721, 17.31640355 ], [ 78.46459905, 17.3173877 ], [ 78.463988199999989, 17.31804305 ], [ 78.4650831, 17.31881965 ], [ 78.46506245, 17.31909915 ], [ 78.47045925, 17.32421005 ], [ 78.4696076, 17.32590255 ], [ 78.47075255, 17.32704705 ], [ 78.46742445, 17.32084375 ], [ 78.4635599, 17.31096925 ], [ 78.46166945, 17.3103122 ], [ 78.4587285, 17.3113564 ], [ 78.4567008, 17.30964225 ], [ 78.46322545, 17.302941 ], [ 78.462860400000011, 17.30334795 ], [ 78.46346885, 17.30454175 ], [ 78.4646708, 17.30644325 ], [ 78.4658316, 17.3071968 ], [ 78.46679665, 17.30192665 ], [ 78.46825345, 17.30225315 ], [ 78.4705011, 17.30237015 ], [ 78.4694261, 17.30367065 ], [ 78.47035665, 17.30424965 ], [ 78.47014765, 17.30524395 ], [ 78.46628225, 17.2987983 ], [ 78.4662247, 17.29577725 ], [ 78.4655681, 17.29586225 ], [ 78.46532785, 17.2948786 ], [ 78.466669599999989, 17.29417705 ], [ 78.4691021, 17.29456695 ], [ 78.46962935, 17.29462045 ], [ 78.47079885, 17.29531735 ], [ 78.46480465, 17.29675195 ], [ 78.46193465, 17.2984054 ] ] } },
{ "type": "Feature", "properties": { "itinerary_id": 5 }, "geometry": { "type": "LineString", "coordinates": [ [ 78.432517, 17.34324005 ], [ 78.43666955, 17.34079795 ], [ 78.4392016, 17.3418884 ], [ 78.440541, 17.34005335 ], [ 78.4493521, 17.3427207 ], [ 78.4494546, 17.3439053 ], [ 78.45234, 17.35627125 ], [ 78.44462245, 17.3555194 ], [ 78.44361105, 17.3538808 ], [ 78.4545077, 17.35586665 ], [ 78.46347835, 17.34946205 ], [ 78.46263095, 17.35152185 ], [ 78.4701123, 17.3614618 ], [ 78.47367255, 17.35602985 ], [ 78.4732645, 17.3572343 ], [ 78.47292985, 17.3572173 ], [ 78.4766807, 17.35459455 ], [ 78.47596705, 17.3521428 ], [ 78.47770745, 17.34884105 ], [ 78.47737115000001, 17.34812455 ], [ 78.4789921, 17.3471822 ], [ 78.47752715, 17.34646205 ], [ 78.4762764, 17.34658415 ], [ 78.4750173, 17.3443013 ], [ 78.47527855, 17.3419264 ], [ 78.48015505, 17.34304875 ], [ 78.4807797, 17.3436653 ], [ 78.480716, 17.3479298 ], [ 78.48280655, 17.34897515 ], [ 78.48290865, 17.35009665 ], [ 78.4852488, 17.349402 ], [ 78.487088, 17.3494346 ], [ 78.4883589, 17.3511777 ], [ 78.48735435, 17.35244355 ], [ 78.4848066, 17.35207405 ], [ 78.48517275, 17.3460365 ], [ 78.48690545, 17.34731305 ], [ 78.4886461, 17.35395155 ], [ 78.49096205, 17.35314125 ], [ 78.4903948, 17.35712165 ], [ 78.49083415, 17.3575099 ], [ 78.48792695, 17.35623735 ], [ 78.4865506, 17.3596052 ], [ 78.48527435, 17.35895415 ], [ 78.48487635, 17.36069825 ], [ 78.4821368, 17.36304075 ], [ 78.4789437, 17.35686225 ], [ 78.4900812, 17.36125825 ], [ 78.49215725, 17.3607552 ], [ 78.4917587, 17.3603728 ], [ 78.4927883, 17.36142425 ], [ 78.49272705, 17.3638281 ], [ 78.49352205, 17.36552945 ], [ 78.49504055, 17.36442815 ], [ 78.496779, 17.36432085 ], [ 78.4971636, 17.3673297 ], [ 78.4972517, 17.36802745 ], [ 78.49841765, 17.35991065 ], [ 78.4984277, 17.3601336 ], [ 78.49894515, 17.3605146 ], [ 78.4995089, 17.35929805 ], [ 78.4964871, 17.35998715 ], [ 78.4932431, 17.3589655 ], [ 78.50088905, 17.3511367 ], [ 78.5017679, 17.3510893 ], [ 78.50393695, 17.35164685 ], [ 78.50241825, 17.3488294 ], [ 78.50196045, 17.347673 ], [ 78.50173635, 17.3459861 ], [ 78.505446, 17.34581825 ], [ 78.5066176, 17.34921525 ], [ 78.5067055, 17.3498322 ], [ 78.50842505, 17.35115125 ], [ 78.5091808, 17.3495269 ], [ 78.5127193, 17.35254925 ], [ 78.51311265, 17.3525747 ], [ 78.51684415, 17.35534015 ], [ 78.5201292, 17.35644975 ], [ 78.5199238, 17.357404 ], [ 78.51754905, 17.3611128 ], [ 78.51736575000001, 17.36324565 ], [ 78.51780695, 17.36383215 ], [ 78.51317535, 17.3588797 ], [ 78.514136549999989, 17.35770155 ], [ 78.51073115, 17.35860705 ], [ 78.50926465, 17.3591349 ], [ 78.5086317, 17.35855845 ], [ 78.50836705, 17.3588356 ], [ 78.4979934, 17.34759855 ], [ 78.500610450000011, 17.3421703 ], [ 78.49259045, 17.3420592 ], [ 78.4929746, 17.33650725 ], [ 78.4705541, 17.34147455 ], [ 78.465228, 17.3274019 ], [ 78.4650748, 17.3274088 ], [ 78.4667065, 17.3256264 ], [ 78.46180025, 17.32348575 ], [ 78.45864595, 17.36926225 ], [ 78.45637105, 17.36985475 ], [ 78.4563313, 17.37009395 ], [ 78.456338, 17.370117 ], [ 78.45691215, 17.3701255 ], [ 78.4559847, 17.3711336 ], [ 78.4539843, 17.37141695 ], [ 78.4518149, 17.3711039 ], [ 78.44752075, 17.3711762 ], [ 78.44748075, 17.37033625 ], [ 78.44368525, 17.36906465 ], [ 78.4417701, 17.3715525 ], [ 78.44355195, 17.37357645 ], [ 78.4440162, 17.37401975 ], [ 78.443858, 17.3759257 ], [ 78.44283870000001, 17.3763752 ], [ 78.44398205, 17.3790217 ], [ 78.43986205, 17.39009285 ], [ 78.43454425, 17.388371 ], [ 78.4330852, 17.39161205 ], [ 78.4329678, 17.3924927 ], [ 78.4338199, 17.39297725 ], [ 78.43296380000001, 17.39337205 ], [ 78.4180626, 17.3887012 ], [ 78.41789945, 17.39233045 ], [ 78.41628315, 17.3938008 ], [ 78.4148809, 17.39449915 ], [ 78.4210389, 17.39843665 ], [ 78.42390235, 17.3966177 ], [ 78.41732495, 17.40914415 ], [ 78.416246199999989, 17.41260665 ], [ 78.4138942, 17.41368655 ], [ 78.4131386, 17.4111954 ], [ 78.4096006, 17.40987525 ], [ 78.4099419, 17.4139422 ], [ 78.409536, 17.4172491 ], [ 78.40921665, 17.416109 ], [ 78.40957495, 17.41852135 ], [ 78.4139643, 17.41661635 ], [ 78.4175832, 17.41597365 ], [ 78.4176006, 17.41590715 ], [ 78.41767385, 17.4166359 ], [ 78.42120505, 17.4147091 ], [ 78.4098038, 17.4221482 ], [ 78.40787705, 17.42137095 ], [ 78.40818155, 17.42127865 ], [ 78.4102527, 17.42649395 ] ] } },
{ "type": "Feature", "properties": { "itinerary_id": 6 }, "geometry": { "type": "LineString", "coordinates": [ [ 78.393918750000012, 17.37219975 ], [ 78.394810650000011, 17.37234105 ], [ 78.3969465, 17.37633095 ], [ 78.44787745, 17.3644095 ], [ 78.4509937, 17.36262215 ], [ 78.452318749999989, 17.3625449 ], [ 78.45178445, 17.36617885 ], [ 78.4517344, 17.36621665 ], [ 78.45268845, 17.36641105 ], [ 78.45072185, 17.3662751 ], [ 78.45553735, 17.3675396 ], [ 78.45952825, 17.3711888 ], [ 78.45926785, 17.37385675 ], [ 78.46592855, 17.3973549 ], [ 78.45873015, 17.4092057 ], [ 78.45549885, 17.40985315 ], [ 78.4533735, 17.410816 ], [ 78.45334355, 17.4166479 ], [ 78.45297015, 17.41588505 ], [ 78.4468527, 17.4172788 ], [ 78.4461524, 17.4142537 ], [ 78.44631795, 17.4124175 ], [ 78.44024865, 17.41395545 ], [ 78.4384318, 17.4135673 ], [ 78.43753455, 17.41385085 ], [ 78.43599015, 17.41412125 ], [ 78.43553175, 17.41604505 ], [ 78.43831885, 17.41870785 ], [ 78.4395456, 17.4184513 ], [ 78.4367122, 17.4178205 ], [ 78.431231849999989, 17.42119615 ], [ 78.42715675, 17.41714295 ], [ 78.4299673, 17.4139859 ], [ 78.43885545, 17.4099471 ], [ 78.4426205, 17.4103807 ], [ 78.4483745, 17.40747495 ], [ 78.4397681, 17.41998135 ], [ 78.43939385, 17.420862 ], [ 78.4367808, 17.42294615 ], [ 78.43482875, 17.42352075 ], [ 78.4421151, 17.42349 ], [ 78.438117, 17.42622615 ], [ 78.42897115, 17.4282739 ], [ 78.4265897, 17.429762 ], [ 78.42680465, 17.42749195 ], [ 78.42827095, 17.4256275 ], [ 78.42931005, 17.43105155 ], [ 78.4265826, 17.43178425 ], [ 78.43263225, 17.435605 ], [ 78.43418135, 17.43496625 ], [ 78.43194275, 17.43799225 ], [ 78.4330049, 17.4377158 ], [ 78.43451415, 17.4411839 ], [ 78.43813175, 17.4406084 ], [ 78.44082415, 17.44393815 ], [ 78.4440692, 17.44250115 ], [ 78.4459052, 17.4438855 ], [ 78.44636945, 17.4446082 ], [ 78.44708885, 17.4480714 ], [ 78.44760355, 17.44997915 ], [ 78.44820535, 17.45005955 ], [ 78.45216165, 17.4490197 ], [ 78.4440405, 17.4494633 ], [ 78.43716035, 17.45047025 ], [ 78.43306405, 17.4535135 ], [ 78.42910165, 17.45202945 ], [ 78.42671985, 17.4518534 ], [ 78.4183881, 17.44689915 ], [ 78.4171855, 17.4463269 ], [ 78.4146128, 17.44673025 ], [ 78.4155043, 17.4479906 ], [ 78.41490755, 17.44949895 ], [ 78.4150579, 17.45082565 ], [ 78.4114231, 17.45005415 ], [ 78.41086155, 17.44749765 ], [ 78.410997900000012, 17.4468055 ], [ 78.411884, 17.4450865 ], [ 78.41160785, 17.4436495 ], [ 78.41135355, 17.44436175 ], [ 78.41223515, 17.4393327 ], [ 78.40761595, 17.44729025 ], [ 78.4223334, 17.44605465 ], [ 78.4210317, 17.4434135 ], [ 78.427923, 17.4392763 ], [ 78.42973645, 17.4426116 ], [ 78.4404817, 17.43295345 ], [ 78.440419, 17.4320548 ], [ 78.4420293, 17.4336206 ], [ 78.44448365, 17.4332585 ], [ 78.44033545, 17.43410265 ], [ 78.447326, 17.4297849 ], [ 78.4466015, 17.4274532 ], [ 78.45255455, 17.427117 ], [ 78.45393685, 17.43586955 ], [ 78.4587475, 17.435743 ], [ 78.45968545, 17.4347964 ], [ 78.4629723, 17.43501375 ], [ 78.45826375, 17.43003975 ], [ 78.4574844, 17.42677925 ], [ 78.45945145, 17.421922 ], [ 78.45767005, 17.4210465 ], [ 78.4507698, 17.4236226 ], [ 78.449540750000011, 17.4223625 ], [ 78.44990820000001, 17.4300528 ], [ 78.44827655, 17.43662535 ], [ 78.45251135, 17.4428389 ], [ 78.44889275, 17.4255455 ], [ 78.41483740000001, 17.4257095 ], [ 78.4151771, 17.4263644 ], [ 78.42086095, 17.4251723 ], [ 78.42263485, 17.43403245 ], [ 78.4201853, 17.4340151 ], [ 78.41563865, 17.43302685 ], [ 78.40824935, 17.44072195 ], [ 78.4055579, 17.4401627 ] ] } },
{ "type": "Feature", "properties": { "itinerary_id": 7 }, "geometry": { "type": "LineString", "coordinates": [ [ 78.4768688, 17.4108833 ], [ 78.4009055, 17.43494325 ], [ 78.3996183, 17.43388915 ] ] } }
]
}
