{
"type": "FeatureCollection",
"name": "itineraries",
"crs": { "type": "name", "properties": { "name": "urn:ogc:def:crs:OGC:1.3:CRS84" } },
"features": [
{ "type": "Feature", "properties": { "itinerary_id": 1 }, "geometry": { "type": "LineString", "coordinates": [ [ 77.516115750000012, 12.93816525 ], [ 77.52551675, 12.94323655 ], [ 77.5256952, 12.94355995 ], [ 77.527279, 12.9446105 ], [ 77.52521145, 12.94135775 ], [ 77.52329745, 12.9515455 ], [ 77.52542415, 12.95131375 ], [ 77.52811355, 12.95050905 ], [ 77.52703360000001, 12.9495008 ], [ 77.53037445, 12.955453 ], [ 77.5365303, 12.95817335 ], [ 77.5362336, 12.96351815 ], [ 77.5378399, 12.96499465 ], [ 77.5345999, 12.9691494 ], [ 77.53096765, 12.96363035 ], [ 77.523187650000011, 12.97012215 ], [ 77.51936, 12.97106325 ], [ 77.5155367, 12.9673721 ], [ 77.5151276, 12.96647875 ], [ 77.50999875, 12.9581189 ], [ 77.51861845, 12.95710205 ], [ 77.51906855, 12.9580493 ] ] } },
{ "type": "Feature", "properties": { "itinerary_id": 2 }, "geometry": { "type": "LineString", "coordinates": [ [ 77.5233108, 12.9656718 ], [ 77.52363105, 12.9761807 ], [ 77.528186, 12.97793625 ], [ 77.52959835, 12.9789861 ], [ 77.5338243, 12.98647885 ], [ 77.52826435, 12.9878372 ], [ 77.524705399999988, 12.98949815 ], [ 77.52183625, 12.9903452 ], [ 77.51210535, 12.9870196 ], [ 77.5136625, 12.9805093 ], [ 77.50424965, 12.97685655 ], [ 77.49722955, 12.9765939 ], [ 77.49244865, 12.97124465 ], [ 77.48432075, 12.9727477 ], [ 77.4772339, 12.97523825 ], [ 77.4819552, 12.9772744 ], [ 77.479516100000012, 12.98273955 ], [ 77.48218940000001, 12.98142425 ] ] } },
{ "type": "Feature", "properties": { "itinerary_id": 3 }, "geometry": { "type": "LineString", "coordinates": [ [ 77.48287185, 12.98995735 ], [ 77.48248125, 12.9920738 ], [ 77.47999985, 12.9917064 ], [ 77.477842, 12.99881995 ], [ 77.4780421, 13.0034287 ], [ 77.480906049999987, 13.0080255 ], [ 77.4888501, 13.00826205 ], [ 77.48768185, 13.0030437 ], [ 77.489479350000011, 12.99785905 ], [ 77.496856400000013, 13.00209345 ], [ 77.5002283, 13.00197085 ], [ 77.5044596, 13.0039077 ], [ 77.51089655, 13.00814075 ], [ 77.51762245, 13.0070271 ], [ 77.5167694, 13.0056528 ], [ 77.51888, 13.00889285 ], [ 77.516962650000011, 13.00094515 ], [ 77.5093552, 12.9931371 ], [ 77.501204550000011, 12.99191555 ], [ 77.49705105000001, 12.99602215 ], [ 77.4937469, 12.9911425 ] ] } },
{ "type": "Feature", "properties": { "itinerary_id": 4 }, "geometry": { "type": "LineString", "coordinates": [ [ 77.4707459, 12.99187215 ], [ 77.47195235, 12.99480055 ], [ 77.47252245, 12.9935428 ], [ 77.46684655, 12.99567515 ], [ 77.4631938, 12.9943835 ], [ 77.4647912, 12.98977875 ], [ 77.462647, 12.98229415 ], [ 77.4602905, 12.987367 ], [ 77.4713425, 12.99878985 ], [ 77.4712694, 13.00154825 ], [ 77.46471625, 13.0112164 ], [ 77.4742867, 13.0114177 ], [ 77.479725949999988, 13.01545635 ], [ 77.48097465, 13.01926665 ], [ 77.47727225, 13.01749985 ], [ 77.47990835, 13.02219155 ] ] } },
{ "type": "Feature", "properties": { "itinerary_id": 5 }, "geometry": { "type": "LineString", "coordinates": [ [ 77.47362145, 13.0266415 ], [ 77.4680525, 13.03012 ], [ 77.46375615, 13.02459055 ], [ 77.46110615, 13.022753 ], [ 77.4650776, 13.0204767 ], [ 77.4552609, 13.02549225 ], [ 77.44085865, 13.02393175 ], [ 77.4382234, 13.0136856 ], [ 77.437115, 13.0113564 ], [ 77.4462771, 13.00623255 ], [ 77.45634005, 13.00451635 ], [ 77.4490155, 12.99805425 ], [ 77.4458787, 12.9836274 ], [ 77.44128725, 12.98619395 ] ] } },
{ "type": "Feature", "properties": { "itinerary_id": 6 }, "geometry": { "type": "LineString", "coordinates": [ [ 77.4313573, 12.98120655 ], [ 77.42505235, 12.9853904 ], [ 77.41682415, 12.98421145 ], [ 77.42615945, 12.99466825 ], [ 77.42621365, 13.0097617 ], [ 77.4225872, 13.0072733 ], [ 77.4141236, 13.009988 ], [ 77.4079266, 13.02247065 ], [ 77.41334625, 13.01964185 ] ] } },
{ "type": "Feature", "properties": { "itinerary_id": 7 }, "geometry": { "type": "LineString", "coordinates": [ [ 77.4338876, 13.0443817 ], [ 77.43581725, 13.04680855 ], [ 77.44046805, 13.04669985 ], [ 77.43398, 13.05754405 ], [ 77.43191655, 13.0560556 ], [ 77.42897545, 13.0527431 ], [ 77.438682199999988, 13.06526065 ], [ 77.43105585, 13.07209055 ], [ 77.42466855, 13.06957905 ], [ 77.4228289, 13.0775715 ], [ 77.4198731, 13.0765829 ] ] } },
{ "type": "Feature", "properties": { "itinerary_id": 8 }, "geometry": { "type": "LineString", "coordinates": [ [ 77.42094725, 13.05303555 ], [ 77.405203199999988, 13.05566845 ], [ 77.38511465, 13.0099469 ], [ 77.3743661, 13.01264745 ] ] } },
{ "type": "Feature", "properties": { "itinerary_id": 9 }, "geometry": { "type": "LineString", "coordinates": [ [ 77.4002969, 12.9852612 ], [ 77.3888111, 12.96141955 ], [ 77.3843945, 12.9583873 ], [ 77.38160755, 12.95644125 ], [ 77.3847831, 12.9611778 ], [ 77.3703426, 12.973735 ], [ 77.36227070000001, 12.9726917 ], [ 77.3623506, 12.9614452 ] ] } },
{ "type": "Feature", "properties": { "itinerary_id": 10 }, "geometry": { "type": "LineString", "coordinates": [ [ 77.35868165, 12.93919265 ], [ 77.3673631, 12.94058945 ], [ 77.38306795, 12.93179495 ], [ 77.38796585, 12.94088985 ], [ 77.40921115, 12.9436302 ], [ 77.4149331, 12.94683185 ], [ 77.42012415, 12.92204985 ] ] } },
{ "type": "Feature", "properties": { "itinerary_id": 11 }, "geometry": { "type": "LineString", "coordinates": [ [ 77.43250665, 12.93470975 ], [ 77.43533355, 12.94507155 ], [ 77.4577363, 12.93803225 ], [ 77.47236015, 12.9413021 ], [ 77.4757708, 12.9394246 ], [ 77.480447950000013, 12.94465855 ], [ 77.481087699999989, 12.94801345 ], [ 77.47889425, 12.94895135 ], [ 77.47059965, 12.95241495 ], [ 77.4955573, 12.94378295 ], [ 77.49635625, 12.9433894 ] ] } },
{ "type": "Feature", "properties": { "itinerary_id": 12 }, "geometry": { "type": "LineString", "coordinates": [ [ 77.5058305, 12.94208855 ], [ 77.49602325, 12.93715055 ], [ 77.49144345, 12.93335495 ], [ 77.48941745, 12.927496 ], [ 77.48351575, 12.92386465 ], [ 77.4820276, 12.92175205 ], [ 77.48390345, 12.9308851 ], [ 77.475894649999987, 12.92955475 ], [ 77.47746005, 12.9210319 ], [ 77.4687332, 12.9194092 ], [ 77.4735245, 12.9184344 ], [ 77.4642234, 12.92973955 ], [ 77.45551185, 12.92331685 ], [ 77.4519966, 12.9252445 ] ] } },
{ "type": "Feature", "properties": { "itinerary_id": 13 }, "geometry": { "type": "LineString", "coordinates": [ [ 77.4563966, 12.91695275 ], [ 77.461332, 12.9035361 ], [ 77.46323015, 12.90493245 ], [ 77.45327005, 12.89718055 ], [ 77.43732905, 12.90468955 ], [ 77.4350147, 12.8975917 ], [ 77.42113735, 12.89188795 ], [ 77.4124919, 12.8916992 ], [ 77.409735250000011, 12.87826305 ], [ 77.42192715, 12.87070305 ] ] } },
{ "type": "Feature", "properties": { "itinerary_id": 14 }, "geometry": { "type": "LineString", "coordinates": [ [ 77.4334828, 12.87452675 ], [ 77.4394372, 12.8773473 ], [ 77.4458449, 12.880158 ], [ 77.44834445, 12.86204755 ], [ 77.4511495, 12.8567697 ], [ 77.4518986, 12.8432391 ], [ 77.4409995, 12.8384285 ], [ 77.44384765, 12.8208365 ], [ 77.441301900000013, 12.8160921 ], [ 77.43834345, 12.8187076 ] ] } },
{ "type": "Feature", "properties": { "itinerary_id": 15 }, "geometry": { "type": "LineString", "coordinates": [ [ 77.46566855, 12.8692922 ], [ 77.46498425, 12.8738009 ], [ 77.4738208, 12.8734332 ], [ 77.4875618, 12.87676225 ], [ 77.4878816, 12.8801062 ], [ 77.4870594, 12.8928989 ], [ 77.48374595, 12.89755545 ], [ 77.48541725, 12.90075645 ], [ 77.4866016, 12.90060355 ], [ 77.48829685, 12.9044879 ] ] } },
{ "type": "Feature", "properties": { "itinerary_id": 16 }, "geometry": { "type": "LineString", "coordinates": [ [ 77.509063, 12.9033673 ], [ 77.51318575, 12.9068246 ], [ 77.5158771, 12.90200585 ], [ 77.5190498, 12.90660665 ], [ 77.51849325, 12.9137006 ], [ 77.52039685, 12.9187268 ], [ 77.52091505, 12.92278915 ], [ 77.51104865, 12.91416715 ], [ 77.508905700000014, 12.91155435 ], [ 77.5096607, 12.89653355 ], [ 77.5107043, 12.88789375 ], [ 77.52102685, 12.89733085 ], [ 77.52272105, 12.8997975 ] ] } },
{ "type": "Feature", "properties": { "itinerary_id": 17 }, "geometry": { "type": "LineString", "coordinates": [ [ 77.528021599999988, 12.90143325 ], [ 77.53135045, 12.89764295 ], [ 77.5364595, 12.8980592 ], [ 77.53760005, 12.8944624 ], [ 77.53512455, 12.88999085 ], [ 77.5353943, 12.8824299 ], [ 77.5354873, 12.87631645 ], [ 77.5414501, 12.87835105 ], [ 77.5489576, 12.8769783 ], [ 77.54929205, 12.87594425 ], [ 77.5490959, 12.8806392 ], [ 77.55175465, 12.8856017 ], [ 77.5469631, 12.88887075 ], [ 77.552692799999988, 12.89202615 ], [ 77.55085505, 12.8939221 ], [ 77.5520262, 12.89852625 ], [ 77.55844485, 12.90390565 ], [ 77.56237905, 12.9052752 ], [ 77.56696145, 12.9041374 ], [ 77.569276550000012, 12.9084449 ] ] } },
{ "type": "Feature", "properties": { "itinerary_id": 18 }, "geometry": { "type": "LineString", "coordinates": [ [ 77.5719921, 12.90984985 ], [ 77.57211135, 12.914667 ], [ 77.5707558, 12.92171155 ], [ 77.5713727, 12.9227697 ], [ 77.57076445, 12.92607325 ], [ 77.5746564, 12.92873265 ], [ 77.57464665, 12.93904495 ], [ 77.56750805, 12.93754805 ], [ 77.5633911, 12.9353152 ], [ 77.56130385, 12.94253955 ], [ 77.56466505, 12.9496564 ], [ 77.5674923, 12.9472667 ], [ 77.571065, 12.9505411 ], [ 77.57083695, 12.95254745 ], [ 77.57228865, 12.95642455 ], [ 77.57513375, 12.9604747 ], [ 77.57753445, 12.9553949 ], [ 77.57620895, 12.9483149 ], [ 77.57709315, 12.94061725 ], [ 77.587986300000011, 12.9461557 ], [ 77.59117735, 12.94625025 ] ] } },
{ "type": "Feature", "properties": { "itinerary_id": 19 }, "geometry": { "type": "LineString", "coordinates": [ [ 77.59574155, 12.9434101 ], [ 77.5990276, 12.9510095 ], [ 77.6012734, 12.9458788 ], [ 77.5916949, 12.93185595 ], [ 77.58370975, 12.92239215 ], [ 77.58424935, 12.9203576 ], [ 77.58423205, 12.9162508 ], [ 77.58181025, 12.9230948 ], [ 77.5835017, 12.91111505 ], [ 77.59126055, 12.91240365 ], [ 77.60021085, 12.90725315 ], [ 77.60774055, 12.90573995 ], [ 77.6055533, 12.8962877 ], [ 77.60860265, 12.8968461 ], [ 77.60992995, 12.8900891 ], [ 77.6091508, 12.8850618 ] ] } },
{ "type": "Feature", "properties": { "itinerary_id": 20 }, "geometry": { "type": "LineString", "coordinates": [ [ 77.61241195, 12.88238375 ], [ 77.6120546, 12.88409995 ], [ 77.60798305, 12.8743184 ], [ 77.603242, 12.87536235 ], [ 77.5951673, 12.87600905 ], [ 77.58419435, 12.8701701 ], [ 77.58235115, 12.8724665 ], [ 77.57531445, 12.86639635 ], [ 77.57463765, 12.87077025 ], [ 77.5725304, 12.87776805 ], [ 77.5725723, 12.88076465 ], [ 77.571289, 12.88299835 ], [ 77.5732897, 12.8843497 ], [ 77.5755046, 12.88219975 ], [ 77.5702201, 12.88794005 ], [ 77.56530145, 12.8856313 ], [ 77.573972, 12.89361075 ], [ 77.5691273, 12.8990706 ], [ 77.5710594, 12.8996739 ], [ 77.57643635, 12.9022501 ], [ 77.57650815, 12.90187245 ] ] } },
{ "type": "Feature", "properties": { "itinerary_id": 21 }, "geometry": { "type": "LineString", "coordinates": [ [ 77.5812745, 12.89498175 ], [ 77.5868896, 12.89171405 ], [ 77.58837105, 12.8839299 ], [ 77.5881728, 12.8573409 ], [ 77.59257155, 12.84642145 ], [ 77.59743175, 12.84635165 ], [ 77.6050872, 12.8470265 ], [ 77.606051799999989, 12.8390703 ], [ 77.61110405, 12.83173845 ], [ 77.603689, 12.83054965 ] ] } },
{ "type": "Feature", "properties": { "itinerary_id": 22 }, "geometry": { "type": "LineString", "coordinates": [ [ 77.5919556, 12.80963245 ], [ 77.5984611, 12.8091725 ], [ 77.5818792, 12.8138551 ], [ 77.57734795, 12.8149461 ], [ 77.57596045, 12.822055 ], [ 77.56338405, 12.83062645 ], [ 77.5578834, 12.8309677 ], [ 77.558575499999989, 12.8244463 ], [ 77.5754154, 12.8386249 ], [ 77.5854505, 12.84480385 ] ] } },
{ "type": "Feature", "properties": { "itinerary_id": 23 }, "geometry": { "type": "LineString", "coordinates": [ [ 77.5923479, 12.82995025 ], [ 77.58761095, 12.82960395 ], [ 77.604250650000012, 12.8612286 ], [ 77.627041749999989, 12.87718525 ], [ 77.63198525, 12.88190675 ], [ 77.63130025000001, 12.89168875 ], [ 77.62167585, 12.9003831 ], [ 77.6216436, 12.9067364 ] ] } },
{ "type": "Feature", "properties": { "itinerary_id": 24 }, "geometry": { "type": "LineString", "coordinates": [ [ 77.6253263, 12.9096321 ], [ 77.6252671, 12.91074215 ], [ 77.6252206, 12.9114911 ], [ 77.61715015, 12.92495045 ], [ 77.60890475, 12.92632655 ], [ 77.60924735, 12.9316773 ], [ 77.6181387, 12.9177807 ], [ 77.60054535, 12.9150688 ], [ 77.63543365000001, 12.9117918 ], [ 77.63492005, 12.90461965 ], [ 77.634653, 12.90365645 ], [ 77.64312895, 12.90043885 ], [ 77.6408145, 12.9092463 ] ] } },
{ "type": "Feature", "properties": { "itinerary_id": 25 }, "geometry": { "type": "LineString", "coordinates": [ [ 77.63656105, 12.9245198 ], [ 77.63611685, 12.9311238 ], [ 77.6330712, 12.937709 ], [ 77.6271147, 12.94673235 ], [ 77.62508675, 12.9516599 ], [ 77.61959745, 12.94893035 ], [ 77.6188872, 12.9494439 ], [ 77.616637700000013, 12.94742585 ], [ 77.61329455, 12.9561094 ], [ 77.61313795, 12.9604232 ], [ 77.61907515, 12.95672095 ], [ 77.61916315, 12.9618376 ], [ 77.60778, 12.96854115 ], [ 77.6033805, 12.9657038 ], [ 77.60577395, 12.96262645 ] ] } },
{ "type": "Feature", "properties": { "itinerary_id": 26 }, "geometry": { "type": "LineString", "coordinates": [ [ 77.5903209, 12.9652512 ], [ 77.58495855, 12.96612625 ], [ 77.5810339, 12.9702338 ], [ 77.5733172, 12.98697835 ], [ 77.5696153, 12.9900529 ], [ 77.56704185, 12.9882567 ], [ 77.5715741, 13.00103355 ], [ 77.581648, 13.00667265 ], [ 77.5789024, 12.99256275 ], [ 77.5938573, 12.99456305 ], [ 77.59975655, 12.98855205 ], [ 77.59909415, 12.98725695 ] ] } },
{ "type": "Feature", "properties": { "itinerary_id": 27 }, "geometry": { "type": "LineString", "coordinates": [ [ 77.6123245, 12.98923785 ], [ 77.61825005, 12.9790761 ], [ 77.6272237, 12.977688 ], [ 77.62702825, 12.9803559 ], [ 77.6279517, 12.98156325 ], [ 77.63354075, 12.97812515 ], [ 77.6468603, 12.97351575 ], [ 77.6521052, 12.9680516 ], [ 77.64938415, 12.9646818 ], [ 77.6568038, 12.9708845 ], [ 77.66534835, 12.9717886 ], [ 77.66689550000001, 12.96972995 ], [ 77.66767495, 12.96705145 ], [ 77.6730395, 12.9655963 ], [ 77.66695955, 12.9814033 ] ] } },
{ "type": "Feature", "properties": { "itinerary_id": 28 }, "geometry": { "type": "LineString", "coordinates": [ [ 77.67932645, 12.97659845 ], [ 77.6928217, 12.96940675 ], [ 77.69474790000001, 12.9729692 ], [ 77.69648945, 12.96916155 ], [ 77.6936282, 12.95536605 ], [ 77.684588, 12.94843335 ], [ 77.67150915, 12.9456567 ], [ 77.64475485, 12.95050315 ] ] } },
{ "type": "Feature", "properties": { "itinerary_id": 29 }, "geometry": { "type": "LineString", "coordinates": [ [ 77.65653275, 12.95704685 ], [ 77.65716395, 12.9610552 ], [ 77.66356815, 12.9588838 ], [ 77.6261152, 12.96878095 ], [ 77.61636915, 12.969702 ], [ 77.6227458, 12.9990272 ], [ 77.6369208, 13.0026478 ] ] } },
{ "type": "Feature", "properties": { "itinerary_id": 30 }, "geometry": { "type": "LineString", "coordinates": [ [ 77.6431729, 12.99274615 ], [ 77.63832285, 13.007676 ], [ 77.64197405, 13.0129107 ], [ 77.63800825, 13.0171609 ], [ 77.63083655, 13.0118918 ], [ 77.61891445, 13.01321995 ], [ 77.62247405, 13.0168066 ], [ 77.61337420000001, 13.01672675 ], [ 77.6094306, 13.01645265 ], [ 77.60679485, 13.01663805 ], [ 77.606418, 13.0144192 ], [ 77.60679205, 13.01165815 ], [ 77.60171485, 13.00589715 ], [ 77.5930226, 13.00608995 ], [ 77.59424955, 13.0141598 ] ] } },
{ "type": "Feature", "properties": { "itinerary_id": 31 }, "geometry": { "type": "LineString", "coordinates": [ [ 77.5980359, 13.0193898 ], [ 77.59910795, 13.01866855 ], [ 77.598478050000011, 13.02686535 ], [ 77.5958947, 13.0303979 ], [ 77.6040909, 13.03013895 ], [ 77.61704835, 13.0270478 ], [ 77.6177248, 13.0254691 ], [ 77.61518195, 13.03587485 ], [ 77.62511575, 13.02918805 ], [ 77.63652505, 13.02709135 ], [ 77.646186300000011, 13.0203227 ], [ 77.64812405, 13.0070207 ], [ 77.66467525, 13.01415995 ], [ 77.66807225, 13.0196857 ], [ 77.67238525, 13.0174219 ] ] } },
{ "type": "Feature", "properties": { "itinerary_id": 32 }, "geometry": { "type": "LineString", "coordinates": [ [ 77.6759959, 13.01628645 ], [ 77.67378725, 13.01240525 ], [ 77.67624655, 13.0103852 ], [ 77.6817695, 13.01324045 ], [ 77.6836963, 13.0193864 ], [ 77.6869393, 13.02540825 ], [ 77.68219445, 13.0305203 ], [ 77.68235485, 13.03630325 ], [ 77.680029749999989, 13.03661545 ], [ 77.677449, 13.0366434 ], [ 77.67402055, 13.03574475 ], [ 77.67503375, 13.0290021 ], [ 77.6765915, 13.0193459 ], [ 77.66702685, 13.0257829 ], [ 77.66916225, 13.02843125 ], [ 77.66084645, 13.02657925 ], [ 77.6609942, 13.03030465 ], [ 77.66273155, 13.03332215 ], [ 77.670022, 13.04008895 ], [ 77.6495366, 13.0376615 ] ] } },
{ "type": "Feature", "properties": { "itinerary_id": 33 }, "geometry": { "type": "LineString", "coordinates": [ [ 77.64891425, 13.0338844 ], [ 77.64959085000001, 13.0306804 ], [ 77.659859, 13.0195629 ], [ 77.6681838, 13.00747025 ], [ 77.67157525, 13.00652115 ], [ 77.66945705, 13.00300725 ], [ 77.67015145, 12.9968983 ], [ 77.6808748, 13.00027485 ], [ 77.68561395, 12.99759015 ], [ 77.6858873, 12.9953865 ], [ 77.6873581, 12.9946825 ], [ 77.7086471, 12.9979006 ] ] } },
{ "type": "Feature", "properties": { "itinerary_id": 34 }, "geometry": { "type": "LineString", "coordinates": [ [ 77.71910155, 12.99858635 ], [ 77.7163835, 13.00379895 ], [ 77.71161325, 13.00809125 ], [ 77.70870335, 13.0151386 ], [ 77.7128322, 13.01487635 ], [ 77.717700549999989, 13.0147913 ], [ 77.71863535, 13.01825115 ], [ 77.72000215, 13.0248848 ], [ 77.71553805, 13.0343184 ], [ 77.7187926, 13.03630015 ], [ 77.70859415000001, 13.0308209 ], [ 77.69812095, 13.02140935 ], [ 77.69129035, 13.03033115 ], [ 77.690026749999987, 13.03194785 ] ] } },
{ "type": "Feature", "properties": { "itinerary_id": 35 }, "geometry": { "type": "LineString", "coordinates": [ [ 77.6936579, 13.0093358 ], [ 77.6998295, 13.01324225 ], [ 77.69480315, 13.00691135 ], [ 77.6978863, 13.00463745 ], [ 77.70160685, 13.00510415 ], [ 77.73723205, 13.0364361 ], [ 77.7271536, 13.04190575 ], [ 77.7316138, 13.05346955 ], [ 77.7284733, 13.05696995 ], [ 77.73380455, 13.0519831 ] ] } },
{ "type": "Feature", "properties": { "itinerary_id": 36 }, "geometry": { "type": "LineString", "coordinates": [ [ 77.73866785, 13.0475634 ], [ 77.7280005, 13.07013905 ], [ 77.71960105, 13.0724254 ], [ 77.716786649999989, 13.0649166 ], [ 77.71460215, 13.0588163 ], [ 77.7107438, 13.0617875 ], [ 77.7137786, 13.06690105 ], [ 77.71109835, 13.0542627 ], [ 77.71007705, 13.0537382 ], [ 77.71410545, 13.07982045 ], [ 77.71150495, 13.0781943 ], [ 77.70490565, 13.0805544 ] ] } },
{ "type": "Feature", "properties": { "itinerary_id": 37 }, "geometry": { "type": "LineString", "coordinates": [ [ 77.6896369, 13.0822065 ], [ 77.6868689, 13.08667565 ], [ 77.69183195, 13.08992745 ], [ 77.6901495, 13.0986267 ], [ 77.6940074, 13.10948215 ], [ 77.69141315, 13.1105144 ], [ 77.68697865, 13.13409525 ], [ 77.68833140000001, 13.13430695 ], [ 77.69824355, 13.1302051 ], [ 77.70184715, 13.12971235 ], [ 77.70288965, 13.12494735 ], [ 77.7113856, 13.13025915 ] ] } },
{ "type": "Feature", "properties": { "itinerary_id": 38 }, "geometry": { "type": "LineString", "coordinates": [ [ 77.7040572, 13.14468625 ], [ 77.7042764, 13.158693 ], [ 77.71945135, 13.1660798 ], [ 77.71088335, 13.17958825 ], [ 77.6873034, 13.1746476 ] ] } },
{ "type": "Feature", "properties": { "itinerary_id": 39 }, "geometry": { "type": "LineString", "coordinates": [ [ 77.689923, 13.1473919 ], [ 77.676672599999989, 13.13917965 ], [ 77.67433125, 13.1397117 ], [ 77.66885885, 13.13342495 ], [ 77.66957555, 13.13217165 ], [ 77.65881775, 13.1238004 ], [ 77.64050425, 13.12471825 ], [ 77.64251165, 13.1324933 ], [ 77.625745099999989, 13.11472705 ] ] } },
{ "type": "Feature", "properties": { "itinerary_id": 40 }, "geometry": { "type": "LineString", "coordinates": [ [ 77.62903865, 13.10985435 ], [ 77.625197, 13.09849895 ], [ 77.6251132, 13.0956236 ], [ 77.61200415, 13.093854 ], [ 77.6187965, 13.0831437 ], [ 77.62666095, 13.08061375 ], [ 77.6378148, 13.0691714 ], [ 77.64286875, 13.0631179 ], [ 77.6449681, 13.05529975 ], [ 77.65057065, 13.0556254 ], [ 77.6416009, 13.0454083 ], [ 77.6368629, 13.04975255 ], [ 77.6363897, 13.05070145 ] ] } },
{ "type": "Feature", "properties": { "itinerary_id": 41 }, "geometry": { "type": "LineString", "coordinates": [ [ 77.63518425, 13.0458 ], [ 77.62811235, 13.04892905 ], [ 77.62669045, 13.0462711 ], [ 77.630296, 13.0342453 ], [ 77.62120515, 13.04139915 ], [ 77.610669300000012, 13.05039575 ], [ 77.61381685, 13.0494103 ], [ 77.6031261, 13.0584538 ], [ 77.6079092, 13.07016085 ], [ 77.60646915, 13.07958965 ] ] } },
{ "type": "Feature", "properties": { "itinerary_id": 42 }, "geometry": { "type": "LineString", "coordinates": [ [ 77.62299615, 13.06538135 ], [ 77.62335715, 13.06199925 ], [ 77.62347465, 13.0573383 ], [ 77.61666375, 13.0617284 ], [ 77.6435877, 13.0773446 ], [ 77.65487075, 13.09324645 ], [ 77.6618159, 13.0967069 ] ] } },
{ "type": "Feature", "properties": { "itinerary_id": 43 }, "geometry": { "type": "LineString", "coordinates": [ [ 77.648232650000011, 13.10586815 ], [ 77.59468, 13.1069102 ], [ 77.59315555, 13.1059893 ], [ 77.59282955, 13.10626195 ], [ 77.5929376, 13.10927155 ], [ 77.60267545, 13.1119206 ], [ 77.5890058, 13.08712945 ], [ 77.5889639, 13.0849981 ], [ 77.58295585, 13.0873793 ] ] } },
{ "type": "Feature", "properties": { "itinerary_id": 44 }, "geometry": { "type": "LineString", "coordinates": [ [ 77.584023050000013, 13.09294835 ], [ 77.580962050000011, 13.09429675 ], [ 77.5803287, 13.09605405 ], [ 77.5782638, 13.09696235 ], [ 77.5707371, 13.1000106 ], [ 77.57169675, 13.10282215 ], [ 77.5669734, 13.0988462 ], [ 77.57055625, 13.0989246 ], [ 77.55763385, 13.09147765 ], [ 77.55760125, 13.08857695 ], [ 77.5537511, 13.082051 ], [ 77.55079085, 13.08298915 ], [ 77.54625575, 13.08338295 ], [ 77.547458799999987, 13.09067295 ], [ 77.548183200000011, 13.09438225 ], [ 77.54073855, 13.0948394 ], [ 77.5418211, 13.0905741 ], [ 77.53204305, 13.08006825 ], [ 77.52215385, 13.0755629 ], [ 77.5183093, 13.07908355 ], [ 77.51302960000001, 13.0820374 ] ] } },
{ "type": "Feature", "properties": { "itinerary_id": 45 }, "geometry": { "type": "LineString", "coordinates": [ [ 77.5187106, 13.0850503 ], [ 77.5229038, 13.08822495 ], [ 77.5305745, 13.0928064 ], [ 77.5329546, 13.10978555 ], [ 77.5251064, 13.1272202 ], [ 77.525341700000013, 13.12676795 ], [ 77.53553365, 13.1301919 ], [ 77.54153215, 13.126416 ], [ 77.53778675, 13.1450255 ] ] } },
{ "type": "Feature", "properties": { "itinerary_id": 46 }, "geometry": { "type": "LineString", "coordinates": [ [ 77.5137303, 13.1330437 ], [ 77.51256905, 13.1229733 ], [ 77.50065185, 13.11426335 ], [ 77.5006367, 13.12187505 ], [ 77.4939557, 13.1125222 ], [ 77.4835799, 13.1008177 ], [ 77.4765042, 13.1011707 ], [ 77.47118655, 13.0985935 ] ] } },
{ "type": "Feature", "properties": { "itinerary_id": 47 }, "geometry": { "type": "LineString", "coordinates": [ [ 77.45355225, 13.1079319 ], [ 77.44623915, 13.1169244 ], [ 77.4220982, 13.10317855 ], [ 77.410883, 13.10173125 ], [ 77.4107988, 13.1013378 ], [ 77.4130324, 13.10558825 ], [ 77.41078295, 13.10780775 ], [ 77.40804905, 13.1043626 ], [ 77.41792430000001, 13.127175 ], [ 77.41988505, 13.13141705 ], [ 77.42110305, 13.12271185 ], [ 77.4274327, 13.12298445 ] ] } },
{ "type": "Feature", "properties": { "itinerary_id": 48 }, "geometry": { "type": "LineString", "coordinates": [ [ 77.46138825, 13.13534405 ], [ 77.4629266, 13.1337165 ], [ 77.46093715, 13.12785965 ], [ 77.46800255, 13.1347511 ], [ 77.47052135, 13.13664485 ], [ 77.4705734, 13.1410737 ], [ 77.47909365, 13.1360822 ], [ 77.47526575, 13.11922925 ] ] } },
{ "type": "Feature", "properties": { "itinerary_id": 49 }, "geometry": { "type": "LineString", "coordinates": [ [ 77.48729355, 13.0842371 ], [ 77.4875662, 13.0786746 ], [ 77.4836298, 13.07487025 ], [ 77.4863111, 13.0661155 ], [ 77.48732335, 13.06587995 ], [ 77.48980025, 13.065676 ], [ 77.492387549999989, 13.06436925 ], [ 77.4882232, 13.06033895 ], [ 77.5032439, 13.06280135 ], [ 77.50443820000001, 13.0562507 ], [ 77.5086111, 13.0546073 ], [ 77.5103031, 13.05282175 ], [ 77.5100746, 13.05801045 ], [ 77.5092811, 13.0471439 ], [ 77.50608735, 13.04588015 ], [ 77.4991244, 13.04651675 ] ] } },
{ "type": "Feature", "properties": { "itinerary_id": 50 }, "geometry": { "type": "LineString", "coordinates": [ [ 77.48835805, 13.0381648 ], [ 77.49175215, 13.0311021 ], [ 77.4947119, 13.0244834 ], [ 77.5070083, 13.0316945 ], [ 77.50710735, 13.0294524 ], [ 77.5122564, 13.026715 ], [ 77.5116475, 13.0216782 ], [ 77.5197857, 13.01806295 ], [ 77.52805765, 13.018157 ], [ 77.53291205, 13.00775075 ], [ 77.53285465, 13.00610325 ], [ 77.5391856, 13.0090314 ], [ 77.5413424, 13.0061252 ], [ 77.54655235, 13.00765775 ], [ 77.547967449999987, 13.0055978 ], [ 77.5462659, 13.00131705 ], [ 77.5457265, 12.99351375 ] ] } },
{ "type": "Feature", "properties": { "itinerary_id": 51 }, "geometry": { "type": "LineString", "coordinates": [ [ 77.53539145, 12.997504 ], [ 77.53465455, 12.9925276 ], [ 77.53923325, 12.98184825 ], [ 77.5410172, 12.98129085 ], [ 77.54307795, 12.9824767 ], [ 77.54609235, 12.97784885 ], [ 77.5538956, 12.9808127 ], [ 77.5605009, 12.97453175 ], [ 77.56047895, 12.9721464 ], [ 77.5615584, 12.97129055 ], [ 77.56191955, 12.96778315 ], [ 77.56291005, 12.968061 ], [ 77.5574561, 12.9702708 ], [ 77.55398995, 12.96839105 ], [ 77.56141155, 12.9643848 ], [ 77.5658152, 12.9641041 ], [ 77.5653271, 12.96346935 ], [ 77.5646537, 12.96358555 ], [ 77.5566695, 12.95871335 ], [ 77.5553085, 12.94959625 ], [ 77.5561226, 12.94933725 ], [ 77.5543132, 12.94757845 ], [ 77.5475358, 12.9492962 ] ] } },
{ "type": "Feature", "properties": { "itinerary_id": 52 }, "geometry": { "type": "LineString", "coordinates": [ [ 77.544821750000011, 12.9465206 ], [ 77.54801555, 12.9447015 ], [ 77.55171395, 12.9372945 ], [ 77.5563148, 12.93186485 ], [ 77.547021, 12.92392405 ], [ 77.54514655, 12.91857465 ], [ 77.53792615, 12.9204874 ], [ 77.53962325, 12.9258643 ], [ 77.5421915, 12.9305062 ], [ 77.54140725, 12.935873 ], [ 77.53577595, 12.93328725 ], [ 77.5406532, 12.95288415 ], [ 77.5653987, 12.97551835 ] ] } },
{ "type": "Feature", "properties": { "itinerary_id": 53 }, "geometry": { "type": "LineString", "coordinates": [ [ 77.565985500000011, 12.98101985 ], [ 77.5666354, 12.9740328 ], [ 77.55376895, 13.00458325 ], [ 77.562253, 13.02024585 ], [ 77.5531652, 13.02181235 ], [ 77.5534361, 13.02416565 ], [ 77.5601734, 13.03495765 ], [ 77.57089255, 13.0457936 ], [ 77.56746355, 13.0490592 ], [ 77.57276495, 13.05543275 ] ] } },
{ "type": "Feature", "properties": { "itinerary_id": 54 }, "geometry": { "type": "LineString", "coordinates": [ [ 77.5757601, 13.05526385 ], [ 77.5793574, 13.05542015 ], [ 77.5765936, 13.06006275 ], [ 77.56772205, 13.06500315 ], [ 77.56443305, 13.0684771 ], [ 77.56354585, 13.0727466 ], [ 77.5534298, 13.06644595 ], [ 77.5659535, 13.05777405 ], [ 77.5493119, 13.04325275 ], [ 77.54549685, 13.04196445 ], [ 77.53346495, 13.05901415 ], [ 77.5320651, 13.0651704 ] ] } },
{ "type": "Feature", "properties": { "itinerary_id": 55 }, "geometry": { "type": "LineString", "coordinates": [ [ 77.53573105000001, 13.07124565 ], [ 77.50551745, 13.0884887 ], [ 77.50095635, 13.08771 ], [ 77.50561155, 13.0970788 ], [ 77.51010675, 13.1029175 ], [ 77.500428199999988, 13.0706753 ], [ 77.49659535, 13.0706447 ] ] } },
{ "type": "Feature", "properties": { "itinerary_id": 56 }, "geometry": { "type": "LineString", "coordinates": [ [ 77.5163399, 13.047088 ], [ 77.50993825, 13.04248515 ], [ 77.49837435, 13.02012335 ], [ 77.54090115, 13.0235306 ] ] } },
{ "type": "Feature", "properties": { "itinerary_id": 57 }, "geometry": { "type": "LineString", "coordinates": [ [ 77.58178955, 13.0399509 ], [ 77.5952389, 13.03871475 ], [ 77.5886905, 13.03403655 ], [ 77.59014155, 13.0343978 ], [ 77.58744175, 13.06320575 ], [ 77.58503975, 13.0729389 ] ] } },
{ "type": "Feature", "properties": { "itinerary_id": 58 }, "geometry": { "type": "LineString", "coordinates": [ [ 77.58235745, 13.13239905 ], [ 77.5842847, 13.13015765 ], [ 77.5817224, 13.1286581 ], [ 77.5859007, 13.14402045 ], [ 77.60307645, 13.1450157 ] ] } },
{ "type": "Feature", "properties": { "itinerary_id": 59 }, "geometry": { "type": "LineString", "coordinates": [ [ 77.6402076, 13.15478725 ], [ 77.645985, 13.1632646 ], [ 77.64421645, 13.1713915 ], [ 77.6680828, 13.16424645 ], [ 77.6621859, 13.1468595 ] ] } },
{ "type": "Feature", "properties": { "itinerary_id": 60 }, "geometry": { "type": "LineString", "coordinates": [ [ 77.7205672, 13.1043542 ], [ 77.73994175, 13.0873193 ], [ 77.7453784, 13.094056 ] ] } },
{ "type": "Feature", "properties": { "itinerary_id": 61 }, "geometry": { "type": "LineString", "coordinates": [ [ 77.6797102, 13.07222075 ], [ 77.670474750000011, 13.05788215 ], [ 77.66244525, 13.07248865 ] ] } },
{ "type": "Feature", "properties": { "itinerary_id": 62 }, "geometry": { "type": "LineString", "coordinates": [ [ 77.67250915, 13.0832725 ], [ 77.65219905, 13.0203519 ] ] } },
{ "type": "Feature", "properties": { "itinerary_id": 63 }, "geometry": { "type": "LineString", "coordinates": [ [ 77.6080683, 12.9982897 ], [ 77.5852634, 12.9935074 ] ] } },
{ "type": "Feature", "properties": { "itinerary_id": 64 }, "geometry": { "type": "LineString", "coordinates": [ [ 77.6216792, 12.9348421 ], [ 77.6462288, 12.89352185 ], [ 77.65298185, 12.88998405 ], [ 77.6494387, 12.8840691 ] ] } },
{ "type": "Feature", "properties": { "itinerary_id": 65 }, "geometry": { "type": "LineString", "coordinates": [ [ 77.64721895, 12.8853287 ], [ 77.65770335, 12.8783783 ], [ 77.65913635, 12.87906295 ], [ 77.65938695, 12.8764882 ], [ 77.661604, 12.87685645 ], [ 77.6672052, 12.87163925 ], [ 77.6706886, 12.87625465 ], [ 77.681939, 12.8788782 ], [ 77.6748505, 12.89718325 ], [ 77.6754497, 12.89791275 ], [ 77.6791087, 12.90181875 ], [ 77.6799188, 12.90349945 ], [ 77.6841077, 12.90609915 ], [ 77.68310045, 12.90632625 ], [ 77.7074852, 12.90175285 ], [ 77.72286275, 12.900663 ] ] } },
{ "type": "Feature", "properties": { "itinerary_id": 66 }, "geometry": { "type": "LineString", "coordinates": [ [ 77.7290946, 12.88296685 ], [ 77.74128905, 12.88421325 ], [ 77.74307395, 12.8816204 ], [ 77.73910865, 12.89082495 ], [ 77.7581021, 12.8817104 ], [ 77.7655405, 12.87364515 ], [ 77.75130435, 12.87067405 ], [ 77.72822785, 12.86263945 ], [ 77.7200467, 12.8684116 ] ] } },
{ "type": "Feature", "properties": { "itinerary_id": 67 }, "geometry": { "type": "LineString", "coordinates": [ [ 77.71363815, 12.8540647 ], [ 77.70664275, 12.8625834 ], [ 77.6925213, 12.8489954 ], [ 77.67961175, 12.8395557 ], [ 77.6867536, 12.8288744 ], [ 77.70445655, 12.8025562 ], [ 77.69094475, 12.8009719 ], [ 77.6908138, 12.79584235 ] ] } },
{ "type": "Feature", "properties": { "itinerary_id": 68 }, "geometry": { "type": "LineString", "coordinates": [ [ 77.6962321, 12.7927581 ], [ 77.6954601, 12.7763863 ], [ 77.692284, 12.7743362 ], [ 77.685149849999988, 12.7716047 ], [ 77.6864071, 12.76904665 ], [ 77.6763247, 12.76776305 ], [ 77.67018825, 12.77546965 ], [ 77.66959055, 12.7742068 ], [ 77.6679073, 12.77386195 ], [ 77.6734153, 12.78137905 ], [ 77.66240235, 12.7812278 ], [ 77.6511422, 12.77546835 ] ] } },
{ "type": "Feature", "properties": { "itinerary_id": 69 }, "geometry": { "type": "LineString", "coordinates": [ [ 77.65441015, 12.76347445 ], [ 77.63618555, 12.7512686 ], [ 77.6374836, 12.74587795 ], [ 77.645988, 12.74074865 ], [ 77.61797685, 12.7267406 ], [ 77.613759, 12.74964165 ] ] } },
{ "type": "Feature", "properties": { "itinerary_id": 70 }, "geometry": { "type": "LineString", "coordinates": [ [ 77.62034065, 12.75782155 ], [ 77.61313125, 12.7643346 ], [ 77.61380285, 12.77453105 ], [ 77.61311475, 12.79141555 ], [ 77.62308155, 12.81037405 ], [ 77.6321198, 12.8416091 ], [ 77.63162015, 12.84301955 ], [ 77.634771, 12.8592948 ] ] } },
{ "type": "Feature", "properties": { "itinerary_id": 71 }, "geometry": { "type": "LineString", "coordinates": [ [ 77.64854455, 12.85731975 ], [ 77.65505185, 12.8672533 ], [ 77.654932949999989, 12.8672479 ], [ 77.66031625, 12.86001245 ], [ 77.66380505, 12.85700935 ], [ 77.67888025, 12.85468295 ], [ 77.68252275, 12.85580985 ], [ 77.6676643, 12.84547215 ], [ 77.67220725, 12.8400342 ], [ 77.670348249999989, 12.8321957 ], [ 77.667801, 12.8246336 ], [ 77.6692907, 12.8234909 ] ] } },
{ "type": "Feature", "properties": { "itinerary_id": 72 }, "geometry": { "type": "LineString", "coordinates": [ [ 77.6465185, 12.83090135 ], [ 77.63969045, 12.87631495 ], [ 77.66219345, 12.85887945 ], [ 77.65874995, 12.88597475 ] ] } },
{ "type": "Feature", "properties": { "itinerary_id": 73 }, "geometry": { "type": "LineString", "coordinates": [ [ 77.65477945, 12.89683145 ], [ 77.68297615, 12.92914785 ], [ 77.70014315, 12.9341621 ], [ 77.70555945, 12.9402166 ], [ 77.71150845, 12.93061895 ], [ 77.71774055, 12.92425995 ], [ 77.7301655, 12.93145085 ] ] } },
{ "type": "Feature", "properties": { "itinerary_id": 74 }, "geometry": { "type": "LineString", "coordinates": [ [ 77.74516085, 12.93619415 ], [ 77.7339795, 12.9327077 ], [ 77.75458625, 12.9477562 ], [ 77.7387382, 12.95703285 ], [ 77.73878815, 12.95707005 ], [ 77.72177905, 12.9532953 ], [ 77.71423085, 12.96435035 ], [ 77.71180165, 12.9688728 ] ] } },
{ "type": "Feature", "properties": { "itinerary_id": 75 }, "geometry": { "type": "LineString", "coordinates": [ [ 77.7067646, 12.95029255 ], [ 77.71054455, 12.94818435 ], [ 77.710957400000012, 12.949418 ], [ 77.70296285, 12.9477281 ], [ 77.69510095, 12.931243 ], [ 77.66607095, 12.9208747 ] ] } },
{ "type": "Feature", "properties": { "itinerary_id": 77 }, "geometry": { "type": "LineString", "coordinates": [ [ 77.757564, 12.9593175 ], [ 77.75764095, 12.9796657 ], [ 77.7526905, 12.98496565 ], [ 77.7520793, 12.98253695 ], [ 77.7435978, 12.97568635 ], [ 77.73829745, 12.9774752 ] ] } },
{ "type": "Feature", "properties": { "itinerary_id": 78 }, "geometry": { "type": "LineString", "coordinates": [ [ 77.75673775, 13.0066511 ], [ 77.7524851, 13.00263455 ], [ 77.7622007, 13.00010595 ], [ 77.7695602, 13.02834535 ] ] } },
{ "type": "Feature", "properties": { "itinerary_id": 80 }, "geometry": { "type": "LineString", "coordinates": [ [ 77.8111325, 12.8814167 ], [ 77.79933745, 12.8654923 ], [ 77.7461404, 12.8140608 ], [ 77.74787275, 12.8061949 ], [ 77.75678985, 12.8085552 ] ] } },
{ "type": "Feature", "properties": { "itinerary_id": 81 }, "geometry": { "type": "LineString", "coordinates": [ [ 77.7522132, 12.7944372 ], [ 77.75293305, 12.79177675 ], [ 77.75016415, 12.79457205 ], [ 77.77778355, 12.7781342 ], [ 77.7755601, 12.78462895 ], [ 77.76290285, 12.7782691 ], [ 77.75778785, 12.77954445 ], [ 77.7555926, 12.7770093 ], [ 77.74202265, 12.7718684 ], [ 77.74299015, 12.76110655 ], [ 77.7469271, 12.7506594 ] ] } },
{ "type": "Feature", "properties": { "itinerary_id": 82 }, "geometry": { "type": "LineString", "coordinates": [ [ 77.7321617, 12.73696805 ], [ 77.73147265, 12.7524665 ], [ 77.7245177, 12.76351645 ], [ 77.7287174, 12.7658512 ], [ 77.71377805, 12.76350955 ], [ 77.70949205, 12.747488 ], [ 77.70663205, 12.7433996 ], [ 77.70805735, 12.725711 ], [ 77.703215199999988, 12.7162686 ], [ 77.705882, 12.71711585 ], [ 77.70743315, 12.7168284 ], [ 77.7108514, 12.7185534 ], [ 77.71946455, 12.71955925 ], [ 77.7203174, 12.7160386 ] ] } },
{ "type": "Feature", "properties": { "itinerary_id": 83 }, "geometry": { "type": "LineString", "coordinates": [ [ 77.6928385, 12.7088484 ], [ 77.6932944, 12.70071915 ], [ 77.69764025, 12.70242025 ], [ 77.70865095, 12.68679695 ], [ 77.71494245, 12.6798842 ], [ 77.7139527, 12.67937995 ], [ 77.6988185, 12.65652935 ] ] } },
{ "type": "Feature", "properties": { "itinerary_id": 84 }, "geometry": { "type": "LineString", "coordinates": [ [ 77.6867557, 12.70258555 ], [ 77.68855315, 12.7283269 ], [ 77.6878747, 12.73106265 ], [ 77.6856702, 12.72939695 ], [ 77.6793042, 12.74318325 ], [ 77.6825246, 12.7600427 ], [ 77.69210995, 12.75464155 ] ] } },
{ "type": "Feature", "properties": { "itinerary_id": 85 }, "geometry": { "type": "LineString", "coordinates": [ [ 77.69858225, 12.7668802 ], [ 77.71586355, 12.78247015 ], [ 77.71982365, 12.79238295 ], [ 77.7236424, 12.81123765 ] ] } },
{ "type": "Feature", "properties": { "itinerary_id": 87 }, "geometry": { "type": "LineString", "coordinates": [ [ 77.75380025, 12.71531635 ], [ 77.74677235, 12.7085301 ], [ 77.74558825, 12.6903309 ] ] } },
{ "type": "Feature", "properties": { "itinerary_id": 90 }, "geometry": { "type": "LineString", "coordinates": [ [ 77.56574355, 12.8625461 ], [ 77.55105265, 12.85380655 ], [ 77.55133915, 12.852635 ], [ 77.55055015, 12.8561899 ], [ 77.5531049, 12.87738165 ], [ 77.53474955, 12.8688196 ], [ 77.52762225, 12.8647985 ], [ 77.51478035, 12.86883535 ], [ 77.51312475, 12.8688636 ], [ 77.51392305, 12.8745475 ], [ 77.50711825, 12.8740307 ], [ 77.505389900000011, 12.8849074 ] ] } },
{ "type": "Feature", "properties": { "itinerary_id": 91 }, "geometry": { "type": "LineString", "coordinates": [ [ 77.5143899, 12.8623936 ], [ 77.51921485, 12.849824 ], [ 77.5070816, 12.84731165 ], [ 77.4999193, 12.8424819 ], [ 77.49573375, 12.8423955 ], [ 77.48982445, 12.8412927 ], [ 77.48740445, 12.85410235 ], [ 77.47833115, 12.85932675 ] ] } },
{ "type": "Feature", "properties": { "itinerary_id": 92 }, "geometry": { "type": "LineString", "coordinates": [ [ 77.49616665, 12.83050765 ], [ 77.50184485, 12.8164586 ], [ 77.51557035, 12.8195167 ], [ 77.5183452, 12.81790985 ], [ 77.5297311, 12.82899055 ] ] } },
{ "type": "Feature", "properties": { "itinerary_id": 93 }, "geometry": { "type": "LineString", "coordinates": [ [ 77.5152733, 12.79449415 ], [ 77.52801905, 12.8010124 ], [ 77.53100105, 12.7820628 ], [ 77.5096686, 12.76756415 ] ] } },
{ "type": "Feature", "properties": { "itinerary_id": 94 }, "geometry": { "type": "LineString", "coordinates": [ [ 77.4912827, 12.77483625 ], [ 77.48256635, 12.77134255 ], [ 77.4723378, 12.76103855 ], [ 77.4695825, 12.7561669 ], [ 77.47217025, 12.74766635 ], [ 77.497338750000011, 12.73276665 ], [ 77.5021108, 12.75195055 ] ] } },
{ "type": "Feature", "properties": { "itinerary_id": 96 }, "geometry": { "type": "LineString", "coordinates": [ [ 77.43474985, 12.85957525 ], [ 77.4239936, 12.84766025 ] ] } },
{ "type": "Feature", "properties": { "itinerary_id": 97 }, "geometry": { "type": "LineString", "coordinates": [ [ 77.41633875, 12.8546654 ], [ 77.3909214, 12.86665195 ], [ 77.37655305, 12.867574 ], [ 77.37697255, 12.8887141 ], [ 77.3773343, 12.8964669 ], [ 77.3714821, 12.9101114 ], [ 77.3777265, 12.9153975 ], [ 77.375745, 12.918226 ] ] } },
{ "type": "Feature", "properties": { "itinerary_id": 98 }, "geometry": { "type": "LineString", "coordinates": [ [ 77.3705964, 12.9207309 ], [ 77.364055900000011, 12.9234623 ], [ 77.3502737, 12.90796665 ], [ 77.359913049999989, 12.8905375 ], [ 77.35867345, 12.8865377 ], [ 77.3519184, 12.8811982 ], [ 77.3510449, 12.8819875 ], [ 77.36729170000001, 12.8802937 ], [ 77.362592299999989, 12.8755822 ] ] } },
{ "type": "Feature", "properties": { "itinerary_id": 99 }, "geometry": { "type": "LineString", "coordinates": [ [ 77.3797348, 12.9141842 ], [ 77.3998117, 12.92118285 ], [ 77.403852550000011, 12.92737565 ], [ 77.40224495, 12.93356405 ], [ 77.4056068, 12.9133509 ], [ 77.4004742, 12.89871395 ] ] } },
{ "type": "Feature", "properties": { "itinerary_id": 101 }, "geometry": { "type": "LineString", "coordinates": [ [ 77.4588214, 13.04134665 ], [ 77.4583822, 13.0403309 ], [ 77.4638406, 13.05284295 ], [ 77.4665087, 13.05502905 ] ] } },
{ "type": "Feature", "properties": { "itinerary_id": 102 }, "geometry": { "type": "LineString", "coordinates": [ [ 77.4779939, 13.05602885 ], [ 77.47368265, 13.0489322 ], [ 77.45142815, 13.0496724 ], [ 77.46671755, 13.07069985 ], [ 77.46165045, 13.06991855 ], [ 77.46709515, 13.0771957 ] ] } },
{ "type": "Feature", "properties": { "itinerary_id": 103 }, "geometry": { "type": "LineString", "coordinates": [ [ 77.45620345, 13.075003 ], [ 77.50406555, 13.14886065 ] ] } },
{ "type": "Feature", "properties": { "itinerary_id": 104 }, "geometry": { "type": "LineString", "coordinates": [ [ 77.52378875, 13.1740133 ], [ 77.51920355, 13.1881798 ], [ 77.5295761, 13.17816585 ], [ 77.5407841, 13.18602665 ], [ 77.5375188, 13.18547415 ], [ 77.54739425, 13.1876374 ], [ 77.5515206, 13.1939245 ], [ 77.53928055, 13.1981078 ] ] } },
{ "type": "Feature", "properties": { "itinerary_id": 105 }, "geometry": { "type": "LineString", "coordinates": [ [ 77.5426236, 13.17437065 ], [ 77.55841295, 13.16436845 ], [ 77.56619505, 13.15768075 ], [ 77.55843835, 13.14748835 ] ] } },
{ "type": "Feature", "properties": { "itinerary_id": 106 }, "geometry": { "type": "LineString", "coordinates": [ [ 77.567392649999988, 13.18624075 ], [ 77.57570175, 13.18189185 ], [ 77.57733735, 13.18495615 ], [ 77.6236427, 13.1919126 ] ] } },
{ "type": "Feature", "properties": { "itinerary_id": 110 }, "geometry": { "type": "LineString", "coordinates": [ [ 77.5005919, 12.96123005 ], [ 77.5414849, 12.9154339 ], [ 77.537482250000011, 12.91382185 ], [ 77.5327483, 12.9144855 ], [ 77.5374349, 12.90687075 ], [ 77.53653945, 12.90281045 ], [ 77.54697655, 12.90893975 ], [ 77.54736375, 12.91154405 ], [ 77.5517538, 12.9095391 ], [ 77.5557639, 12.9091447 ], [ 77.5555614, 12.90829325 ], [ 77.5557646, 12.9107331 ] ] } },
{ "type": "Feature", "properties": { "itinerary_id": 111 }, "geometry": { "type": "LineString", "coordinates": [ [ 77.56195360000001, 12.9137929 ], [ 77.56169895, 12.9111441 ], [ 77.5610457, 12.9256782 ], [ 77.4694234, 12.9024797 ], [ 77.4769057, 12.884204 ] ] } }
]
}
