{
"type": "FeatureCollection",
"name": "bangalore_boundary",
"crs": { "type": "name", "properties": { "name": "urn:ogc:def:crs:OGC:1.3:CRS84" } },
"features": [
{ "type": "Feature", "properties": { }, "geometry": { "type": "Polygon", "coordinates": [ [ [ 77.7655, 12.928 ], [ 77.77, 12.9257 ], [ 77.769, 12.9192 ], [ 77.7738, 12.9167 ], [ 77.7861, 12.9145 ], [ 77.7917, 12.9098 ], [ 77.798, 12.9107 ], [ 77.8011, 12.9198 ], [ 77.806, 12.9188 ], [ 77.8057, 12.9118 ], [ 77.8086, 12.9074 ], [ 77.8088, 12.9037 ], [ 77.8138, 12.8978 ], [ 77.8179, 12.8869 ], [ 77.8182, 12.8807 ], [ 77.8215, 12.8772 ], [ 77.8209, 12.8688 ], [ 77.8256, 12.859 ], [ 77.8222, 12.8546 ], [ 77.8221, 12.8498 ], [ 77.817, 12.849 ], [ 77.8136, 12.844 ], [ 77.8049, 12.8428 ], [ 77.7998, 12.8378 ], [ 77.792, 12.8398 ], [ 77.7895, 12.8388 ], [ 77.7886, 12.8354 ], [ 77.7849, 12.8338 ], [ 77.7836, 12.8283 ], [ 77.788, 12.8236 ], [ 77.7923, 12.8214 ], [ 77.801, 12.8208 ], [ 77.7987, 12.8118 ], [ 77.8007, 12.8056 ], [ 77.7944, 12.8058 ], [ 77.7914, 12.7963 ], [ 77.7995, 12.7869 ], [ 77.7979, 12.7829 ], [ 77.7935, 12.7839 ], [ 77.7879, 12.7813 ], [ 77.783, 12.7761 ], [ 77.7815, 12.771 ], [ 77.7716, 12.7598 ], [ 77.7716, 12.7548 ], [ 77.7738, 12.7511 ], [ 77.785, 12.7451 ], [ 77.7829, 12.7388 ], [ 77.7781, 12.7337 ], [ 77.767, 12.7296 ], [ 77.7584, 12.7293 ], [ 77.7531, 12.7251 ], [ 77.7517, 12.7184 ], [ 77.7556, 12.7156 ], [ 77.763, 12.7145 ], [ 77.7615, 12.7077 ], [ 77.7573, 12.704 ], [ 77.756, 12.6971 ], [ 77.7502, 12.6872 ], [ 77.7471, 12.6866 ], [ 77.7336, 12.6915 ], [ 77.7273, 12.6829 ], [ 77.7332, 12.6719 ], [ 77.7314, 12.664 ], [ 77.7184, 12.662 ], [ 77.7153, 12.663 ], [ 77.7141, 12.6703 ], [ 77.7038, 12.6737 ], [ 77.7018, 12.6582 ], [ 77.6955, 12.6512 ], [ 77.6875, 12.6519 ], [ 77.6784, 12.649 ], [ 77.6678, 12.6506 ], [ 77.6693, 12.6619 ], [ 77.6659, 12.6644 ], [ 77.6703, 12.6712 ], [ 77.6543, 12.6742 ], [ 77.6388, 12.6701 ], [ 77.6329, 12.6701 ], [ 77.5903, 12.6575 ], [ 77.5893, 12.6483 ], [ 77.5855, 12.6555 ], [ 77.5922, 12.666 ], [ 77.5961, 12.6802 ], [ 77.6086, 12.6968 ], [ 77.6064, 12.6994 ], [ 77.5877, 12.71 ], [ 77.5644, 12.691 ], [ 77.561, 12.69 ], [ 77.5549, 12.6962 ], [ 77.55, 12.7129 ], [ 77.55, 12.7215 ], [ 77.5561, 12.7231 ], [ 77.5636, 12.7228 ], [ 77.5647, 12.7245 ], [ 77.561, 12.7273 ], [ 77.5683, 12.7429 ], [ 77.5735, 12.7441 ], [ 77.5795, 12.7405 ], [ 77.5888, 12.7473 ], [ 77.5906, 12.7575 ], [ 77.5855, 12.7685 ], [ 77.5852, 12.7734 ], [ 77.5736, 12.7778 ], [ 77.5644, 12.7708 ], [ 77.5651, 12.7601 ], [ 77.5635, 12.7538 ], [ 77.5593, 12.7501 ], [ 77.5544, 12.7548 ], [ 77.5483, 12.7713 ], [ 77.5548, 12.777 ], [ 77.5459, 12.7797 ], [ 77.5499, 12.791 ], [ 77.5329, 12.7899 ], [ 77.542, 12.7775 ], [ 77.5353, 12.767 ], [ 77.5433, 12.7647 ], [ 77.5352, 12.7547 ], [ 77.536, 12.7444 ], [ 77.5347, 12.7434 ], [ 77.53, 12.7459 ], [ 77.5185, 12.733 ], [ 77.5148, 12.7239 ], [ 77.5124, 12.7234 ], [ 77.5117, 12.7351 ], [ 77.507, 12.736 ], [ 77.4975, 12.7269 ], [ 77.4812, 12.7343 ], [ 77.4685, 12.7454 ], [ 77.4685, 12.7507 ], [ 77.4659, 12.7576 ], [ 77.4698, 12.7704 ], [ 77.4692, 12.7736 ], [ 77.4631, 12.7808 ], [ 77.4629, 12.7843 ], [ 77.4649, 12.7866 ], [ 77.4765, 12.7905 ], [ 77.4767, 12.7928 ], [ 77.4713, 12.797 ], [ 77.473, 12.7992 ], [ 77.4576, 12.8004 ], [ 77.4447, 12.8097 ], [ 77.4362, 12.7989 ], [ 77.4298, 12.8033 ], [ 77.4287, 12.8073 ], [ 77.425, 12.808 ], [ 77.429, 12.8145 ], [ 77.4187, 12.8147 ], [ 77.4147, 12.8175 ], [ 77.4136, 12.822 ], [ 77.4175, 12.8265 ], [ 77.4235, 12.8301 ], [ 77.4296, 12.8311 ], [ 77.4301, 12.8413 ], [ 77.4246, 12.843 ], [ 77.4207, 12.8464 ], [ 77.413, 12.8601 ], [ 77.4227, 12.8626 ], [ 77.4221, 12.8687 ], [ 77.4182, 12.8648 ], [ 77.411, 12.8622 ], [ 77.409, 12.8625 ], [ 77.4073, 12.8663 ], [ 77.4043, 12.8675 ], [ 77.4001, 12.8658 ], [ 77.3967, 12.863 ], [ 77.3942, 12.8555 ], [ 77.3887, 12.8609 ], [ 77.3858, 12.8535 ], [ 77.3696, 12.8452 ], [ 77.3604, 12.8552 ], [ 77.3583, 12.8626 ], [ 77.3464, 12.8615 ], [ 77.3403, 12.8594 ], [ 77.3398, 12.8722 ], [ 77.3293, 12.9007 ], [ 77.3337, 12.9056 ], [ 77.3341, 12.92 ], [ 77.3305, 12.9203 ], [ 77.3304, 12.9258 ], [ 77.3365, 12.929 ], [ 77.3372, 12.9332 ], [ 77.3307, 12.9336 ], [ 77.3288, 12.9367 ], [ 77.325, 12.9389 ], [ 77.3222, 12.9659 ], [ 77.327, 12.9683 ], [ 77.3319, 12.968 ], [ 77.3338, 12.9622 ], [ 77.3371, 12.9619 ], [ 77.3472, 12.9656 ], [ 77.3531, 12.9755 ], [ 77.3686, 12.9826 ], [ 77.3717, 12.9859 ], [ 77.3698, 12.9973 ], [ 77.3661, 13.002 ], [ 77.3651, 13.0075 ], [ 77.3714, 13.0107 ], [ 77.3704, 13.0211 ], [ 77.3855, 13.0202 ], [ 77.3903, 13.0459 ], [ 77.3843, 13.0468 ], [ 77.3813, 13.0413 ], [ 77.379, 13.0431 ], [ 77.3757, 13.0496 ], [ 77.3767, 13.0566 ], [ 77.394, 13.0624 ], [ 77.4219, 13.0597 ], [ 77.4183, 13.078 ], [ 77.413, 13.0779 ], [ 77.4113, 13.0964 ], [ 77.3966, 13.1049 ], [ 77.3977, 13.1162 ], [ 77.4017, 13.1161 ], [ 77.4092, 13.1392 ], [ 77.4215, 13.1555 ], [ 77.437, 13.1559 ], [ 77.4535, 13.1516 ], [ 77.46, 13.1543 ], [ 77.4598, 13.1637 ], [ 77.4666, 13.1785 ], [ 77.4685, 13.1869 ], [ 77.4675, 13.1963 ], [ 77.4653, 13.1982 ], [ 77.4665, 13.2061 ], [ 77.4715, 13.2129 ], [ 77.504, 13.2158 ], [ 77.508, 13.2117 ], [ 77.5133, 13.201 ], [ 77.5199, 13.2101 ], [ 77.5282, 13.2105 ], [ 77.5391, 13.2232 ], [ 77.5508, 13.2233 ], [ 77.5488, 13.206 ], [ 77.5615, 13.2046 ], [ 77.5619, 13.1926 ], [ 77.567, 13.1887 ], [ 77.5902, 13.1806 ], [ 77.5938, 13.1811 ], [ 77.5986, 13.1928 ], [ 77.6071, 13.1932 ], [ 77.6082, 13.1963 ], [ 77.6116, 13.1964 ], [ 77.6449, 13.1922 ], [ 77.6461, 13.1792 ], [ 77.6497, 13.1776 ], [ 77.6599, 13.1763 ], [ 77.6648, 13.1781 ], [ 77.6681, 13.1822 ], [ 77.6805, 13.1835 ], [ 77.6817, 13.1892 ], [ 77.6858, 13.1875 ], [ 77.6876, 13.18 ], [ 77.6927, 13.1782 ], [ 77.7061, 13.182 ], [ 77.7202, 13.1791 ], [ 77.7226, 13.174 ], [ 77.7218, 13.1679 ], [ 77.7189, 13.1622 ], [ 77.7222, 13.1576 ], [ 77.7202, 13.1507 ], [ 77.722, 13.1489 ], [ 77.7213, 13.145 ], [ 77.7228, 13.1386 ], [ 77.7302, 13.1307 ], [ 77.7282, 13.1234 ], [ 77.7323, 13.1132 ], [ 77.7254, 13.1056 ], [ 77.7527, 13.1035 ], [ 77.7586, 13.0789 ], [ 77.7581, 13.0737 ], [ 77.753, 13.0662 ], [ 77.755, 13.0565 ], [ 77.7612, 13.0413 ], [ 77.7646, 13.0379 ], [ 77.7737, 13.037 ], [ 77.7755, 13.0275 ], [ 77.7758, 13.0154 ], [ 77.7706, 13.0102 ], [ 77.7691, 13.0045 ], [ 77.7706, 12.9962 ], [ 77.7687, 12.9914 ], [ 77.7663, 12.9677 ], [ 77.771, 12.9671 ], [ 77.7681, 12.963 ], [ 77.7697, 12.9608 ], [ 77.7739, 12.9614 ], [ 77.7767, 12.9559 ], [ 77.7586, 12.951 ], [ 77.7648, 12.9395 ], [ 77.7572, 12.9336 ], [ 77.7576, 12.9288 ], [ 77.7655, 12.928 ] ] ] } }
]
}
