{
  "type": "FeatureCollection",
  "features": [
    {
      "type": "Feature",
      "properties": {
        "itinerary_id": 1,
        "n_segments": 69,
        "length_m": 5149.221549822785
      },
      "geometry": {
        "type": "LineString",
        "coordinates": [
          [
            72.8397849,
            19.0255655
          ],
          [
            72.8398478,
            19.0256348
          ],
          [
            72.8379118,
            19.0253754
          ],
          [
            72.8357626,
            19.0254641
          ],
          [
            72.8362032,
            19.0262395
          ],
          [
            72.8360923,
            19.0258478
          ],
          [
            72.8383575,
            19.0301723
          ],
          [
            72.8381467,
            19.029822
          ],
          [
            72.8386302,
            19.031849
          ],
          [
            72.8384989,
            19.0302284
          ],
          [
            72.8386369,
            19.0314026
          ],
          [
            72.8407753,
            19.0300271
          ],
          [
            72.8389809,
            19.0322464
          ],
          [
            72.8407153,
            19.0252851
          ],
          [
            72.8415213,
            19.0321649
          ],
          [
            72.8386853,
            19.0323158
          ],
          [
            72.8387896,
            19.0336313
          ],
          [
            72.8393075,
            19.038621
          ],
          [
            72.8389895,
            19.0391478
          ],
          [
            72.8411159,
            19.0406862
          ],
          [
            72.8385358,
            19.0415184
          ],
          [
            72.8389475,
            19.0406647
          ],
          [
            72.8409336,
            19.0389923
          ],
          [
            72.8410009,
            19.0388151
          ],
          [
            72.8408873,
            19.0388101
          ],
          [
            72.8415385,
            19.0390323
          ],
          [
            72.8416337,
            19.0425207
          ],
          [
            72.8425016,
            19.0416012
          ],
          [
            72.8433739,
            19.0402368
          ],
          [
            72.8464145,
            19.0408032
          ],
          [
            72.8468073,
            19.039890900000003
          ],
          [
            72.8427896,
            19.039882
          ],
          [
            72.8423712,
            19.0406001
          ],
          [
            72.8423448,
            19.0370177
          ],
          [
            72.8423448,
            19.0370177
          ],
          [
            72.8415357,
            19.0381256
          ],
          [
            72.8414905,
            19.0363688
          ],
          [
            72.8440944,
            19.0370537
          ],
          [
            72.8445032,
            19.0370622
          ],
          [
            72.8434685,
            19.035624
          ],
          [
            72.8438979,
            19.0342221
          ],
          [
            72.8443847,
            19.0338812
          ],
          [
            72.8449122,
            19.0332503
          ],
          [
            72.8423352,
            19.0341889
          ],
          [
            72.8460598,
            19.0322736
          ],
          [
            72.8469676,
            19.0321918
          ],
          [
            72.8445599,
            19.0320077
          ],
          [
            72.8443444,
            19.0298552
          ],
          [
            72.8436634,
            19.032023
          ],
          [
            72.8413314,
            19.0279598
          ],
          [
            72.8365213,
            19.0260594
          ],
          [
            72.8394162,
            19.02165
          ],
          [
            72.8363769,
            19.0189523
          ],
          [
            72.8360462,
            19.018829
          ],
          [
            72.8348437,
            19.0160062
          ],
          [
            72.836014,
            19.0190416
          ],
          [
            72.836014,
            19.0190416
          ],
          [
            72.8359281,
            19.0204726
          ],
          [
            72.8385271,
            19.022872
          ],
          [
            72.8364776,
            19.0219519
          ],
          [
            72.8343444,
            19.022535
          ],
          [
            72.8344901,
            19.0229921
          ],
          [
            72.8329312,
            19.020631
          ],
          [
            72.8327775,
            19.0204566
          ],
          [
            72.8329312,
            19.020631
          ],
          [
            72.8311741,
            19.0201801
          ],
          [
            72.8294231,
            19.0159934
          ],
          [
            72.8306101,
            19.0142856
          ],
          [
            72.8311791,
            19.0130351
          ],
          [
            72.8281128,
            19.013045
          ]
        ]
      }
    },
    {
      "type": "Feature",
      "properties": {
        "itinerary_id": 2,
        "n_segments": 52,
        "length_m": 5508.77681937056
      },
      "geometry": {
        "type": "LineString",
        "coordinates": [
          [
            72.8276301,
            19.0140644
          ],
          [
            72.8276218,
            19.0142267
          ],
          [
            72.8276301,
            19.0140644
          ],
          [
            72.8259346,
            19.0151433
          ],
          [
            72.8245354,
            19.0176206
          ],
          [
            72.825828,
            19.0165589
          ],
          [
            72.8268265,
            19.0177522
          ],
          [
            72.8235607,
            19.0164774
          ],
          [
            72.8222498,
            19.017135
          ],
          [
            72.8228592,
            19.0147956
          ],
          [
            72.8206586,
            19.0138479
          ],
          [
            72.8272902,
            19.0154611
          ],
          [
            72.8236102,
            19.0129248
          ],
          [
            72.8238738,
            19.0132009
          ],
          [
            72.8182846,
            19.0063734
          ],
          [
            72.8203737,
            19.010413
          ],
          [
            72.8215129,
            19.006213
          ],
          [
            72.8232673,
            19.0101598
          ],
          [
            72.8199063,
            19.0088818
          ],
          [
            72.824769,
            19.002721
          ],
          [
            72.8248484,
            19.0023499
          ],
          [
            72.8246524,
            19.0023179
          ],
          [
            72.8219599,
            19.0046546
          ],
          [
            72.8195606,
            19.0038843
          ],
          [
            72.8181352,
            19.0020815
          ],
          [
            72.817386,
            19.0001219
          ],
          [
            72.8200366,
            19.0012699
          ],
          [
            72.8210328,
            19.0040268
          ],
          [
            72.8214775,
            19.0038056
          ],
          [
            72.8220818,
            18.9984201
          ],
          [
            72.8219046,
            18.9984268
          ],
          [
            72.8240715,
            19.0004124
          ],
          [
            72.8217716,
            18.9984298
          ],
          [
            72.8178783,
            18.9985847
          ],
          [
            72.8173946,
            18.9984703
          ],
          [
            72.8173426,
            18.998635
          ],
          [
            72.8174661,
            18.9986118
          ],
          [
            72.8174661,
            18.9986118
          ],
          [
            72.8227445,
            18.9958794
          ],
          [
            72.8197754,
            18.9941416
          ],
          [
            72.8197009,
            18.9942799
          ],
          [
            72.8227445,
            18.9958794
          ],
          [
            72.8211032,
            18.9916566
          ],
          [
            72.8195902,
            18.9942351
          ],
          [
            72.8207651,
            18.9947839
          ],
          [
            72.8224525,
            18.9889758
          ],
          [
            72.8223406,
            18.9804505
          ],
          [
            72.8246963,
            18.9845991
          ],
          [
            72.8238466,
            18.9825562
          ],
          [
            72.822184,
            18.9804231
          ],
          [
            72.8237143,
            18.9825464
          ],
          [
            72.8271734,
            18.981122
          ],
          [
            72.8276931,
            18.9820376
          ]
        ]
      }
    },
    {
      "type": "Feature",
      "properties": {
        "itinerary_id": 3,
        "n_segments": 51,
        "length_m": 7928.0317856377
      },
      "geometry": {
        "type": "LineString",
        "coordinates": [
          [
            72.830645,
            18.9800475
          ],
          [
            72.8300902,
            18.9801985
          ],
          [
            72.8291783,
            18.9804461
          ],
          [
            72.8308426,
            18.9773372
          ],
          [
            72.827013,
            18.9807145
          ],
          [
            72.8287652,
            18.9755798
          ],
          [
            72.8302561,
            18.9765863
          ],
          [
            72.8267327,
            18.9806476
          ],
          [
            72.8252403,
            18.9728463
          ],
          [
            72.825789,
            18.9716905
          ],
          [
            72.8244526,
            18.9724536
          ],
          [
            72.8207536,
            18.9688466
          ],
          [
            72.8246668,
            18.9681568
          ],
          [
            72.8208072,
            18.9687728
          ],
          [
            72.8246308,
            18.9680779
          ],
          [
            72.8262279,
            18.9667051
          ],
          [
            72.8250747,
            18.966369
          ],
          [
            72.8262972,
            18.9669826
          ],
          [
            72.8261212,
            18.9667514
          ],
          [
            72.8286373,
            18.9652262
          ],
          [
            72.8294601,
            18.9661631
          ],
          [
            72.829817,
            18.9607655
          ],
          [
            72.8310303,
            18.9612906
          ],
          [
            72.8276884,
            18.9632733
          ],
          [
            72.8263544,
            18.9627551
          ],
          [
            72.8278136,
            18.961711
          ],
          [
            72.8261461,
            18.9616637
          ],
          [
            72.8221303,
            18.9586229
          ],
          [
            72.8229361,
            18.9581594
          ],
          [
            72.8248273,
            18.9580968
          ],
          [
            72.8262091,
            18.9584477
          ],
          [
            72.8230513,
            18.9617565
          ],
          [
            72.8258747,
            18.958348
          ],
          [
            72.8247248,
            18.9572238
          ],
          [
            72.8236124,
            18.9560571
          ],
          [
            72.819821,
            18.9579359
          ],
          [
            72.8190111,
            18.9578045
          ],
          [
            72.8196298,
            18.9591715
          ],
          [
            72.8223969,
            18.9598568
          ],
          [
            72.8199256,
            18.9612297
          ],
          [
            72.821162,
            18.9590887
          ],
          [
            72.8195259,
            18.9598116
          ],
          [
            72.8261294,
            18.9579933
          ],
          [
            72.8276033,
            18.9571692
          ],
          [
            72.8253061,
            18.9562443
          ],
          [
            72.8255574,
            18.9568512
          ],
          [
            72.8288567,
            18.9550193
          ],
          [
            72.8285058,
            18.9567097
          ],
          [
            72.8284598,
            18.9565309
          ],
          [
            72.8313932,
            18.9580967
          ],
          [
            72.8323503,
            18.9569259
          ],
          [
            72.827706,
            18.9560518
          ]
        ]
      }
    },
    {
      "type": "Feature",
      "properties": {
        "itinerary_id": 4,
        "n_segments": 65,
        "length_m": 6165.617824330452
      },
      "geometry": {
        "type": "LineString",
        "coordinates": [
          [
            72.8303346,
            18.9542456
          ],
          [
            72.83217,
            18.9550414
          ],
          [
            72.8306243,
            18.9559808
          ],
          [
            72.8316438,
            18.9563427
          ],
          [
            72.8320197,
            18.9544453
          ],
          [
            72.831752,
            18.9537411
          ],
          [
            72.8320247,
            18.9636249
          ],
          [
            72.8334595,
            18.9527705
          ],
          [
            72.8374735,
            18.953316
          ],
          [
            72.8342445,
            18.9524002
          ],
          [
            72.8347968,
            18.9516063
          ],
          [
            72.8350445,
            18.9509618
          ],
          [
            72.8352722,
            18.9532586
          ],
          [
            72.8359182,
            18.9512603
          ],
          [
            72.8367271,
            18.9559302
          ],
          [
            72.8363958,
            18.9583243
          ],
          [
            72.8376457,
            18.9559871
          ],
          [
            72.8374735,
            18.953316
          ],
          [
            72.8377055,
            18.9497149
          ],
          [
            72.8366209,
            18.9487625
          ],
          [
            72.836515,
            18.9468258
          ],
          [
            72.836515,
            18.9468258
          ],
          [
            72.8339092,
            18.9463184
          ],
          [
            72.8332522,
            18.9473299
          ],
          [
            72.8311627,
            18.9493411
          ],
          [
            72.8287889,
            18.9501951
          ],
          [
            72.8317535,
            18.9515445
          ],
          [
            72.8346687,
            18.9482461
          ],
          [
            72.831386,
            18.9501664
          ],
          [
            72.8292308,
            18.9496822
          ],
          [
            72.8285614,
            18.9499081
          ],
          [
            72.8288743,
            18.946747
          ],
          [
            72.8277439,
            18.9454949
          ],
          [
            72.8307703,
            18.9453321
          ],
          [
            72.8294742,
            18.9441124
          ],
          [
            72.8335184,
            18.9474013
          ],
          [
            72.8306483,
            18.9474523
          ],
          [
            72.8318371,
            18.9469505
          ],
          [
            72.8320855,
            18.9486161
          ],
          [
            72.8258682,
            18.9450258
          ],
          [
            72.8248966,
            18.9445786
          ],
          [
            72.8261215,
            18.9423307
          ],
          [
            72.8247399,
            18.9462977
          ],
          [
            72.8243529,
            18.9482142
          ],
          [
            72.8245805,
            18.9498257
          ],
          [
            72.8244263,
            18.9499753
          ],
          [
            72.8219454,
            18.9501967
          ],
          [
            72.821948,
            18.9508938
          ],
          [
            72.8218215,
            18.9538984
          ],
          [
            72.8212945,
            18.9537242
          ],
          [
            72.8199416,
            18.9544431
          ],
          [
            72.8173278,
            18.9547636
          ],
          [
            72.8173158,
            18.955848
          ],
          [
            72.8173278,
            18.9547636
          ],
          [
            72.8157033,
            18.9542363
          ],
          [
            72.8155538,
            18.9567596
          ],
          [
            72.8155538,
            18.9567596
          ],
          [
            72.8166212,
            18.9571528
          ],
          [
            72.816535,
            18.9571303
          ],
          [
            72.8189266,
            18.9578419
          ],
          [
            72.8162641,
            18.9581674
          ],
          [
            72.8167784,
            18.9593749
          ],
          [
            72.8159434,
            18.9602849
          ],
          [
            72.8159076,
            18.9592089
          ],
          [
            72.8158459,
            18.9615286
          ],
          [
            72.8199169,
            18.9618905
          ]
        ]
      }
    },
    {
      "type": "Feature",
      "properties": {
        "itinerary_id": 5,
        "n_segments": 63,
        "length_m": 3944.960587235623
      },
      "geometry": {
        "type": "LineString",
        "coordinates": [
          [
            72.8183317,
            18.9638346
          ],
          [
            72.818355,
            18.9638993
          ],
          [
            72.8186949,
            18.9639713
          ],
          [
            72.8200887,
            18.9644261
          ],
          [
            72.8225989,
            18.96545
          ],
          [
            72.8225989,
            18.96545
          ],
          [
            72.8213387,
            18.9667303
          ],
          [
            72.8191722,
            18.9676054
          ],
          [
            72.818355,
            18.9638993
          ],
          [
            72.8162448,
            18.968535
          ],
          [
            72.8160917,
            18.9692348
          ],
          [
            72.8164432,
            18.9694978
          ],
          [
            72.8163608,
            18.9693207
          ],
          [
            72.8163608,
            18.9693207
          ],
          [
            72.815103,
            18.9697602
          ],
          [
            72.8142002,
            18.9675913
          ],
          [
            72.8132774,
            18.9679869
          ],
          [
            72.8151014,
            18.9696213
          ],
          [
            72.8130796,
            18.9686988
          ],
          [
            72.8129431,
            18.9669707
          ],
          [
            72.8124427,
            18.9662037
          ],
          [
            72.8128803,
            18.9653931
          ],
          [
            72.8114793,
            18.9643272
          ],
          [
            72.8140004,
            18.9634977
          ],
          [
            72.8132328,
            18.9617465
          ],
          [
            72.8132743,
            18.9614887
          ],
          [
            72.8132352,
            18.9613672
          ],
          [
            72.8131754,
            18.9618435
          ],
          [
            72.8132743,
            18.9614887
          ],
          [
            72.8130773,
            18.9578597
          ],
          [
            72.8137363,
            18.9607403
          ],
          [
            72.8099159,
            18.9589844
          ],
          [
            72.8118312,
            18.9594919
          ],
          [
            72.8107214,
            18.9606359
          ],
          [
            72.8113405,
            18.9586824
          ],
          [
            72.8122267,
            18.9601461
          ],
          [
            72.8128455,
            18.9574069
          ],
          [
            72.8122616,
            18.9566176
          ],
          [
            72.8142843,
            18.957202
          ],
          [
            72.8155224,
            18.956857
          ],
          [
            72.8157033,
            18.9542363
          ],
          [
            72.8164876,
            18.9536583
          ],
          [
            72.8128446,
            18.9558471
          ],
          [
            72.8144738,
            18.9565
          ],
          [
            72.8079232,
            18.9553213
          ],
          [
            72.8125155,
            18.9557968
          ],
          [
            72.8122119,
            18.9565551
          ],
          [
            72.8078486,
            18.9554734
          ],
          [
            72.8072418,
            18.9563496
          ],
          [
            72.8079232,
            18.9553213
          ],
          [
            72.8074748,
            18.9640687
          ],
          [
            72.8074016,
            18.965302
          ],
          [
            72.8076649,
            18.9641897
          ],
          [
            72.8108857,
            18.9683844
          ],
          [
            72.8077731,
            18.9642004
          ],
          [
            72.8050756,
            18.9645555
          ],
          [
            72.8074612,
            18.9641537
          ],
          [
            72.8030648,
            18.9633678
          ],
          [
            72.8016451,
            18.9613233
          ],
          [
            72.7998356,
            18.9571798
          ],
          [
            72.7997953,
            18.9571148
          ],
          [
            72.7985305,
            18.9549559
          ],
          [
            72.7985648,
            18.9506941
          ],
          [
            72.798356,
            18.9488753
          ]
        ]
      }
    },
    {
      "type": "Feature",
      "properties": {
        "itinerary_id": 6,
        "n_segments": 31,
        "length_m": 4091.5574127040964
      },
      "geometry": {
        "type": "LineString",
        "coordinates": [
          [
            72.7995795,
            18.9498294
          ],
          [
            72.7985648,
            18.9506941
          ],
          [
            72.7983921,
            18.9488323
          ],
          [
            72.8026477,
            18.9526794
          ],
          [
            72.8037128,
            18.9560458
          ],
          [
            72.8048061,
            18.9577428
          ],
          [
            72.8035927,
            18.9570849
          ],
          [
            72.8049414,
            18.9554476
          ],
          [
            72.8048751,
            18.9553547
          ],
          [
            72.7974749,
            18.9478644
          ],
          [
            72.80425956666667,
            18.952592066666668
          ],
          [
            72.7958076,
            18.949125
          ],
          [
            72.7954434,
            18.949887
          ],
          [
            72.7956723,
            18.9502395
          ],
          [
            72.79698325,
            18.9450897
          ],
          [
            72.8033119,
            18.9613362
          ],
          [
            72.8053538,
            18.9675979
          ],
          [
            72.8050696,
            18.9646146
          ],
          [
            72.8056619,
            18.9738007
          ],
          [
            72.805154,
            18.9737771
          ],
          [
            72.8055739,
            18.9746684
          ],
          [
            72.8081796,
            18.9772297
          ],
          [
            72.8092138,
            18.9741713
          ],
          [
            72.810624,
            18.9760861
          ],
          [
            72.8091347,
            18.9740357
          ],
          [
            72.8097548,
            18.9732884
          ],
          [
            72.8075231,
            18.9647796
          ],
          [
            72.8091347,
            18.9740357
          ],
          [
            72.8110999,
            18.9779735
          ],
          [
            72.81473,
            18.9727086
          ],
          [
            72.8132719,
            18.9745494
          ],
          [
            72.8159397,
            18.9708525
          ]
        ]
      }
    },
    {
      "type": "Feature",
      "properties": {
        "itinerary_id": 7,
        "n_segments": 44,
        "length_m": 3128.7021485561327
      },
      "geometry": {
        "type": "LineString",
        "coordinates": [
          [
            72.8170139,
            18.9664435
          ],
          [
            72.8171554,
            18.9663921
          ],
          [
            72.8262091,
            18.9584477
          ],
          [
            72.8285058,
            18.9567097
          ],
          [
            72.8289437,
            18.9617536
          ],
          [
            72.8306588,
            18.9585984
          ],
          [
            72.8320457,
            18.958225
          ],
          [
            72.8302169,
            18.9600065
          ],
          [
            72.8316373,
            18.9593369
          ],
          [
            72.8272241,
            18.958024
          ],
          [
            72.8238068,
            18.9577086
          ],
          [
            72.8227415,
            18.9517654
          ],
          [
            72.8202304,
            18.9505948
          ],
          [
            72.8222886,
            18.9499677
          ],
          [
            72.8215211,
            18.9511969
          ],
          [
            72.8267692,
            18.9483828
          ],
          [
            72.8274588,
            18.9489399
          ],
          [
            72.828459,
            18.9517105
          ],
          [
            72.8280231,
            18.9511321
          ],
          [
            72.8290661,
            18.9433401
          ],
          [
            72.8293792,
            18.9439935
          ],
          [
            72.8274835,
            18.9443645
          ],
          [
            72.8283155,
            18.9430707
          ],
          [
            72.8266865,
            18.9440921
          ],
          [
            72.8280249,
            18.9332178
          ],
          [
            72.827991,
            18.9328702
          ],
          [
            72.8242466,
            18.9334773
          ],
          [
            72.8228492,
            18.9313078
          ],
          [
            72.8228391,
            18.9316202
          ],
          [
            72.8223783,
            18.9303526
          ],
          [
            72.8247306,
            18.9291381
          ],
          [
            72.8247573,
            18.9289546
          ],
          [
            72.8270885,
            18.926648
          ],
          [
            72.8271623,
            18.9266152
          ],
          [
            72.8258468,
            18.9256343
          ],
          [
            72.8230443,
            18.9288448
          ],
          [
            72.8217046,
            18.9275545
          ],
          [
            72.8212423,
            18.9285982
          ],
          [
            72.8229732,
            18.9259012
          ],
          [
            72.8258468,
            18.9256343
          ],
          [
            72.8253213,
            18.9255428
          ],
          [
            72.8230785,
            18.9258342
          ],
          [
            72.8280848,
            18.9275283
          ],
          [
            72.82972,
            18.926971
          ],
          [
            72.829771,
            18.9258869
          ]
        ]
      }
    },
    {
      "type": "Feature",
      "properties": {
        "itinerary_id": 8,
        "n_segments": 51,
        "length_m": 6389.764998097355
      },
      "geometry": {
        "type": "LineString",
        "coordinates": [
          [
            72.8319897,
            18.9255071
          ],
          [
            72.831713,
            18.9258063
          ],
          [
            72.8324314,
            18.9255752
          ],
          [
            72.832318,
            18.9250427
          ],
          [
            72.8319444,
            18.9253612
          ],
          [
            72.8330804,
            18.9230594
          ],
          [
            72.8316026,
            18.9229194
          ],
          [
            72.830834,
            18.9213737
          ],
          [
            72.8318368,
            18.9203617
          ],
          [
            72.8292354,
            18.9188736
          ],
          [
            72.8315273,
            18.9179309
          ],
          [
            72.8291055,
            18.9178403
          ],
          [
            72.8296598,
            18.9160575
          ],
          [
            72.8280202,
            18.9179766
          ],
          [
            72.8280004,
            18.9161904
          ],
          [
            72.8284824,
            18.9165904
          ],
          [
            72.8274538,
            18.9164434
          ],
          [
            72.8285473,
            18.9184505
          ],
          [
            72.8274672,
            18.9193
          ],
          [
            72.8290303,
            18.9168552
          ],
          [
            72.828134,
            18.9123516
          ],
          [
            72.8265573,
            18.9147239
          ],
          [
            72.8231394,
            18.9125965
          ],
          [
            72.8233653,
            18.912773
          ],
          [
            72.8226376,
            18.9128899
          ],
          [
            72.8231394,
            18.9125965
          ],
          [
            72.8215259,
            18.9117128
          ],
          [
            72.8211857,
            18.9119707
          ],
          [
            72.8188695,
            18.9110601
          ],
          [
            72.8209523,
            18.9098117
          ],
          [
            72.81863125000001,
            18.90859085
          ],
          [
            72.814658,
            18.906705
          ],
          [
            72.8147917,
            18.906658
          ],
          [
            72.8147079,
            18.9066022
          ],
          [
            72.8097112,
            18.9067701
          ],
          [
            72.8101613,
            18.9008099
          ],
          [
            72.8090436,
            18.9073167
          ],
          [
            72.8078569,
            18.904673
          ],
          [
            72.8068308,
            18.9071703
          ],
          [
            72.8073678,
            18.9067198
          ],
          [
            72.8075284,
            18.9072595
          ],
          [
            72.8093081,
            18.9048245
          ],
          [
            72.8081874,
            18.9038354
          ],
          [
            72.8115924,
            18.9003342
          ],
          [
            72.8058306,
            18.9048917
          ],
          [
            72.8113503,
            18.9054372
          ],
          [
            72.8084069,
            18.909625
          ],
          [
            72.808124,
            18.9128697
          ],
          [
            72.8078979,
            18.9135286
          ],
          [
            72.81106940000001,
            18.9118469
          ],
          [
            72.8142024,
            18.9083523
          ],
          [
            72.8141043,
            18.9090648
          ]
        ]
      }
    },
    {
      "type": "Feature",
      "properties": {
        "itinerary_id": 9,
        "n_segments": 30,
        "length_m": 3101.543373862444
      },
      "geometry": {
        "type": "LineString",
        "coordinates": [
          [
            72.8172147,
            18.9035929
          ],
          [
            72.8173419,
            18.904
          ],
          [
            72.8152191,
            18.9022389
          ],
          [
            72.811025,
            18.89722105
          ],
          [
            72.8116067,
            18.9002697
          ],
          [
            72.8105319,
            18.8993281
          ],
          [
            72.809295,
            18.8981303
          ],
          [
            72.8114904,
            18.896448
          ],
          [
            72.811961,
            18.89779
          ],
          [
            72.8138909,
            18.8979039
          ],
          [
            72.8129181,
            18.8975012
          ],
          [
            72.8162884,
            18.9119324
          ],
          [
            72.8170127,
            18.9124222
          ],
          [
            72.8201417,
            18.9114252
          ],
          [
            72.8216748,
            18.9142414
          ],
          [
            72.8239408,
            18.9149978
          ],
          [
            72.8254924,
            18.9189054
          ],
          [
            72.8238939,
            18.9125696
          ],
          [
            72.8231405,
            18.9133676
          ],
          [
            72.8190912,
            18.9163477
          ],
          [
            72.8191245,
            18.9146704
          ],
          [
            72.8174238,
            18.9159782
          ],
          [
            72.82405994999999,
            18.91766765
          ],
          [
            72.8269062,
            18.9257036
          ],
          [
            72.8281827,
            18.9284987
          ],
          [
            72.8276833,
            18.9285221
          ],
          [
            72.8273817,
            18.9319327
          ],
          [
            72.8247467,
            18.9308999
          ],
          [
            72.8244896,
            18.9304107
          ],
          [
            72.8277899,
            18.9326024
          ],
          [
            72.8286718,
            18.9362795
          ]
        ]
      }
    },
    {
      "type": "Feature",
      "properties": {
        "itinerary_id": 10,
        "n_segments": 23,
        "length_m": 2001.701468678642
      },
      "geometry": {
        "type": "LineString",
        "coordinates": [
          [
            72.8300416,
            18.9327529
          ],
          [
            72.830318,
            18.9344942
          ],
          [
            72.8300149,
            18.93263
          ],
          [
            72.8308331,
            18.9351518
          ],
          [
            72.8313453,
            18.9330252
          ],
          [
            72.8294349,
            18.9326993
          ],
          [
            72.827991,
            18.9328702
          ],
          [
            72.82029726666667,
            18.9435445
          ],
          [
            72.824304,
            18.936957
          ],
          [
            72.8241228,
            18.9352677
          ],
          [
            72.8256905,
            18.9367876
          ],
          [
            72.8305339,
            18.9363866
          ],
          [
            72.8307415,
            18.9352869
          ],
          [
            72.8290966,
            18.9432554
          ],
          [
            72.8234548,
            18.9438562
          ],
          [
            72.8052091,
            18.971088
          ],
          [
            72.8081796,
            18.9772297
          ],
          [
            72.8081123,
            18.9764396
          ],
          [
            72.8061164,
            18.9744195
          ],
          [
            72.8108226,
            18.9753853
          ],
          [
            72.8109917,
            18.9706395
          ],
          [
            72.8099211,
            18.9707278
          ],
          [
            72.8108857,
            18.9683844
          ],
          [
            72.8078077,
            18.9632803
          ]
        ]
      }
    },
    {
      "type": "Feature",
      "properties": {
        "itinerary_id": 11,
        "n_segments": 33,
        "length_m": 3801.74268650555
      },
      "geometry": {
        "type": "LineString",
        "coordinates": [
          [
            72.8075339,
            18.9667244
          ],
          [
            72.8062087,
            18.9674837
          ],
          [
            72.8065852,
            18.9688492
          ],
          [
            72.8112574,
            18.9619941
          ],
          [
            72.8201816,
            18.972347
          ],
          [
            72.8255036,
            18.9708083
          ],
          [
            72.8297777,
            18.9702341
          ],
          [
            72.8327074,
            18.9695854
          ],
          [
            72.8329819,
            18.9683503
          ],
          [
            72.8324858,
            18.9699661
          ],
          [
            72.8381522,
            18.9688117
          ],
          [
            72.8375902,
            18.9676394
          ],
          [
            72.8375246,
            18.9687749
          ],
          [
            72.8390943,
            18.9656031
          ],
          [
            72.8405278,
            18.9685741
          ],
          [
            72.8390966,
            18.965792
          ],
          [
            72.8401733,
            18.9643009
          ],
          [
            72.8391978,
            18.9645765
          ],
          [
            72.84141795,
            18.964255549999997
          ],
          [
            72.8445578,
            18.965469
          ],
          [
            72.8453427,
            18.964774
          ],
          [
            72.8453031,
            18.9655412
          ],
          [
            72.8453427,
            18.964774
          ],
          [
            72.8459076,
            18.9659437
          ],
          [
            72.8460429,
            18.9673524
          ],
          [
            72.8460947,
            18.9666847
          ],
          [
            72.8458202,
            18.9673826
          ],
          [
            72.8458489,
            18.9713736
          ],
          [
            72.8464108,
            18.972357
          ],
          [
            72.8475324,
            18.9785633
          ],
          [
            72.8452149,
            18.9767898
          ],
          [
            72.8448743,
            18.9762024
          ],
          [
            72.8449403,
            18.9778908
          ],
          [
            72.8452221,
            18.9720834
          ]
        ]
      }
    },
    {
      "type": "Feature",
      "properties": {
        "itinerary_id": 12,
        "n_segments": 45,
        "length_m": 6474.354557267132
      },
      "geometry": {
        "type": "LineString",
        "coordinates": [
          [
            72.8417481,
            18.9723361
          ],
          [
            72.838174,
            18.9683325
          ],
          [
            72.8421342,
            18.9706379
          ],
          [
            72.8416518,
            18.9700334
          ],
          [
            72.8433252,
            18.9697561
          ],
          [
            72.8424652,
            18.96974
          ],
          [
            72.8422837,
            18.9691899
          ],
          [
            72.8443189,
            18.9694828
          ],
          [
            72.8404661,
            18.9688193
          ],
          [
            72.8377026,
            18.9732058
          ],
          [
            72.8375812,
            18.9728631
          ],
          [
            72.8350011,
            18.9741982
          ],
          [
            72.8333513,
            18.9726569
          ],
          [
            72.8355926,
            18.9773229
          ],
          [
            72.8407765,
            18.9802645
          ],
          [
            72.8415873,
            18.9786018
          ],
          [
            72.8433647,
            18.9798424
          ],
          [
            72.8419347,
            18.97954
          ],
          [
            72.8417492,
            18.981547
          ],
          [
            72.8398193,
            18.9821263
          ],
          [
            72.8425362,
            18.983217
          ],
          [
            72.8452782,
            18.9884298
          ],
          [
            72.8443253,
            18.9758961
          ],
          [
            72.8448336,
            18.9943602
          ],
          [
            72.8445057,
            18.9927975
          ],
          [
            72.8440772,
            18.990525249999997
          ],
          [
            72.8389963,
            18.990751
          ],
          [
            72.8378305,
            18.9913711
          ],
          [
            72.8345051,
            18.9905168
          ],
          [
            72.8339253,
            18.9882646
          ],
          [
            72.8349122,
            18.9891286
          ],
          [
            72.82948575,
            18.98400205
          ],
          [
            72.83208620000002,
            18.9796551
          ],
          [
            72.829475,
            18.9885667
          ],
          [
            72.8293409,
            18.9924035
          ],
          [
            72.8313196,
            18.9953623
          ],
          [
            72.8312012,
            18.9980098
          ],
          [
            72.8309869,
            18.998078
          ],
          [
            72.8310756,
            19.000867
          ],
          [
            72.8306106,
            19.0002877
          ],
          [
            72.8310695,
            19.0049626
          ],
          [
            72.8328383,
            19.0088432
          ],
          [
            72.8308903,
            19.006215
          ],
          [
            72.8322493,
            19.0087398
          ],
          [
            72.8332775,
            19.0093083
          ],
          [
            72.834169,
            19.0088321
          ]
        ]
      }
    },
    {
      "type": "Feature",
      "properties": {
        "itinerary_id": 13,
        "n_segments": 43,
        "length_m": 5725.857421655229
      },
      "geometry": {
        "type": "LineString",
        "coordinates": [
          [
            72.8356862,
            19.0077292
          ],
          [
            72.8340615,
            19.008827
          ],
          [
            72.8374855,
            19.0146763
          ],
          [
            72.8332855,
            19.0127233
          ],
          [
            72.8314305,
            19.0124193
          ],
          [
            72.8338006,
            19.0134068
          ],
          [
            72.8328145,
            19.014485
          ],
          [
            72.8346983,
            19.0156328
          ],
          [
            72.8374599,
            19.0159285
          ],
          [
            72.8355669,
            19.0177596
          ],
          [
            72.8392696,
            19.0175506
          ],
          [
            72.840356,
            19.0188756
          ],
          [
            72.8403891,
            19.0196041
          ],
          [
            72.8411019,
            19.0203926
          ],
          [
            72.8422564,
            19.0187783
          ],
          [
            72.8404158,
            19.0194359
          ],
          [
            72.8399376,
            19.0185434
          ],
          [
            72.8365307,
            19.0190864
          ],
          [
            72.8363258,
            19.0175761
          ],
          [
            72.836279,
            19.0176236
          ],
          [
            72.8380555,
            19.0170238
          ],
          [
            72.84315,
            19.0201077
          ],
          [
            72.8410193,
            19.017158
          ],
          [
            72.8436731,
            19.0211173
          ],
          [
            72.8433751,
            19.0204086
          ],
          [
            72.85119510000001,
            19.0344441
          ],
          [
            72.8516373,
            19.0369396
          ],
          [
            72.8562816,
            19.0368106
          ],
          [
            72.8578253,
            19.0360415
          ],
          [
            72.8600111,
            19.0346035
          ],
          [
            72.8612896,
            19.0328404
          ],
          [
            72.8611199,
            19.0313139
          ],
          [
            72.8610528,
            19.0314826
          ],
          [
            72.8633172,
            19.0317132
          ],
          [
            72.8626089,
            19.0329906
          ],
          [
            72.8603571,
            19.0189834
          ],
          [
            72.8567343,
            19.0213629
          ],
          [
            72.8571466,
            19.0246664
          ],
          [
            72.856934,
            19.0256627
          ],
          [
            72.8516583,
            19.0281007
          ],
          [
            72.8534401,
            19.0290283
          ],
          [
            72.8561161,
            19.0295047
          ],
          [
            72.8534967,
            19.0312497
          ],
          [
            72.8534967,
            19.0312497
          ]
        ]
      }
    },
    {
      "type": "Feature",
      "properties": {
        "itinerary_id": 14,
        "n_segments": 46,
        "length_m": 5538.134182449118
      },
      "geometry": {
        "type": "LineString",
        "coordinates": [
          [
            72.8562524,
            19.0311098
          ],
          [
            72.854608,
            19.0308437
          ],
          [
            72.8566654,
            19.0304118
          ],
          [
            72.8568825,
            19.0303442
          ],
          [
            72.8561161,
            19.0295047
          ],
          [
            72.8575392,
            19.0302593
          ],
          [
            72.8515292,
            19.0278697
          ],
          [
            72.8519031,
            19.0259141
          ],
          [
            72.8509067,
            19.0267867
          ],
          [
            72.8507918,
            19.0251382
          ],
          [
            72.8500245,
            19.0229302
          ],
          [
            72.8498021,
            19.0231912
          ],
          [
            72.8500764,
            19.0249947
          ],
          [
            72.8469099,
            19.0184448
          ],
          [
            72.8455885,
            19.0192229
          ],
          [
            72.844289,
            19.020062
          ],
          [
            72.8438129,
            19.0203694
          ],
          [
            72.8469099,
            19.0184448
          ],
          [
            72.8468531,
            19.0183887
          ],
          [
            72.8445921,
            19.0173162
          ],
          [
            72.8452832,
            19.0182628
          ],
          [
            72.8447792,
            19.0163482
          ],
          [
            72.8410318,
            19.0135653
          ],
          [
            72.8416668,
            19.013308
          ],
          [
            72.8450145,
            19.0119917
          ],
          [
            72.8436319,
            19.008552
          ],
          [
            72.8462606,
            19.0058445
          ],
          [
            72.8484712,
            19.0072843
          ],
          [
            72.8478903,
            19.0074261
          ],
          [
            72.8476131,
            19.0107918
          ],
          [
            72.8465036,
            19.0128177
          ],
          [
            72.8513729,
            19.0154695
          ],
          [
            72.8534426,
            19.0163637
          ],
          [
            72.8487738,
            19.0171976
          ],
          [
            72.851424,
            19.0155149
          ],
          [
            72.8522919,
            19.0176054
          ],
          [
            72.8492572,
            19.0175248
          ],
          [
            72.8559021,
            19.0178551
          ],
          [
            72.8566442,
            19.018349
          ],
          [
            72.8558451,
            19.0187406
          ],
          [
            72.8558944,
            19.0187604
          ],
          [
            72.8539294,
            19.0180802
          ],
          [
            72.8537783,
            19.0174188
          ],
          [
            72.8528352,
            19.0188515
          ],
          [
            72.8530999,
            19.0243236
          ],
          [
            72.8526511,
            19.0236379
          ],
          [
            72.8563519,
            19.0195821
          ]
        ]
      }
    },
    {
      "type": "Feature",
      "properties": {
        "itinerary_id": 15,
        "n_segments": 48,
        "length_m": 6506.63412915307
      },
      "geometry": {
        "type": "LineString",
        "coordinates": [
          [
            72.8588252,
            19.0169058
          ],
          [
            72.8587135,
            19.0168118
          ],
          [
            72.8546038,
            19.0120491
          ],
          [
            72.8549632,
            19.0132926
          ],
          [
            72.8545247,
            19.0112603
          ],
          [
            72.8550803,
            19.0132365
          ],
          [
            72.8561997,
            19.0147929
          ],
          [
            72.8540217,
            19.0048292
          ],
          [
            72.8543896,
            19.0099106
          ],
          [
            72.8544552,
            19.0112742
          ],
          [
            72.8549,
            19.0112567
          ],
          [
            72.8538537,
            19.0005817
          ],
          [
            72.8538537,
            19.0005817
          ],
          [
            72.854301,
            19.0113046
          ],
          [
            72.8530457,
            19.0004742
          ],
          [
            72.8522047,
            18.9981852
          ],
          [
            72.8537219,
            19.0005832
          ],
          [
            72.8545912,
            18.9996974
          ],
          [
            72.8562394,
            19.0062577
          ],
          [
            72.858128,
            19.0016221
          ],
          [
            72.8598366,
            19.0010407
          ],
          [
            72.8568623,
            18.9987833
          ],
          [
            72.8557314,
            19.000717900000005
          ],
          [
            72.8607996,
            19.0086753
          ],
          [
            72.86935830000002,
            19.0109668
          ],
          [
            72.8670248,
            19.0159819
          ],
          [
            72.8637529,
            19.015109
          ],
          [
            72.8687598,
            19.0178862
          ],
          [
            72.8635394,
            19.0184329
          ],
          [
            72.863688,
            19.0184511
          ],
          [
            72.8637398,
            19.0183959
          ],
          [
            72.8623179,
            19.0188122
          ],
          [
            72.862062,
            19.0225763
          ],
          [
            72.8636932,
            19.0222672
          ],
          [
            72.8691513,
            19.0216396
          ],
          [
            72.8655363,
            19.0183676
          ],
          [
            72.87421470000001,
            19.0193964
          ],
          [
            72.8723708,
            19.0215343
          ],
          [
            72.8684572,
            19.02584
          ],
          [
            72.8710545,
            19.0307264
          ],
          [
            72.8698182,
            19.0260363
          ],
          [
            72.8694443,
            19.0289324
          ],
          [
            72.8693035,
            19.0278364
          ],
          [
            72.8702331,
            19.0281207
          ],
          [
            72.8681829,
            19.0291212
          ],
          [
            72.8681829,
            19.0291212
          ],
          [
            72.8671888,
            19.0277941
          ],
          [
            72.8674399,
            19.0265806
          ],
          [
            72.8707325,
            19.024085
          ]
        ]
      }
    },
    {
      "type": "Feature",
      "properties": {
        "itinerary_id": 16,
        "n_segments": 51,
        "length_m": 5652.0529620569405
      },
      "geometry": {
        "type": "LineString",
        "coordinates": [
          [
            72.8666811,
            19.029516
          ],
          [
            72.8632453,
            19.0294594
          ],
          [
            72.8664231,
            19.0302867
          ],
          [
            72.8683147,
            19.0367069
          ],
          [
            72.8668273,
            19.0295893
          ],
          [
            72.8664015,
            19.0328257
          ],
          [
            72.8660227,
            19.0323072
          ],
          [
            72.8631894,
            19.0313493
          ],
          [
            72.8667038,
            19.0296075
          ],
          [
            72.8624292,
            19.0273593
          ],
          [
            72.8613953,
            19.0270711
          ],
          [
            72.8625525,
            19.0251632
          ],
          [
            72.8620251,
            19.0235953
          ],
          [
            72.8693839,
            19.0328165
          ],
          [
            72.8678055,
            19.0360633
          ],
          [
            72.8670662,
            19.0382682
          ],
          [
            72.8659378,
            19.0372119
          ],
          [
            72.8635114,
            19.0341277
          ],
          [
            72.8670133,
            19.0396031
          ],
          [
            72.8636864,
            19.0375056
          ],
          [
            72.8656856,
            19.040919
          ],
          [
            72.861658,
            19.0366434
          ],
          [
            72.862845,
            19.0388524
          ],
          [
            72.8639666,
            19.0390269
          ],
          [
            72.8623232,
            19.0389832
          ],
          [
            72.8641383,
            19.0421849
          ],
          [
            72.8656856,
            19.040919
          ],
          [
            72.8637735,
            19.0420987
          ],
          [
            72.8642042,
            19.0427853
          ],
          [
            72.8636984,
            19.0455683
          ],
          [
            72.8644611,
            19.0445258
          ],
          [
            72.86476,
            19.0441955
          ],
          [
            72.8633023,
            19.0433797
          ],
          [
            72.8637649,
            19.0456379
          ],
          [
            72.8648592,
            19.0453352
          ],
          [
            72.868514,
            19.0485528
          ],
          [
            72.865155,
            19.0453029
          ],
          [
            72.8688584,
            19.0470585
          ],
          [
            72.8656856,
            19.040919
          ],
          [
            72.8647894,
            19.0447017
          ],
          [
            72.8666893,
            19.04015
          ],
          [
            72.86825,
            19.0397204
          ],
          [
            72.8688785,
            19.0389984
          ],
          [
            72.8688385,
            19.0384966
          ],
          [
            72.8721496,
            19.037116
          ],
          [
            72.8717941,
            19.040147
          ],
          [
            72.8737457,
            19.0379957
          ],
          [
            72.8730573,
            19.039741
          ],
          [
            72.8752475,
            19.0367359
          ],
          [
            72.8743136,
            19.0366358
          ],
          [
            72.8668239,
            19.0400485
          ],
          [
            72.8692646,
            19.0389947
          ]
        ]
      }
    },
    {
      "type": "Feature",
      "properties": {
        "itinerary_id": 17,
        "n_segments": 27,
        "length_m": 3030.49941293141
      },
      "geometry": {
        "type": "LineString",
        "coordinates": [
          [
            72.8701195,
            19.041284
          ],
          [
            72.8739426,
            19.0419827
          ],
          [
            72.871102,
            19.0424182
          ],
          [
            72.8720557,
            19.0429449
          ],
          [
            72.8681037,
            19.040811999999995
          ],
          [
            72.8722192,
            19.0439222
          ],
          [
            72.8723111,
            19.0419012
          ],
          [
            72.8617382,
            19.0425757
          ],
          [
            72.8659208,
            19.0488663
          ],
          [
            72.8662631,
            19.0470851
          ],
          [
            72.8515344,
            19.0359995
          ],
          [
            72.8505483,
            19.0378815
          ],
          [
            72.8498687,
            19.03863
          ],
          [
            72.8493847,
            19.0384933
          ],
          [
            72.8537802,
            19.0380397
          ],
          [
            72.8528537,
            19.04586495
          ],
          [
            72.8498202,
            19.0434436
          ],
          [
            72.8510985,
            19.0435596
          ],
          [
            72.8480554,
            19.0457797
          ],
          [
            72.8451549,
            19.0449391
          ],
          [
            72.8438401,
            19.0461585
          ],
          [
            72.8405289,
            19.0447437
          ],
          [
            72.8455637,
            19.0451594
          ],
          [
            72.8483849,
            19.0458286
          ],
          [
            72.8494658,
            19.045673
          ],
          [
            72.8537106,
            19.038101599999997
          ],
          [
            72.8485861,
            19.0436795
          ],
          [
            72.8485447,
            19.0436768
          ]
        ]
      }
    },
    {
      "type": "Feature",
      "properties": {
        "itinerary_id": 18,
        "n_segments": 21,
        "length_m": 1738.5220570090312
      },
      "geometry": {
        "type": "LineString",
        "coordinates": [
          [
            72.8602834,
            19.0432047
          ],
          [
            72.8621281,
            19.0468804
          ],
          [
            72.8598152,
            19.047965
          ],
          [
            72.8600205,
            19.0494461
          ],
          [
            72.8576052,
            19.0481458
          ],
          [
            72.8633666,
            19.0486246
          ],
          [
            72.86174310000001,
            19.0508524
          ],
          [
            72.861127,
            19.0499311
          ],
          [
            72.8622016,
            19.0501473
          ],
          [
            72.8607731,
            19.0514211
          ],
          [
            72.8563218,
            19.0452419
          ],
          [
            72.8478376,
            19.0351508
          ],
          [
            72.8463277,
            19.0364656
          ],
          [
            72.8462877,
            19.0379513
          ],
          [
            72.8450824,
            19.0395519
          ],
          [
            72.8422307,
            19.0332072
          ],
          [
            72.8426816,
            19.0209956
          ],
          [
            72.8419635,
            19.0212516
          ],
          [
            72.8394162,
            19.02165
          ],
          [
            72.8428116,
            19.0208053
          ],
          [
            72.8411019,
            19.0203926
          ],
          [
            72.8338979,
            19.0239119
          ]
        ]
      }
    },
    {
      "type": "Feature",
      "properties": {
        "itinerary_id": 19,
        "n_segments": 33,
        "length_m": 4527.347455143309
      },
      "geometry": {
        "type": "LineString",
        "coordinates": [
          [
            72.8288705,
            19.0116104
          ],
          [
            72.826185,
            19.012773
          ],
          [
            72.828797,
            19.0098441
          ],
          [
            72.8288705,
            19.0116104
          ],
          [
            72.8294082,
            19.019624
          ],
          [
            72.8392123,
            19.0058904
          ],
          [
            72.8392123,
            19.0058904
          ],
          [
            72.8436714,
            19.0053017
          ],
          [
            72.8418532,
            19.0069822
          ],
          [
            72.8459171,
            19.0058118
          ],
          [
            72.8436362,
            19.0020658
          ],
          [
            72.8419277,
            19.0035056
          ],
          [
            72.8402474,
            19.0004463
          ],
          [
            72.8396493,
            19.000525
          ],
          [
            72.8380278,
            19.0007381
          ],
          [
            72.8385188,
            18.9998314
          ],
          [
            72.8394372,
            18.9986066
          ],
          [
            72.8376269,
            18.9986251
          ],
          [
            72.8425372,
            18.9978797
          ],
          [
            72.840429,
            18.9980845
          ],
          [
            72.8418855,
            18.9995438
          ],
          [
            72.8436362,
            19.0020658
          ],
          [
            72.8463006,
            19.0057957
          ],
          [
            72.846305,
            18.9992467
          ],
          [
            72.8446949,
            18.9977406
          ],
          [
            72.8498542,
            19.0026028
          ],
          [
            72.8510043,
            18.998331
          ],
          [
            72.8522233,
            18.999245
          ],
          [
            72.8497369,
            18.9974391
          ],
          [
            72.84970045,
            18.992624749999997
          ],
          [
            72.8530457,
            19.0004742
          ],
          [
            72.8536338,
            18.9952967
          ],
          [
            72.851199,
            18.9907657
          ],
          [
            72.84837289999999,
            18.98463635
          ]
        ]
      }
    },
    {
      "type": "Feature",
      "properties": {
        "itinerary_id": 20,
        "n_segments": 11,
        "length_m": 1035.1105616658629
      },
      "geometry": {
        "type": "LineString",
        "coordinates": [
          [
            72.8532732,
            18.9952837
          ],
          [
            72.8553463,
            19.000099
          ],
          [
            72.8538501,
            19.0005129
          ],
          [
            72.8533707,
            19.0099746
          ],
          [
            72.8537218,
            19.0100743
          ],
          [
            72.8485367,
            19.0241905
          ],
          [
            72.851267,
            19.0286448
          ],
          [
            72.8732331,
            19.0177751
          ],
          [
            72.8730021,
            19.0178669
          ],
          [
            72.8701055,
            19.0312319
          ],
          [
            72.8701719,
            19.0316344
          ],
          [
            72.8599144,
            19.0104428
          ]
        ]
      }
    },
    {
      "type": "Feature",
      "properties": {
        "itinerary_id": 21,
        "n_segments": 24,
        "length_m": 3499.742181282093
      },
      "geometry": {
        "type": "LineString",
        "coordinates": [
          [
            72.8462975,
            18.9895061
          ],
          [
            72.8464661,
            18.9892948
          ],
          [
            72.8457883,
            18.9887963
          ],
          [
            72.8455065,
            18.9918447
          ],
          [
            72.8462242,
            18.9992404
          ],
          [
            72.8449854,
            18.9961394
          ],
          [
            72.8447134,
            18.9967315
          ],
          [
            72.8458692,
            18.9939527
          ],
          [
            72.8363472,
            18.992035
          ],
          [
            72.8367234,
            18.9953237
          ],
          [
            72.8365453,
            18.9954077
          ],
          [
            72.8353899,
            18.9941269
          ],
          [
            72.8362027,
            18.9941649
          ],
          [
            72.8370827,
            18.9949142
          ],
          [
            72.8374935,
            18.9939736
          ],
          [
            72.8369882,
            18.9941323
          ],
          [
            72.834768,
            18.9952023
          ],
          [
            72.8327444,
            18.9970201
          ],
          [
            72.8235943,
            19.0063596
          ],
          [
            72.831089,
            18.9979502
          ],
          [
            72.8261729,
            18.9958782
          ],
          [
            72.8310138,
            18.9999166
          ],
          [
            72.8275473,
            18.9981802
          ],
          [
            72.8254094,
            18.9941618
          ],
          [
            72.8204407,
            18.992898
          ]
        ]
      }
    },
    {
      "type": "Feature",
      "properties": {
        "itinerary_id": 22,
        "n_segments": 32,
        "length_m": 4054.2526079878794
      },
      "geometry": {
        "type": "LineString",
        "coordinates": [
          [
            72.8156582,
            19.0012966
          ],
          [
            72.8131948,
            19.0044294
          ],
          [
            72.81872915,
            19.00627015
          ],
          [
            72.8119064,
            18.9973375
          ],
          [
            72.8173426,
            18.998635
          ],
          [
            72.8169477,
            18.9985162
          ],
          [
            72.816708,
            19.0041037
          ],
          [
            72.819499,
            19.0094729
          ],
          [
            72.8189278,
            19.0142021
          ],
          [
            72.820324,
            19.0120888
          ],
          [
            72.8175705,
            19.0168384
          ],
          [
            72.8175767,
            19.0147684
          ],
          [
            72.8170504,
            19.0152278
          ],
          [
            72.81539185,
            19.01002375
          ],
          [
            72.8171797,
            19.0150533
          ],
          [
            72.817557,
            19.0178983
          ],
          [
            72.8171249,
            19.0192853
          ],
          [
            72.8192221,
            19.0183428
          ],
          [
            72.817558,
            19.0168845
          ],
          [
            72.8193279,
            19.0181319
          ],
          [
            72.8196656,
            19.0159134
          ],
          [
            72.8206869,
            19.0161814
          ],
          [
            72.8191821,
            19.0162519
          ],
          [
            72.817081,
            19.0213889
          ],
          [
            72.8177687,
            19.0117961
          ],
          [
            72.8189822,
            19.0126602
          ],
          [
            72.8151226,
            19.0098286
          ],
          [
            72.8157594,
            19.0014323
          ],
          [
            72.8128073,
            19.0026133
          ],
          [
            72.8133291,
            19.0004137
          ],
          [
            72.8133291,
            19.0004137
          ],
          [
            72.8153297,
            18.9899044
          ],
          [
            72.8165569,
            18.989862
          ]
        ]
      }
    },
    {
      "type": "Feature",
      "properties": {
        "itinerary_id": 23,
        "n_segments": 21,
        "length_m": 2727.8758614792537
      },
      "geometry": {
        "type": "LineString",
        "coordinates": [
          [
            72.8148225,
            18.9879434
          ],
          [
            72.8148943,
            18.9879608
          ],
          [
            72.8140153,
            18.9906255
          ],
          [
            72.8143699,
            18.99308
          ],
          [
            72.8131948,
            19.0044294
          ],
          [
            72.8149787,
            18.980827
          ],
          [
            72.814763,
            18.981192
          ],
          [
            72.8156445,
            18.97877045
          ],
          [
            72.8219095,
            18.9803545
          ],
          [
            72.8286669,
            18.98227
          ],
          [
            72.8237987,
            18.9824892
          ],
          [
            72.8363928,
            18.9804411
          ],
          [
            72.8407765,
            18.9802645
          ],
          [
            72.8347477,
            18.9835672
          ],
          [
            72.8409672,
            18.9843405
          ],
          [
            72.8426585,
            18.9785668
          ],
          [
            72.8439143,
            18.9773151
          ],
          [
            72.8459422,
            18.9697291
          ],
          [
            72.8454846,
            18.9698957
          ],
          [
            72.84589,
            18.9605326
          ],
          [
            72.8463027,
            18.9624639
          ],
          [
            72.8428125,
            18.9577964
          ]
        ]
      }
    },
    {
      "type": "Feature",
      "properties": {
        "itinerary_id": 24,
        "n_segments": 53,
        "length_m": 4237.345959851415
      },
      "geometry": {
        "type": "LineString",
        "coordinates": [
          [
            72.842575,
            18.9573813
          ],
          [
            72.8426924,
            18.9573486
          ],
          [
            72.8432445,
            18.9601312
          ],
          [
            72.8363958,
            18.9583243
          ],
          [
            72.8353253,
            18.9580154
          ],
          [
            72.8352489,
            18.9591398
          ],
          [
            72.8359724,
            18.9576175
          ],
          [
            72.8357378,
            18.9566952
          ],
          [
            72.8327132,
            18.9589995
          ],
          [
            72.8285243,
            18.9565491
          ],
          [
            72.8335549,
            18.9620934
          ],
          [
            72.8343831,
            18.9608319
          ],
          [
            72.8353265,
            18.9612324
          ],
          [
            72.8377273,
            18.962563
          ],
          [
            72.837729,
            18.9633144
          ],
          [
            72.8360899,
            18.9619226
          ],
          [
            72.832471,
            18.9609502
          ],
          [
            72.8329878,
            18.9591456
          ],
          [
            72.839173,
            18.9581939
          ],
          [
            72.8387842,
            18.9609229
          ],
          [
            72.8412525,
            18.951571
          ],
          [
            72.8379803,
            18.9382417
          ],
          [
            72.840449,
            18.9487993
          ],
          [
            72.8369542,
            18.9384195
          ],
          [
            72.8359405,
            18.938479
          ],
          [
            72.8358909,
            18.9385609
          ],
          [
            72.8346296,
            18.938707
          ],
          [
            72.8338725,
            18.9364086
          ],
          [
            72.8345647,
            18.9363331
          ],
          [
            72.8354189,
            18.9363804
          ],
          [
            72.8363933,
            18.9374543
          ],
          [
            72.8345842,
            18.9381346
          ],
          [
            72.8357064,
            18.9385311
          ],
          [
            72.8331686,
            18.9350773
          ],
          [
            72.8320112,
            18.930412
          ],
          [
            72.8320712,
            18.9301448
          ],
          [
            72.8329748,
            18.9282805
          ],
          [
            72.8332564,
            18.932203
          ],
          [
            72.8333581,
            18.9321973
          ],
          [
            72.8343893,
            18.9321421
          ],
          [
            72.8326302,
            18.9322701
          ],
          [
            72.8317164,
            18.931634
          ],
          [
            72.8339688,
            18.9284615
          ],
          [
            72.8354249,
            18.930486
          ],
          [
            72.8333581,
            18.9321973
          ],
          [
            72.8346774,
            18.9339812
          ],
          [
            72.8350861,
            18.9325121
          ],
          [
            72.8354926,
            18.9304466
          ],
          [
            72.8355093,
            18.931553
          ],
          [
            72.8357543,
            18.9323111
          ],
          [
            72.8360457,
            18.932699
          ],
          [
            72.836859,
            18.9335796
          ],
          [
            72.8357691,
            18.9321302
          ],
          [
            72.8363496,
            18.9349288
          ]
        ]
      }
    },
    {
      "type": "Feature",
      "properties": {
        "itinerary_id": 25,
        "n_segments": 18,
        "length_m": 1613.3501487721717
      },
      "geometry": {
        "type": "LineString",
        "coordinates": [
          [
            72.8369626,
            18.9353063
          ],
          [
            72.8353769,
            18.9352758
          ],
          [
            72.8357691,
            18.9347133
          ],
          [
            72.837098,
            18.9344956
          ],
          [
            72.8346774,
            18.9339812
          ],
          [
            72.8350755,
            18.9383664
          ],
          [
            72.834993,
            18.9300026
          ],
          [
            72.8347483,
            18.930184
          ],
          [
            72.8401729,
            18.9339126
          ],
          [
            72.8420925,
            18.9348829
          ],
          [
            72.8378417,
            18.9376596
          ],
          [
            72.8327065,
            18.944611
          ],
          [
            72.8336129,
            18.9467383
          ],
          [
            72.8318787,
            18.9277931
          ],
          [
            72.8338854,
            18.9289952
          ],
          [
            72.8313773,
            18.9301708
          ],
          [
            72.8205981,
            18.9263589
          ],
          [
            72.8264969,
            18.9516181
          ],
          [
            72.8320952,
            18.9646351
          ]
        ]
      }
    },
    {
      "type": "Feature",
      "properties": {
        "itinerary_id": 26,
        "n_segments": 6,
        "length_m": 389.2888068260034
      },
      "geometry": {
        "type": "LineString",
        "coordinates": [
          [
            72.8372325,
            18.9963345
          ],
          [
            72.8371823,
            18.9964016
          ],
          [
            72.8379699,
            19.0063566
          ],
          [
            72.8406056,
            19.0011241
          ],
          [
            72.829022,
            19.0012728
          ],
          [
            72.8293708,
            19.0090309
          ],
          [
            72.8297935,
            19.0084688
          ]
        ]
      }
    },
    {
      "type": "Feature",
      "properties": {
        "itinerary_id": 27,
        "n_segments": 4,
        "length_m": 1010.3039052465406
      },
      "geometry": {
        "type": "LineString",
        "coordinates": [
          [
            72.8138175,
            18.986815
          ],
          [
            72.8137452,
            18.9873016
          ],
          [
            72.8576273,
            18.9808644
          ],
          [
            72.8591203,
            18.9806471
          ],
          [
            72.8585546,
            18.9815708
          ]
        ]
      }
    }
  ]
}