{
"type": "FeatureCollection",
"name": "itineraries",
"crs": { "type": "name", "properties": { "name": "urn:ogc:def:crs:OGC:1.3:CRS84" } },
"features": [
{ "type": "Feature", "properties": { "itinerary_id": 1 }, "geometry": { "type": "LineString", "coordinates": [ [ 77.26662995, 28.66633775 ], [ 77.2620377, 28.66752845 ], [ 77.2663675, 28.66156375 ], [ 77.27089805, 28.6610559 ], [ 77.27269355, 28.6619393 ], [ 77.27316395, 28.65656885 ], [ 77.26598945, 28.65805475 ], [ 77.2685008, 28.65387525 ], [ 77.26956135, 28.64609065 ], [ 77.2709259, 28.648677 ], [ 77.2719878, 28.6434007 ], [ 77.27421495, 28.63826115 ], [ 77.2745951, 28.63557135 ], [ 77.2720438, 28.6323251 ], [ 77.2816913, 28.6255769 ], [ 77.282794450000011, 28.62689065 ], [ 77.2850013, 28.62810395 ], [ 77.28316865, 28.63044805 ], [ 77.28864785, 28.6336064 ], [ 77.299345, 28.6400266 ], [ 77.29887745, 28.6427334 ], [ 77.30057505, 28.64780235 ], [ 77.30425995, 28.64865375 ], [ 77.302466, 28.64986195 ], [ 77.3110244, 28.65059575 ], [ 77.3140579, 28.65466105 ] ] } },
{ "type": "Feature", "properties": { "itinerary_id": 2 }, "geometry": { "type": "LineString", "coordinates": [ [ 77.30748795, 28.65890075 ], [ 77.3061593, 28.65939845 ], [ 77.30787815, 28.6624613 ], [ 77.3090081, 28.6634362 ], [ 77.31743525, 28.6607536 ], [ 77.3166355, 28.66308145 ], [ 77.31960425, 28.66635105 ], [ 77.318900649999989, 28.66664295 ], [ 77.3199923, 28.6671033 ], [ 77.31634695, 28.6674375 ], [ 77.3155409, 28.6687049 ], [ 77.31215515, 28.6662568 ], [ 77.29444225, 28.66486975 ], [ 77.29249445, 28.664273 ], [ 77.28903935, 28.66753295 ], [ 77.28663845, 28.66418845 ], [ 77.28625225, 28.65843125 ], [ 77.28491155, 28.655036 ], [ 77.28455305, 28.6528453 ], [ 77.28524785, 28.6474048 ], [ 77.28990245, 28.6549274 ], [ 77.29079115, 28.65677905 ], [ 77.2948362, 28.65286165 ], [ 77.295083, 28.65170315 ], [ 77.29219245, 28.65940185 ], [ 77.2787385, 28.66458905 ], [ 77.27848125, 28.66301345 ] ] } },
{ "type": "Feature", "properties": { "itinerary_id": 3 }, "geometry": { "type": "LineString", "coordinates": [ [ 77.28029755, 28.67319635 ], [ 77.2738845, 28.67192345 ], [ 77.27253540000001, 28.68410155 ], [ 77.2735585, 28.68698755 ], [ 77.2732934, 28.6936642 ], [ 77.2734238, 28.69522515 ], [ 77.273511899999988, 28.6960134 ], [ 77.265017199999988, 28.6908872 ], [ 77.26157055, 28.69109705 ], [ 77.26116145, 28.69273465 ], [ 77.2635794, 28.69435165 ], [ 77.2564856, 28.69601775 ], [ 77.25864285, 28.69919555 ], [ 77.2545919, 28.69057155 ], [ 77.2575812, 28.6876742 ], [ 77.25680275, 28.68611775 ], [ 77.25643685, 28.6848129 ], [ 77.2597919, 28.68740645 ], [ 77.2504185, 28.7034859 ], [ 77.2555467, 28.70700375 ] ] } },
{ "type": "Feature", "properties": { "itinerary_id": 4 }, "geometry": { "type": "LineString", "coordinates": [ [ 77.26331455, 28.70716135 ], [ 77.2650419, 28.70393395 ], [ 77.26520985, 28.70437405 ], [ 77.267043199999989, 28.7037306 ], [ 77.2627927, 28.70362145 ], [ 77.2717729, 28.70705195 ], [ 77.27680055, 28.70973355 ], [ 77.28240495, 28.7137686 ], [ 77.28501745, 28.71881855 ], [ 77.2868035, 28.72025285 ], [ 77.28731755, 28.7236635 ], [ 77.28240295, 28.7282627 ], [ 77.28042185000001, 28.72897055 ], [ 77.2795853, 28.7251707 ], [ 77.2755809, 28.71942425 ], [ 77.27103155, 28.72536875 ], [ 77.26852685, 28.7258785 ], [ 77.26785385, 28.72874535 ], [ 77.263900650000011, 28.7288236 ], [ 77.2624731, 28.73032545 ], [ 77.2623709, 28.73292075 ], [ 77.27315115, 28.7339616 ], [ 77.2663013, 28.7222103 ], [ 77.2587025, 28.70485595 ] ] } },
{ "type": "Feature", "properties": { "itinerary_id": 5 }, "geometry": { "type": "LineString", "coordinates": [ [ 77.28517695, 28.70408035 ], [ 77.289913, 28.70625835 ], [ 77.2874041, 28.7095847 ], [ 77.30575185, 28.70108135 ], [ 77.30207535, 28.6963245 ], [ 77.305124549999988, 28.69090995 ], [ 77.3086903, 28.69164785 ], [ 77.311412850000011, 28.68216275 ], [ 77.31562635, 28.6848782 ], [ 77.32462475, 28.6902235 ], [ 77.3285384, 28.6871035 ], [ 77.32439525, 28.69443105 ], [ 77.3070523, 28.67555405 ] ] } },
{ "type": "Feature", "properties": { "itinerary_id": 6 }, "geometry": { "type": "LineString", "coordinates": [ [ 77.29279045, 28.6752607 ], [ 77.2931942, 28.67957665 ], [ 77.29863435, 28.6791377 ], [ 77.2881018, 28.6832348 ], [ 77.28672355, 28.68245745 ], [ 77.285007650000011, 28.6805204 ], [ 77.28217985, 28.68089845 ], [ 77.279896400000013, 28.6796653 ], [ 77.2834692, 28.68650325 ], [ 77.25202045, 28.6726447 ], [ 77.22435265, 28.66385745 ], [ 77.21552685, 28.66268935 ], [ 77.21212585, 28.6622201 ], [ 77.2109785, 28.66060455 ], [ 77.207123599999989, 28.6631739 ], [ 77.20712595, 28.6727788 ] ] } },
{ "type": "Feature", "properties": { "itinerary_id": 7 }, "geometry": { "type": "LineString", "coordinates": [ [ 77.19607265, 28.68166525 ], [ 77.1942408, 28.6780507 ], [ 77.1997174, 28.68873585 ], [ 77.206164, 28.68695705 ], [ 77.19631185, 28.69314225 ], [ 77.1803942, 28.708432 ], [ 77.1810938, 28.7087832 ], [ 77.17852755, 28.7119096 ], [ 77.1783081, 28.71454895 ], [ 77.1693833, 28.7219664 ], [ 77.16716095000001, 28.7281154 ], [ 77.16711275, 28.73113155 ], [ 77.1633407, 28.7257057 ], [ 77.1572615, 28.7238122 ], [ 77.1593123, 28.71814785 ], [ 77.15714255, 28.71457565 ] ] } },
{ "type": "Feature", "properties": { "itinerary_id": 8 }, "geometry": { "type": "LineString", "coordinates": [ [ 77.1658823, 28.7052816 ], [ 77.16961475, 28.699311 ], [ 77.1697447, 28.69224025 ], [ 77.1765499, 28.69111365 ], [ 77.18280465, 28.69256595 ], [ 77.17609305, 28.7003155 ], [ 77.174251, 28.68862655 ], [ 77.1692436, 28.68656225 ], [ 77.1702669, 28.67825005 ], [ 77.174779, 28.67928915 ], [ 77.1642443, 28.67388 ], [ 77.16185015, 28.67227015 ], [ 77.15962585, 28.67481095 ], [ 77.155241600000011, 28.6747463 ], [ 77.1511884, 28.68073455 ], [ 77.14503025, 28.68370055 ], [ 77.1414942, 28.67733155 ], [ 77.133824049999987, 28.67294485 ], [ 77.1321822, 28.67209495 ] ] } },
{ "type": "Feature", "properties": { "itinerary_id": 9 }, "geometry": { "type": "LineString", "coordinates": [ [ 77.1248864, 28.6711061 ], [ 77.11379005, 28.66484005 ], [ 77.11107105, 28.661976 ], [ 77.1031081, 28.6628387 ], [ 77.1011605, 28.65746415 ], [ 77.09695625, 28.65376535 ], [ 77.09964725, 28.64892505 ], [ 77.10545095, 28.64938925 ], [ 77.10438725, 28.64271585 ], [ 77.1017468, 28.64014645 ], [ 77.09732895, 28.6378841 ], [ 77.09757335, 28.63590075 ], [ 77.09941505, 28.63563065 ], [ 77.0998573, 28.63369415 ], [ 77.09552255, 28.6266378 ], [ 77.08832045, 28.63241115 ], [ 77.0870212, 28.63473615 ], [ 77.0818682, 28.6337777 ], [ 77.07804695, 28.63011445 ], [ 77.06571765, 28.6247978 ], [ 77.06581745, 28.62301835 ], [ 77.06750165, 28.6230375 ], [ 77.06913355, 28.6263845 ] ] } },
{ "type": "Feature", "properties": { "itinerary_id": 10 }, "geometry": { "type": "LineString", "coordinates": [ [ 77.06181655, 28.6346412 ], [ 77.05904295, 28.6438082 ], [ 77.0591539, 28.6474581 ], [ 77.06364635, 28.65318315 ], [ 77.0674853, 28.6520868 ], [ 77.05858215, 28.66311375 ], [ 77.05647195, 28.6588788 ], [ 77.0564675, 28.658566 ], [ 77.0520294, 28.66379055 ], [ 77.06194795, 28.6692244 ], [ 77.07207145000001, 28.67529665 ], [ 77.07850205, 28.6782172 ], [ 77.07970885, 28.67019735 ], [ 77.0835158, 28.66867905 ], [ 77.0849415, 28.66946235 ], [ 77.08589845, 28.66888385 ], [ 77.0932507, 28.6659114 ], [ 77.0913508, 28.65998675 ], [ 77.08960795, 28.65512915 ], [ 77.0897443, 28.6483687 ], [ 77.0892831, 28.6447342 ], [ 77.0891744, 28.643603 ] ] } },
{ "type": "Feature", "properties": { "itinerary_id": 11 }, "geometry": { "type": "LineString", "coordinates": [ [ 77.0956003, 28.6444772 ], [ 77.0983587, 28.6444298 ], [ 77.11164435, 28.6317557 ], [ 77.11467175, 28.6355319 ], [ 77.11564475, 28.62181625 ], [ 77.102798549999989, 28.6048293 ], [ 77.09726905, 28.592358 ], [ 77.0960427, 28.5904067 ], [ 77.0952858, 28.5904197 ], [ 77.09007885, 28.58467135 ], [ 77.0885409, 28.58195985 ], [ 77.0854201, 28.5934944 ], [ 77.08884735, 28.5934025 ], [ 77.08286105, 28.5981372 ], [ 77.07676935, 28.60079035 ], [ 77.07693125, 28.6042279 ], [ 77.0784428, 28.604065 ], [ 77.0836779, 28.60456945 ] ] } },
{ "type": "Feature", "properties": { "itinerary_id": 12 }, "geometry": { "type": "LineString", "coordinates": [ [ 77.0838436, 28.6111723 ], [ 77.07224285, 28.61043115 ], [ 77.07064345, 28.6124979 ], [ 77.06688615, 28.61234585 ], [ 77.06699695, 28.6158955 ], [ 77.0725913, 28.6148824 ], [ 77.06674965, 28.60670725 ], [ 77.05576925, 28.60738695 ], [ 77.05618365, 28.6137912 ], [ 77.0571095, 28.6142351 ], [ 77.05308475, 28.6169511 ], [ 77.0508133, 28.61821885 ], [ 77.05308175, 28.622493 ], [ 77.05384995, 28.62235675 ], [ 77.048913, 28.62765085 ], [ 77.047523, 28.6268912 ], [ 77.03413225, 28.62152785 ], [ 77.0335851, 28.62112845 ], [ 77.03390635, 28.6203323 ], [ 77.03431125, 28.6193752 ], [ 77.0301092, 28.618166 ], [ 77.02619825, 28.61604555 ], [ 77.023434, 28.61683265 ], [ 77.0301336, 28.6217297 ], [ 77.02990395, 28.62780045 ], [ 77.03059185, 28.6313836 ] ] } },
{ "type": "Feature", "properties": { "itinerary_id": 13 }, "geometry": { "type": "LineString", "coordinates": [ [ 77.03139005, 28.63665365 ], [ 77.03451285, 28.63536225 ], [ 77.03839245, 28.6423937 ], [ 77.05379445, 28.64422425 ], [ 77.03544785, 28.6501108 ], [ 77.0348263, 28.65847615 ], [ 77.04066785, 28.66060225 ], [ 77.025664, 28.6513952 ], [ 77.01897405, 28.63596445 ], [ 77.01619085, 28.63469955 ], [ 77.02173695, 28.6324437 ], [ 77.0107798, 28.6334119 ], [ 77.0049669, 28.626019 ], [ 76.99691965, 28.6321947 ] ] } },
{ "type": "Feature", "properties": { "itinerary_id": 14 }, "geometry": { "type": "LineString", "coordinates": [ [ 76.9953734, 28.62572695 ], [ 76.9870847, 28.61314405 ], [ 76.9887283, 28.6135067 ], [ 76.98320105, 28.6078311 ], [ 76.98983995, 28.60287875 ], [ 76.9988661, 28.6028183 ], [ 77.0044576, 28.60022085 ], [ 77.00521165, 28.5959957 ], [ 76.9966899, 28.5928498 ], [ 76.9958053, 28.59297945 ], [ 76.98481535, 28.591695 ], [ 76.97704125, 28.589148 ], [ 76.9794485, 28.5864616 ], [ 76.9797665, 28.59492215 ], [ 76.966620049999989, 28.6050763 ], [ 76.96385475, 28.6068856 ], [ 76.9693895, 28.61173945 ], [ 76.9692388, 28.6143759 ] ] } },
{ "type": "Feature", "properties": { "itinerary_id": 15 }, "geometry": { "type": "LineString", "coordinates": [ [ 76.950423050000012, 28.6267044 ], [ 76.94240695, 28.6251082 ], [ 76.96190055, 28.62749465 ], [ 76.96276725, 28.62788505 ], [ 76.97148315, 28.631073 ], [ 76.973689900000011, 28.6312933 ], [ 76.9516285, 28.65589835 ], [ 76.9422784, 28.66515045 ], [ 76.94316405, 28.66558535 ], [ 76.97845095, 28.6659962 ] ] } },
{ "type": "Feature", "properties": { "itinerary_id": 16 }, "geometry": { "type": "LineString", "coordinates": [ [ 76.9741251, 28.68218865 ], [ 76.974736900000011, 28.6811067 ], [ 76.962777100000011, 28.6900399 ], [ 76.9694274, 28.6938473 ], [ 76.9740252, 28.70502365 ], [ 76.98882025, 28.7044252 ], [ 76.99121795, 28.6992574 ], [ 76.99009435, 28.6997031 ], [ 76.99936125, 28.6963457 ], [ 76.99793755, 28.69384 ], [ 77.02755275, 28.68941415 ], [ 77.0264042, 28.6872105 ], [ 77.0322718, 28.69911395 ] ] } },
{ "type": "Feature", "properties": { "itinerary_id": 17 }, "geometry": { "type": "LineString", "coordinates": [ [ 77.03762, 28.69864495 ], [ 77.044107, 28.7030535 ], [ 77.0395027, 28.70593965 ], [ 77.03848175, 28.7092539 ], [ 77.0360527, 28.70956855 ], [ 77.0364161, 28.70947035 ], [ 77.03068065, 28.70975365 ], [ 77.028730700000011, 28.7130185 ], [ 77.02885885, 28.72783865 ], [ 77.02598065, 28.72720745 ], [ 77.0311242, 28.7292736 ], [ 77.0303845, 28.73447755 ], [ 77.028452, 28.73768115 ], [ 77.04389055, 28.72821905 ], [ 77.04252485, 28.72150685 ], [ 77.0504186, 28.720694 ], [ 77.04909445, 28.72676815 ], [ 77.05350345, 28.73454735 ], [ 77.05566685, 28.74018685 ], [ 77.0543396, 28.74193385 ], [ 77.05564965, 28.74563155 ], [ 77.05816585, 28.745913 ], [ 77.06118355000001, 28.75261845 ] ] } },
{ "type": "Feature", "properties": { "itinerary_id": 18 }, "geometry": { "type": "LineString", "coordinates": [ [ 77.06349265, 28.7536699 ], [ 77.0649491, 28.7563641 ], [ 77.07765815, 28.75115105 ], [ 77.0774573, 28.74638865 ], [ 77.0761098, 28.7587243 ], [ 77.07708615, 28.759646 ], [ 77.07601125, 28.7720022 ], [ 77.08672295, 28.77425305 ], [ 77.1001488, 28.77304225 ], [ 77.1000187, 28.77285505 ], [ 77.09907615, 28.77109395 ], [ 77.08943905000001, 28.7807443 ], [ 77.0858706, 28.79201415 ] ] } },
{ "type": "Feature", "properties": { "itinerary_id": 19 }, "geometry": { "type": "LineString", "coordinates": [ [ 77.09669365, 28.8154355 ], [ 77.0751482, 28.81243155 ], [ 77.07297695, 28.81383815 ], [ 77.0729012, 28.8169808 ], [ 77.08265245, 28.82224565 ], [ 77.07868005, 28.8389531 ], [ 77.07876315, 28.8404988 ], [ 77.0796473, 28.8414433 ], [ 77.0842987, 28.843108 ], [ 77.08250515, 28.84599055 ], [ 77.07907635, 28.85244415 ], [ 77.07507515, 28.8548125 ], [ 77.0720861, 28.8522524 ], [ 77.08695895, 28.8542565 ], [ 77.0902806, 28.8543052 ] ] } },
{ "type": "Feature", "properties": { "itinerary_id": 20 }, "geometry": { "type": "LineString", "coordinates": [ [ 77.0942261, 28.85252575 ], [ 77.0937438, 28.8505167 ], [ 77.10012275, 28.85417375 ], [ 77.10336975, 28.85373365 ], [ 77.1023521, 28.85684265 ], [ 77.095139499999988, 28.86151075 ], [ 77.1012475, 28.84241035 ], [ 77.1074412, 28.8333458 ], [ 77.1103608, 28.8303002 ], [ 77.11780205, 28.8189325 ], [ 77.1208799, 28.8363984 ], [ 77.1346998, 28.8251083 ], [ 77.1351985, 28.82337055 ], [ 77.1398155, 28.81355885 ] ] } },
{ "type": "Feature", "properties": { "itinerary_id": 21 }, "geometry": { "type": "LineString", "coordinates": [ [ 77.13157715, 28.79945555 ], [ 77.1308941, 28.79857195 ], [ 77.1314274, 28.79838 ], [ 77.11375845, 28.78552755 ], [ 77.12024375, 28.7726038 ], [ 77.1322054, 28.7565096 ], [ 77.13579405, 28.76075285 ], [ 77.14338125, 28.74714795 ], [ 77.13689625, 28.74398275 ], [ 77.1400251, 28.74282375 ], [ 77.14503875, 28.73103855 ] ] } },
{ "type": "Feature", "properties": { "itinerary_id": 22 }, "geometry": { "type": "LineString", "coordinates": [ [ 77.1374912, 28.7302527 ], [ 77.13008395, 28.7273233 ], [ 77.12689985, 28.7321639 ], [ 77.1255678, 28.7344895 ], [ 77.1302466, 28.7397272 ], [ 77.13037485000001, 28.74027785 ], [ 77.11331435, 28.7459981 ], [ 77.1137254, 28.74235895 ], [ 77.11022315, 28.7440341 ], [ 77.09070675, 28.74471335 ], [ 77.0907459, 28.74277345 ], [ 77.09503185, 28.73703265 ], [ 77.09494175, 28.7269259 ], [ 77.0917832, 28.72258585 ], [ 77.088555750000012, 28.7205613 ], [ 77.09580005, 28.71973465 ], [ 77.081512, 28.7211608 ], [ 77.08508335, 28.72156865 ], [ 77.07723325, 28.7176453 ], [ 77.07816185, 28.71713155 ] ] } },
{ "type": "Feature", "properties": { "itinerary_id": 23 }, "geometry": { "type": "LineString", "coordinates": [ [ 77.0758564, 28.71132815 ], [ 77.0788556, 28.71024405 ], [ 77.0849995, 28.71009055 ], [ 77.0871815, 28.7095919 ], [ 77.08644855, 28.70426015 ], [ 77.08553595, 28.70259885 ], [ 77.08407065, 28.7034631 ], [ 77.08458835, 28.69841825 ], [ 77.08008455, 28.6957834 ], [ 77.0790133, 28.6876525 ], [ 77.0724348, 28.6905903 ], [ 77.06975695, 28.691381 ], [ 77.0658712, 28.69256675 ], [ 77.0612382, 28.69256705 ], [ 77.05536025, 28.69401655 ], [ 77.0553129, 28.69650625 ], [ 77.047279949999989, 28.6966927 ], [ 77.0510267, 28.70715535 ], [ 77.05811875, 28.7041419 ], [ 77.0624491, 28.70344275 ], [ 77.06662825, 28.70234625 ], [ 77.0734955, 28.7046127 ], [ 77.07281, 28.7087611 ], [ 77.07076675, 28.7090531 ], [ 77.07215105, 28.71317325 ], [ 77.0640899, 28.71048 ], [ 77.06494375, 28.7090134 ], [ 77.0618632, 28.71185865 ] ] } },
{ "type": "Feature", "properties": { "itinerary_id": 24 }, "geometry": { "type": "LineString", "coordinates": [ [ 77.07560205, 28.73036775 ], [ 77.075051, 28.7303209 ], [ 77.0711966, 28.73156265 ], [ 77.0754889, 28.7353855 ], [ 77.08080535, 28.73416835 ], [ 77.06684725, 28.72792315 ], [ 77.066025, 28.739675 ], [ 77.06464495, 28.74276535 ], [ 77.0628074, 28.7435692 ], [ 77.050841749999989, 28.7682665 ], [ 77.0493404, 28.77104885 ], [ 77.0521379, 28.7775866 ], [ 77.053045, 28.78602845 ], [ 77.0475579, 28.7924521 ], [ 77.044805599999989, 28.7909505 ] ] } },
{ "type": "Feature", "properties": { "itinerary_id": 25 }, "geometry": { "type": "LineString", "coordinates": [ [ 77.04931915, 28.79610735 ], [ 77.04426595, 28.80076985 ], [ 77.036459650000012, 28.801906 ], [ 77.0359007, 28.80461785 ], [ 77.02931275, 28.80587425 ], [ 77.032873349999988, 28.79450205 ], [ 77.02615935, 28.78639695 ], [ 77.0416954, 28.7675823 ], [ 77.0428574, 28.76701955 ], [ 77.041211049999987, 28.7651691 ], [ 76.99553025, 28.7678823 ], [ 76.99399815000001, 28.7691718 ], [ 76.9978039, 28.7610717 ] ] } },
{ "type": "Feature", "properties": { "itinerary_id": 26 }, "geometry": { "type": "LineString", "coordinates": [ [ 76.99814595, 28.7393117 ], [ 76.9936437, 28.73688905 ], [ 77.008061700000013, 28.74116275 ], [ 77.01697905, 28.73277055 ], [ 76.9662893, 28.7505035 ], [ 76.97817095, 28.7636297 ] ] } },
{ "type": "Feature", "properties": { "itinerary_id": 27 }, "geometry": { "type": "LineString", "coordinates": [ [ 76.97456975, 28.7892433 ], [ 76.9768188, 28.80387355 ], [ 76.9617243, 28.80135585 ], [ 76.96091675, 28.800552 ], [ 76.98555025, 28.77922015 ], [ 77.00062715, 28.8064963 ], [ 77.00446595, 28.80762295 ], [ 77.0081844, 28.80913515 ] ] } },
{ "type": "Feature", "properties": { "itinerary_id": 28 }, "geometry": { "type": "LineString", "coordinates": [ [ 77.0099477, 28.8134012 ], [ 77.01373015, 28.81664515 ], [ 77.0098921, 28.81811105 ], [ 76.9946546, 28.81884135 ], [ 77.0075277, 28.83461855 ], [ 77.0163783, 28.83717935 ], [ 77.05233285, 28.8308516 ], [ 77.07096, 28.82752965 ], [ 77.06663285, 28.8287477 ] ] } },
{ "type": "Feature", "properties": { "itinerary_id": 29 }, "geometry": { "type": "LineString", "coordinates": [ [ 77.0646485, 28.80989995 ], [ 77.0529106, 28.80172525 ], [ 77.05149835, 28.8044323 ], [ 77.0542696, 28.8078377 ], [ 77.10116575, 28.75940375 ], [ 77.095819, 28.7523865 ] ] } },
{ "type": "Feature", "properties": { "itinerary_id": 30 }, "geometry": { "type": "LineString", "coordinates": [ [ 77.0845137, 28.7156519 ], [ 77.10096075, 28.71503765 ], [ 77.11074395, 28.7121363 ], [ 77.119209500000011, 28.7087003 ], [ 77.1217126, 28.71311905 ], [ 77.12438455, 28.72015315 ], [ 77.13415165, 28.7261733 ], [ 77.1420639, 28.7189786 ], [ 77.14415315, 28.7016477 ] ] } },
{ "type": "Feature", "properties": { "itinerary_id": 31 }, "geometry": { "type": "LineString", "coordinates": [ [ 77.1545652, 28.6928874 ], [ 77.1393329, 28.6881253 ], [ 77.12998825, 28.6878183 ], [ 77.13216445, 28.70801095 ], [ 77.10306605, 28.698293 ], [ 77.09837595, 28.7010443 ], [ 77.09180505, 28.7012682 ], [ 77.09448395, 28.6939483 ], [ 77.09049195, 28.69512135 ], [ 77.10180355, 28.6884238 ] ] } },
{ "type": "Feature", "properties": { "itinerary_id": 32 }, "geometry": { "type": "LineString", "coordinates": [ [ 77.0972242, 28.6794296 ], [ 77.1058135, 28.67290565 ], [ 77.1203728, 28.6655208 ], [ 77.11707245, 28.65828915 ], [ 77.1163551, 28.6591904 ], [ 77.1162473, 28.64967925 ], [ 77.12965705, 28.65222515 ], [ 77.1288895, 28.653366 ], [ 77.1337735, 28.641866 ], [ 77.13949945, 28.6480065 ], [ 77.13267925, 28.6306666 ] ] } },
{ "type": "Feature", "properties": { "itinerary_id": 33 }, "geometry": { "type": "LineString", "coordinates": [ [ 77.14175535, 28.59653015 ], [ 77.1389862, 28.58841525 ], [ 77.1213209, 28.59368665 ], [ 77.1179288, 28.5827708 ], [ 77.1264193, 28.6100332 ], [ 77.1164864, 28.6073831 ] ] } },
{ "type": "Feature", "properties": { "itinerary_id": 34 }, "geometry": { "type": "LineString", "coordinates": [ [ 77.086796, 28.6203868 ], [ 77.0784651, 28.59174495 ], [ 77.0714338, 28.59418575 ], [ 77.0694354, 28.59448705 ], [ 77.0600575, 28.59431755 ], [ 77.0537266, 28.59367855 ], [ 77.05230715, 28.6004535 ], [ 77.06053365, 28.60063955 ] ] } },
{ "type": "Feature", "properties": { "itinerary_id": 35 }, "geometry": { "type": "LineString", "coordinates": [ [ 77.05169415, 28.5852231 ], [ 77.0670991, 28.581721 ], [ 77.0704365, 28.57809425 ], [ 77.06243955, 28.5633785 ], [ 77.0630465, 28.5594922 ], [ 77.052334800000011, 28.54452185 ], [ 77.052548, 28.54049705 ], [ 77.04698295, 28.5361473 ], [ 77.04742095, 28.53479915 ], [ 77.0527212, 28.53385425 ], [ 77.05254705, 28.5343274 ], [ 77.05544965, 28.5352272 ], [ 77.05759025, 28.5364221 ], [ 77.05936905, 28.53879315 ], [ 77.0561392, 28.539551 ], [ 77.0551799, 28.5397308 ], [ 77.04937795, 28.53141905 ], [ 77.0461696, 28.52623525 ] ] } },
{ "type": "Feature", "properties": { "itinerary_id": 36 }, "geometry": { "type": "LineString", "coordinates": [ [ 77.06471765, 28.51606505 ], [ 77.08163305, 28.52391385 ], [ 77.0891302, 28.52230155 ], [ 77.0964169, 28.52237435 ], [ 77.099026, 28.5213989 ], [ 77.08527335, 28.5266168 ], [ 77.07436265, 28.5399299 ], [ 77.07762945, 28.53467115 ] ] } },
{ "type": "Feature", "properties": { "itinerary_id": 37 }, "geometry": { "type": "LineString", "coordinates": [ [ 77.06447695, 28.5445996 ], [ 77.1230588, 28.54037575 ], [ 77.111266300000011, 28.534954 ], [ 77.1228064, 28.51235 ], [ 77.12978435, 28.51286675 ], [ 77.113022550000011, 28.5062649 ] ] } },
{ "type": "Feature", "properties": { "itinerary_id": 38 }, "geometry": { "type": "LineString", "coordinates": [ [ 77.11786435, 28.5027546 ], [ 77.1059597, 28.5084525 ], [ 77.13352660000001, 28.487766 ], [ 77.131015, 28.48765235 ], [ 77.14239805, 28.4992337 ], [ 77.1591478, 28.4958002 ], [ 77.15650205, 28.49230725 ], [ 77.16487245, 28.49421895 ], [ 77.16580675, 28.4950336 ] ] } },
{ "type": "Feature", "properties": { "itinerary_id": 39 }, "geometry": { "type": "LineString", "coordinates": [ [ 77.1704364, 28.50145725 ], [ 77.18118205, 28.5025007 ], [ 77.18979515, 28.49806695 ], [ 77.1912798, 28.50019635 ], [ 77.1910976, 28.50223195 ], [ 77.19249765, 28.5020997 ], [ 77.19046945, 28.50364695 ], [ 77.1965358, 28.49899695 ], [ 77.197214, 28.49932315 ], [ 77.1939456, 28.4963932 ], [ 77.1927201, 28.48880835 ], [ 77.17653405, 28.49148985 ], [ 77.1789908, 28.51072245 ], [ 77.17856485, 28.51277445 ], [ 77.1748511, 28.5173309 ], [ 77.16816235, 28.51779505 ], [ 77.16727495, 28.5174194 ], [ 77.1641791, 28.51475155 ], [ 77.158699649999988, 28.5189613 ] ] } },
{ "type": "Feature", "properties": { "itinerary_id": 40 }, "geometry": { "type": "LineString", "coordinates": [ [ 77.1322659, 28.53169865 ], [ 77.13086465, 28.5440091 ], [ 77.13142625, 28.5505847 ], [ 77.1361391, 28.54532035 ], [ 77.145535450000011, 28.5599279 ], [ 77.1344632, 28.567617 ] ] } },
{ "type": "Feature", "properties": { "itinerary_id": 41 }, "geometry": { "type": "LineString", "coordinates": [ [ 77.1384291, 28.58089425 ], [ 77.1542664, 28.5867825 ], [ 77.166295850000012, 28.58671385 ] ] } },
{ "type": "Feature", "properties": { "itinerary_id": 42 }, "geometry": { "type": "LineString", "coordinates": [ [ 77.18355855, 28.5983867 ], [ 77.205437, 28.6081978 ], [ 77.218677649999989, 28.62040355 ], [ 77.22574335, 28.62206155 ], [ 77.22844475, 28.62680205 ], [ 77.231758, 28.6228318 ], [ 77.2300183, 28.63691005 ], [ 77.23807065, 28.6420132 ], [ 77.2431178, 28.6422624 ] ] } },
{ "type": "Feature", "properties": { "itinerary_id": 43 }, "geometry": { "type": "LineString", "coordinates": [ [ 77.23016, 28.64870635 ], [ 77.22998945, 28.6490413 ], [ 77.22804595, 28.6482371 ], [ 77.23043215, 28.65274005 ], [ 77.22914735, 28.6535872 ], [ 77.22772815, 28.65464055 ], [ 77.2275798, 28.65402365 ], [ 77.22099745, 28.65685225 ], [ 77.2135581, 28.6529402 ], [ 77.2112112, 28.6503082 ], [ 77.2082109, 28.63779475 ], [ 77.1961958, 28.6463047 ], [ 77.1955618, 28.64690045 ], [ 77.19023505, 28.6499966 ], [ 77.1828083, 28.6533059 ], [ 77.1797398, 28.65229615 ], [ 77.1813486, 28.65596825 ], [ 77.18105545, 28.66036845 ], [ 77.18198225, 28.6673072 ], [ 77.19666415, 28.665384 ], [ 77.19514915, 28.6674161 ] ] } },
{ "type": "Feature", "properties": { "itinerary_id": 44 }, "geometry": { "type": "LineString", "coordinates": [ [ 77.17114995, 28.6696963 ], [ 77.16533895, 28.6689038 ], [ 77.1585005, 28.66372065 ], [ 77.1780106, 28.67262255 ], [ 77.16954705, 28.6589223 ], [ 77.1641251, 28.65374295 ], [ 77.15828395, 28.65993455 ], [ 77.151510449999989, 28.65201235 ], [ 77.1572735, 28.64889675 ], [ 77.15820975, 28.6480881 ], [ 77.1696261, 28.64517325 ], [ 77.1740713, 28.64442825 ], [ 77.175055750000013, 28.6451331 ], [ 77.17541475, 28.6456394 ], [ 77.1760921, 28.6438865 ], [ 77.1780441, 28.643673 ], [ 77.1795182, 28.6393953 ] ] } },
{ "type": "Feature", "properties": { "itinerary_id": 45 }, "geometry": { "type": "LineString", "coordinates": [ [ 77.1784303, 28.6351823 ], [ 77.17628355, 28.6277762 ], [ 77.16824765, 28.6212364 ], [ 77.1496429, 28.627642 ], [ 77.1477292, 28.62304 ], [ 77.1409095, 28.66254405 ], [ 77.1391561, 28.66455035 ], [ 77.1422158, 28.66866095 ], [ 77.14323745, 28.6672551 ], [ 77.14632485, 28.6644003 ], [ 77.146541899999988, 28.6652678 ] ] } },
{ "type": "Feature", "properties": { "itinerary_id": 46 }, "geometry": { "type": "LineString", "coordinates": [ [ 77.1557305, 28.68842475 ], [ 77.1650027, 28.7158828 ], [ 77.165271, 28.74445695 ], [ 77.1684727, 28.7503184 ], [ 77.1670096, 28.76133075 ], [ 77.1733858, 28.7652759 ], [ 77.1713525, 28.7676268 ] ] } },
{ "type": "Feature", "properties": { "itinerary_id": 47 }, "geometry": { "type": "LineString", "coordinates": [ [ 77.1797072, 28.7622692 ], [ 77.1847008, 28.7678697 ], [ 77.1927239, 28.77015725 ], [ 77.196724350000011, 28.77176235 ], [ 77.193585, 28.76236835 ], [ 77.19256245, 28.7559786 ], [ 77.1893623, 28.7512093 ], [ 77.18664245, 28.74692175 ], [ 77.1828756, 28.7467638 ], [ 77.1821645, 28.7482586 ], [ 77.1828305, 28.7528536 ], [ 77.17540125, 28.7431782 ], [ 77.18529555, 28.7375893 ], [ 77.1863217, 28.73812585 ], [ 77.18698855, 28.73836905 ], [ 77.1852506, 28.73415395 ], [ 77.18805215, 28.73106115 ], [ 77.200665, 28.73521405 ], [ 77.19971185, 28.7391588 ] ] } },
{ "type": "Feature", "properties": { "itinerary_id": 48 }, "geometry": { "type": "LineString", "coordinates": [ [ 77.2058568, 28.73797195 ], [ 77.20549725, 28.73633395 ], [ 77.20615555, 28.73165855 ], [ 77.21058125, 28.73028 ], [ 77.21987895, 28.72776955 ], [ 77.21898225000001, 28.7334782 ], [ 77.22196295, 28.73930135 ], [ 77.20337945, 28.7464845 ], [ 77.1963575, 28.74934605 ], [ 77.2061444, 28.72241815 ], [ 77.2061329, 28.72487245 ], [ 77.22191125, 28.7173691 ], [ 77.2213977, 28.70987505 ] ] } },
{ "type": "Feature", "properties": { "itinerary_id": 49 }, "geometry": { "type": "LineString", "coordinates": [ [ 77.24644285, 28.72926715 ], [ 77.24984675, 28.73603965 ], [ 77.251877, 28.7500721 ], [ 77.24537815, 28.75552215 ] ] } },
{ "type": "Feature", "properties": { "itinerary_id": 50 }, "geometry": { "type": "LineString", "coordinates": [ [ 77.2168213, 28.6741145 ], [ 77.2332469, 28.6579946 ], [ 77.2161469, 28.62786645 ] ] } },
{ "type": "Feature", "properties": { "itinerary_id": 51 }, "geometry": { "type": "LineString", "coordinates": [ [ 77.21656685, 28.6307634 ], [ 77.2325905, 28.60818435 ], [ 77.2371334, 28.60956625 ], [ 77.24411755, 28.59044355 ], [ 77.2472007, 28.58435225 ], [ 77.24645285, 28.5838965 ], [ 77.2473768, 28.5810302 ], [ 77.23960725, 28.58054845 ], [ 77.24277805, 28.5856313 ], [ 77.2619, 28.57006185 ], [ 77.2640538, 28.5686086 ], [ 77.267583800000011, 28.56629325 ] ] } },
{ "type": "Feature", "properties": { "itinerary_id": 52 }, "geometry": { "type": "LineString", "coordinates": [ [ 77.2790936, 28.5652954 ], [ 77.28443630000001, 28.56505 ], [ 77.28804295, 28.57190705 ], [ 77.292721300000011, 28.560749 ], [ 77.2885153, 28.5635672 ], [ 77.2841896, 28.55857425 ], [ 77.28648985, 28.5537519 ], [ 77.2804222, 28.5556366 ], [ 77.2942343, 28.55336385 ], [ 77.29644245, 28.5556853 ], [ 77.31737955, 28.53210475 ], [ 77.3151871, 28.53254755 ], [ 77.315563, 28.5309431 ], [ 77.3149051, 28.5299835 ], [ 77.3179053, 28.5267963 ], [ 77.31933, 28.52652475 ], [ 77.32539945, 28.52625125 ], [ 77.33134735, 28.5264872 ] ] } },
{ "type": "Feature", "properties": { "itinerary_id": 53 }, "geometry": { "type": "LineString", "coordinates": [ [ 77.3108708, 28.53256575 ], [ 77.31056095, 28.5325672 ], [ 77.309573050000012, 28.5307495 ], [ 77.30251185, 28.5321722 ], [ 77.3045205, 28.5217468 ], [ 77.3097645, 28.51473735 ], [ 77.3173297, 28.5113877 ], [ 77.3197007, 28.50696855 ], [ 77.3272316, 28.49942385 ], [ 77.3265101, 28.49797245 ], [ 77.33182535, 28.500126 ], [ 77.33263885, 28.5012809 ], [ 77.3355986, 28.5040497 ], [ 77.3132667, 28.50637795 ], [ 77.30588385, 28.4963081 ], [ 77.31255525, 28.48729165 ] ] } },
{ "type": "Feature", "properties": { "itinerary_id": 54 }, "geometry": { "type": "LineString", "coordinates": [ [ 77.31602625, 28.49588545 ], [ 77.2978158, 28.49715485 ], [ 77.2904543, 28.5066121 ], [ 77.2899167, 28.50648415 ], [ 77.28491395, 28.49944925 ], [ 77.28616235, 28.497699 ], [ 77.28123685, 28.49600805 ], [ 77.2790102, 28.4969867 ], [ 77.28652715, 28.50552095 ], [ 77.2684432, 28.51283195 ], [ 77.26639315, 28.5119582 ], [ 77.2709393, 28.51931 ], [ 77.26307315, 28.52207885 ], [ 77.26384025, 28.5224017 ], [ 77.25753445, 28.522615 ] ] } },
{ "type": "Feature", "properties": { "itinerary_id": 55 }, "geometry": { "type": "LineString", "coordinates": [ [ 77.25490665, 28.53223175 ], [ 77.2539935, 28.5330773 ], [ 77.2439398, 28.53690975 ], [ 77.2411232, 28.53497955 ], [ 77.2301698, 28.5447664 ], [ 77.2296312, 28.54316235 ], [ 77.2171003, 28.53835625 ], [ 77.21681485, 28.5348187 ], [ 77.2094253, 28.53507395 ], [ 77.20817125, 28.53295075 ], [ 77.2181899, 28.52387055 ], [ 77.22520635, 28.51890025 ], [ 77.227286099999986, 28.5180431 ], [ 77.23198915, 28.5179528 ], [ 77.2380632, 28.5178764 ], [ 77.24243615, 28.5180104 ], [ 77.24178425, 28.5181992 ], [ 77.24344425000001, 28.51928875 ], [ 77.238348, 28.52478985 ], [ 77.23901475, 28.5247732 ], [ 77.2342958, 28.52628645 ] ] } },
{ "type": "Feature", "properties": { "itinerary_id": 56 }, "geometry": { "type": "LineString", "coordinates": [ [ 77.22913155, 28.53146205 ], [ 77.2285612, 28.53544365 ], [ 77.2425353, 28.54658805 ], [ 77.238929399999989, 28.5530529 ], [ 77.242387650000012, 28.551749 ], [ 77.2331483, 28.5547255 ], [ 77.2488556, 28.5567142 ], [ 77.253618350000011, 28.56210845 ], [ 77.25715790000001, 28.5613629 ], [ 77.26689935, 28.55693995 ], [ 77.2761467, 28.5471129 ], [ 77.27751745, 28.5446214 ], [ 77.28715805, 28.52142665 ] ] } },
{ "type": "Feature", "properties": { "itinerary_id": 57 }, "geometry": { "type": "LineString", "coordinates": [ [ 77.25552955, 28.50653935 ], [ 77.249005, 28.50898725 ], [ 77.2487259, 28.5057984 ], [ 77.24763345, 28.505104 ], [ 77.2405049, 28.50773775 ], [ 77.2460362, 28.51232685 ], [ 77.2346421, 28.51356205 ], [ 77.22943475, 28.51157085 ], [ 77.22721445, 28.5077636 ], [ 77.2303871, 28.50498485 ], [ 77.232096, 28.50711805 ], [ 77.23247165, 28.50683735 ], [ 77.23272815, 28.4991803 ], [ 77.2309852, 28.4977012 ], [ 77.2268541, 28.49445295 ], [ 77.21275805, 28.4998509 ], [ 77.21006085, 28.5110882 ] ] } },
{ "type": "Feature", "properties": { "itinerary_id": 58 }, "geometry": { "type": "LineString", "coordinates": [ [ 77.2027844, 28.51031775 ], [ 77.2057444, 28.5188164 ], [ 77.18784265, 28.5262163 ], [ 77.18913845, 28.54115735 ], [ 77.1863758, 28.54262105 ], [ 77.18173785, 28.55105615 ], [ 77.17347505, 28.55306545 ], [ 77.16412605, 28.5558682 ], [ 77.16038660000001, 28.5558516 ], [ 77.15496005, 28.55365065 ], [ 77.1549658, 28.56406675 ] ] } },
{ "type": "Feature", "properties": { "itinerary_id": 59 }, "geometry": { "type": "LineString", "coordinates": [ [ 77.17577255, 28.5637804 ], [ 77.1810492, 28.561887 ], [ 77.18331265, 28.558182 ], [ 77.1838427, 28.5550116 ], [ 77.197212400000012, 28.56128185 ], [ 77.2055, 28.55924465 ], [ 77.20919525, 28.57289175 ], [ 77.20787715, 28.5759546 ], [ 77.2057536, 28.5775922 ], [ 77.20451825, 28.57020615 ], [ 77.22682675, 28.57080395 ], [ 77.2212251, 28.5762922 ], [ 77.23089865, 28.57982155 ], [ 77.2327217, 28.5848209 ] ] } },
{ "type": "Feature", "properties": { "itinerary_id": 60 }, "geometry": { "type": "LineString", "coordinates": [ [ 77.21103485, 28.59413455 ], [ 77.193014, 28.5733817 ], [ 77.166989300000012, 28.5873838 ], [ 77.1975534, 28.54968215 ] ] } },
{ "type": "Feature", "properties": { "itinerary_id": 61 }, "geometry": { "type": "LineString", "coordinates": [ [ 77.20055005, 28.54778925 ], [ 77.25250145, 28.5464506 ], [ 77.2559665, 28.57198295 ], [ 77.26159595, 28.5980802 ] ] } },
{ "type": "Feature", "properties": { "itinerary_id": 62 }, "geometry": { "type": "LineString", "coordinates": [ [ 77.2894972, 28.6147797 ], [ 77.29657355, 28.60522345 ], [ 77.3038283, 28.60452325 ], [ 77.30448345, 28.6047687 ], [ 77.30754185, 28.60649535 ], [ 77.30678835, 28.60052665 ], [ 77.30395365, 28.599281 ], [ 77.31036025, 28.5981304 ], [ 77.3238158, 28.60315345 ], [ 77.33169435, 28.60426495 ], [ 77.330247500000013, 28.6069924 ], [ 77.33137855, 28.6222238 ] ] } },
{ "type": "Feature", "properties": { "itinerary_id": 63 }, "geometry": { "type": "LineString", "coordinates": [ [ 77.32545615, 28.62787805 ], [ 77.31488355, 28.63453055 ], [ 77.30006595, 28.6257013 ], [ 77.29494675, 28.62369125 ], [ 77.291165, 28.6276907 ], [ 77.2821887, 28.61862495 ], [ 77.29174525, 28.63988405 ], [ 77.28896975, 28.6410284 ] ] } },
{ "type": "Feature", "properties": { "itinerary_id": 64 }, "geometry": { "type": "LineString", "coordinates": [ [ 77.2593476, 28.61717615 ], [ 77.28756365, 28.5867567 ] ] } },
{ "type": "Feature", "properties": { "itinerary_id": 65 }, "geometry": { "type": "LineString", "coordinates": [ [ 77.31300615, 28.51355215 ], [ 77.3036215, 28.51401 ] ] } },
{ "type": "Feature", "properties": { "itinerary_id": 66 }, "geometry": { "type": "LineString", "coordinates": [ [ 77.30380225, 28.51530605 ], [ 77.252402, 28.5000289 ], [ 77.22391535, 28.51222845 ] ] } },
{ "type": "Feature", "properties": { "itinerary_id": 67 }, "geometry": { "type": "LineString", "coordinates": [ [ 77.16135335, 28.4862943 ], [ 77.1563981, 28.48212405 ], [ 77.1525058, 28.47421625 ], [ 77.1562381, 28.47006545 ], [ 77.16286585, 28.4603951 ], [ 77.1604576, 28.454253 ], [ 77.17808585, 28.4543714 ] ] } },
{ "type": "Feature", "properties": { "itinerary_id": 68 }, "geometry": { "type": "LineString", "coordinates": [ [ 77.1873001, 28.45570125 ], [ 77.1932057, 28.453925 ], [ 77.1898998, 28.4587502 ], [ 77.19774075, 28.46038155 ], [ 77.1909124, 28.46455595 ], [ 77.20508855, 28.4702441 ], [ 77.21067690000001, 28.4669058 ], [ 77.219113099999987, 28.44898005 ], [ 77.1900915, 28.444085 ] ] } },
{ "type": "Feature", "properties": { "itinerary_id": 69 }, "geometry": { "type": "LineString", "coordinates": [ [ 77.1676779, 28.4426721 ], [ 77.1746399, 28.44357445 ], [ 77.1678095, 28.4502087 ], [ 77.169571, 28.45306955 ], [ 77.14032885, 28.47465005 ], [ 77.13814965, 28.47322595 ], [ 77.132697549999989, 28.4787166 ], [ 77.12272325, 28.4722493 ] ] } },
{ "type": "Feature", "properties": { "itinerary_id": 70 }, "geometry": { "type": "LineString", "coordinates": [ [ 77.12635465, 28.46898725 ], [ 77.1289018, 28.46715605 ], [ 77.02612585, 28.55185015 ] ] } },
{ "type": "Feature", "properties": { "itinerary_id": 71 }, "geometry": { "type": "LineString", "coordinates": [ [ 77.0318236, 28.55338565 ], [ 77.040949, 28.57395855 ], [ 77.031966, 28.57125825 ], [ 77.0256027, 28.574381 ], [ 77.0239597, 28.5778618 ], [ 77.0221351, 28.5816315 ], [ 77.0192003, 28.57548765 ], [ 77.0194924, 28.5701593 ], [ 77.0113911, 28.5696563 ], [ 77.00360435, 28.56145125 ], [ 77.00145355, 28.5620627 ], [ 77.0077638, 28.5877757 ], [ 77.0103275, 28.59729895 ] ] } },
{ "type": "Feature", "properties": { "itinerary_id": 72 }, "geometry": { "type": "LineString", "coordinates": [ [ 77.0151643, 28.60373715 ], [ 77.01782595, 28.60731645 ], [ 77.0193011, 28.6104587 ], [ 77.02614185, 28.6069988 ], [ 77.0373363, 28.60496135 ], [ 77.03591835, 28.59709135 ], [ 77.0289548, 28.58930205 ], [ 77.0412561, 28.6173165 ], [ 77.041865550000011, 28.61633645 ] ] } },
{ "type": "Feature", "properties": { "itinerary_id": 73 }, "geometry": { "type": "LineString", "coordinates": [ [ 77.0157913, 28.62391765 ], [ 77.01403405, 28.61301575 ], [ 77.00070085, 28.61594305 ], [ 76.94325685, 28.6059324 ], [ 76.9430101, 28.6038173 ], [ 76.93570625, 28.59879425 ], [ 76.93208345, 28.60412235 ], [ 76.9176119, 28.5979059 ], [ 76.9166589, 28.5977966 ], [ 76.91443015, 28.5982758 ], [ 76.9152321, 28.593459 ], [ 76.9161825, 28.5921398 ] ] } },
{ "type": "Feature", "properties": { "itinerary_id": 74 }, "geometry": { "type": "LineString", "coordinates": [ [ 76.92862775, 28.59307325 ], [ 76.94948135, 28.57898275 ], [ 76.94896635, 28.57233005 ], [ 76.96332805, 28.55828125 ], [ 76.9779445, 28.55351305 ], [ 76.9802489, 28.56384975 ], [ 76.9815655, 28.53453925 ] ] } },
{ "type": "Feature", "properties": { "itinerary_id": 75 }, "geometry": { "type": "LineString", "coordinates": [ [ 76.9776419, 28.53449415 ], [ 76.973439649999989, 28.52979555 ], [ 76.95316105, 28.5274628 ], [ 76.93097065, 28.5309133 ], [ 76.92371675, 28.5359517 ], [ 76.91098725, 28.5538476 ], [ 76.90672045, 28.56919415 ], [ 76.90117945, 28.59318685 ], [ 76.893831549999987, 28.61045725 ], [ 76.89472135, 28.6117729 ] ] } },
{ "type": "Feature", "properties": { "itinerary_id": 76 }, "geometry": { "type": "LineString", "coordinates": [ [ 76.86244565, 28.5764625 ], [ 76.86721885, 28.57276 ], [ 76.8521097, 28.56419115 ], [ 76.88789885, 28.53951505 ], [ 76.90179655, 28.5223415 ] ] } },
{ "type": "Feature", "properties": { "itinerary_id": 77 }, "geometry": { "type": "LineString", "coordinates": [ [ 76.93882475, 28.5485266 ], [ 77.00619975, 28.5196717 ] ] } },
{ "type": "Feature", "properties": { "itinerary_id": 78 }, "geometry": { "type": "LineString", "coordinates": [ [ 77.016680400000013, 28.6664666 ], [ 77.0124069, 28.66516625 ] ] } },
{ "type": "Feature", "properties": { "itinerary_id": 79 }, "geometry": { "type": "LineString", "coordinates": [ [ 77.0121161, 28.6656356 ], [ 76.9991821, 28.67474945 ], [ 76.97867935, 28.70348695 ], [ 76.97910495, 28.70309075 ], [ 76.9599603, 28.7164775 ] ] } },
{ "type": "Feature", "properties": { "itinerary_id": 80 }, "geometry": { "type": "LineString", "coordinates": [ [ 77.0219789, 28.69207015 ], [ 77.05116625, 28.68753065 ], [ 77.0565563, 28.6889797 ], [ 77.0593668, 28.6832159 ], [ 77.0534648, 28.6860981 ], [ 77.05090365, 28.6798587 ], [ 77.0514844, 28.67711145 ], [ 77.0528848, 28.67569455 ], [ 77.05621045, 28.67643245 ] ] } },
{ "type": "Feature", "properties": { "itinerary_id": 81 }, "geometry": { "type": "LineString", "coordinates": [ [ 77.0589971, 28.67772665 ], [ 77.06428615, 28.67932615 ], [ 77.0651678, 28.684803 ], [ 77.0772868, 28.66516555 ], [ 77.08293470000001, 28.66104635 ], [ 77.08329065, 28.6590538 ], [ 77.0842805, 28.658581 ] ] } },
{ "type": "Feature", "properties": { "itinerary_id": 82 }, "geometry": { "type": "LineString", "coordinates": [ [ 77.15916475, 28.74508575 ], [ 77.1543108, 28.7606443 ], [ 77.1520758, 28.7603796 ], [ 77.15990515, 28.76696225 ] ] } },
{ "type": "Feature", "properties": { "itinerary_id": 83 }, "geometry": { "type": "LineString", "coordinates": [ [ 77.1689931, 28.78032435 ], [ 77.17430615, 28.77870375 ], [ 77.1759728, 28.803338 ], [ 77.18545725, 28.79911645 ], [ 77.1858195, 28.79909795 ], [ 77.169693, 28.83281205 ], [ 77.1685425, 28.83734475 ], [ 77.1705272, 28.8404736 ], [ 77.187561, 28.84147235 ] ] } },
{ "type": "Feature", "properties": { "itinerary_id": 84 }, "geometry": { "type": "LineString", "coordinates": [ [ 77.1843424, 28.83912885 ], [ 77.19911385, 28.8310179 ], [ 77.1451087, 28.7696732 ] ] } }
]
}
